title,categoryName,website,street,phone,city,state,location/lat,location/lng,totalScore,rank,imageUrl,imagesCount,reviewsCount,scrapedAt,searchString
Springwall | Tandil,Colchonería,https://www.springwall.com.ar/,Av. Avellaneda 1310,+54 9 249 468-8170,Tandil,Provincia de Buenos Aires,-37.3294269,-59.1218751,4.9,19,https://lh3.googleusercontent.com/p/AF1QipMWiHeH_d437oAu-S_G9qLPZke1dGIZ881sjTc=w408-h272-k-no,6.0,35,2025-06-15T23:38:00.068Z,blanqueria
Hanna Boutique,Tienda de ropa,,9 de Julio 246,,Tandil,Provincia de Buenos Aires,-37.3302719,-59.1329352,4.8,13,https://lh3.googleusercontent.com/gps-cs-s/AC9h4nr4DO5RDpDOe84q_gfQxWUmie1aar3x9qZZFkTJSxIQr7Sw4yIJgf6mXp85HeDNs9pjU3_nL_rK9W_ZZ8ROQ1Lbivd-kPD5Z36fWkba2mrVBF9RDxA7pMjMqZBsCSwOqWI0EXbAGQ=w408-h306-k-no,2.0,6,2025-06-15T23:38:00.068Z,blanqueria
DecoRA Tandil,Tienda de cortinas,https://sites.google.com/view/decoratandil,Mitre 855,+54 249 459-7566,Tandil,Provincia de Buenos Aires,-37.3227065,-59.1341921,4.1,11,https://lh3.googleusercontent.com/p/AF1QipN6S7Z5ZfzbtVl8AApvdzu_UjKfvw7i7HOOH_dM=w408-h306-k-no,29.0,12,2025-06-15T23:38:00.067Z,blanqueria
Nube,Tienda de ropa para bebés,,Quintana 565,+54 249 442-4159,Tandil,Provincia de Buenos Aires,-37.307663,-59.142191,3.8,10,https://lh3.googleusercontent.com/gps-proxy/ALd4DhEkzi13_3LBjbi-d4Jz-tt1knZ4WHBYntWVL7zQ1_7sqPqZTZH5XfIcnfhQKvVhkDG8eAr1rGFx2FTu1CEDsX_VQh1IVOl2WdFQT2NiZVJjfV6W1raRbGfMTpXsiaGy8Uc6MCkvjEj7k4ffE5hui53o-t_o3QUIIN06S8kDQx1YXXdwDycTB7ZyxU-3oFE2sjPK1w=w408-h306-k-no,2.0,4,2025-06-15T23:38:00.067Z,blanqueria
Sweet Dreams Colchoneria y Blanqueria,Colchonería,,Honduras 1182,+54 249 461-6601,Tandil,Provincia de Buenos Aires,-37.3075167,-59.1252323,5.0,9,https://lh3.googleusercontent.com/p/AF1QipMGuA2BXhbUDTEcOB-aq4w04rTJsKcMLP_AY4ZP=w408-h306-k-no,19.0,7,2025-06-15T23:38:00.067Z,blanqueria
Tatas Home,Colchonería,https://www.tatashome.com.ar/,Bartolomé Mitre 577,+54 249 442-8405,Tandil,Provincia de Buenos Aires,-37.3242568,-59.1384785,4.3,12,https://lh3.googleusercontent.com/p/AF1QipNQehLRvI8wdzyMVKkL9Cr_LHhTCyTGzkcqqdEz=w408-h344-k-no,9.0,24,2025-06-15T23:38:00.068Z,blanqueria
Blanco del Once,Tienda de ropa,,Sarmiento 660,+54 249 424-1355,Tandil,Provincia de Buenos Aires,-37.3247437,-59.1365046,5.0,7,https://streetviewpixels-pa.googleapis.com/v1/thumbnail?panoid=mEvZzKc8BLW6ZOu2RciLUw&cb_client=search.gws-prod.gps&w=408&h=240&yaw=1.0477867&pitch=0&thumbfov=100,1.0,1,2025-06-15T23:38:00.067Z,blanqueria
Arredo,Tienda de ropa de hogar,https://www.arredo.com.ar/,San Martín 888,+54 249 464-6155,Tandil,Provincia de Buenos Aires,-37.3247737,-59.1328227,4.1,8,https://lh3.googleusercontent.com/p/AF1QipMLlB15_Ti5D7guaqrTIeo6HGuUl4ir2ORY8hUS=w408-h258-k-no,10.0,144,2025-06-15T23:38:00.067Z,blanqueria
Blanqueria Tandil,Tienda de ropa de cama,http://blanqueriatandil.mitiendanube.com/,Av. Avellaneda 1348,+54 249 431-2882,Tandil,Provincia de Buenos Aires,-37.3292803,-59.1212853,4.8,4,https://lh3.googleusercontent.com/p/AF1QipOx557EdPxEzWhnKK4n-qajeCSm65Us9J928ZiB=w408-h367-k-no,41.0,13,2025-06-15T23:38:00.066Z,blanqueria
Don Blanc,Tienda de ropa,,Kramer 273,+54 249 458-2858,Tandil,Provincia de Buenos Aires,-37.3098724,-59.1552637,5.0,2,https://streetviewpixels-pa.googleapis.com/v1/thumbnail?panoid=BgLsdlUdxmdlbbu69OBtbg&cb_client=search.gws-prod.gps&w=408&h=240&yaw=321.22772&pitch=0&thumbfov=100,1.0,1,2025-06-15T23:38:00.066Z,blanqueria
Tuyen Tandil,Tienda de artículos para el hogar,https://tuyen.com.ar/,Gral. Rodríguez 1026,+54 249 461-8822,Tandil,Provincia de Buenos Aires,-37.3212868,-59.1397971,5.0,3,https://lh3.googleusercontent.com/gps-cs-s/AC9h4npQNvrqPqOGP4SwmEB8S3z31bIfYSw0DqKK7ZoQgfIUhuwS-sxVU3KeGlhT3y9y6gsProzneCiAilx7EKSeQTErSsx99MzqM6O6_vD20ETBRklJk5qEEezSh1zT9akir3-ht_5k=w408-h906-k-no,10.0,95,2025-06-15T23:38:00.066Z,blanqueria
PIGNATTA,Kiosco,,4 de Abril 289,,Tandil,Provincia de Buenos Aires,-37.3272881,-59.126847,4.8,20,https://lh3.googleusercontent.com/p/AF1QipPmzc19Lk4qNSbwvRts0VIZLI0fXOvcaKQAzHFH=w408-h338-k-no,18.0,17,2025-06-15T23:37:59.975Z,regaleria
Fuentes De Agua La Casa De Las Fuentes,Tienda de regalos,,Av. Marconi 1727,+54 9 249 456-6799,Tandil,Provincia de Buenos Aires,-37.3167096,-59.1217249,4.4,19,https://lh3.googleusercontent.com/p/AF1QipNqBVwNaNxAyVyqqRwqiFjssOaal_3sGRwqsOBE=w408-h544-k-no,91.0,8,2025-06-15T23:37:59.975Z,regaleria
Las Miliuna Casa Feria Tandil,Tienda de regalos,,Pje. Fournier 31,+54 249 432-4918,Tandil,Provincia de Buenos Aires,-37.32639,-59.134394,4.6,18,https://lh3.googleusercontent.com/p/AF1QipObTVow7565oTPiOEOD4gIO8okl03nzxpBZJjxG=w408-h408-k-no,86.0,45,2025-06-15T23:37:59.975Z,regaleria
Chuna tandil,Tienda de regalos,,9 de Julio 704,,Tandil,Provincia de Buenos Aires,-37.3245758,-59.1361875,5.0,17,https://lh3.googleusercontent.com/gps-cs-s/AC9h4nqDUh5RJa-d362R5RjVdLx2PBVdh6Bae_wOmKwhmeuEPXaiRBGDhJ9S1dlF8SzrEtt2FCrvtAueZzq09uq1UGA9JNYTmNcoPrcI0OKP46G9cSoTa_rRLq_3nEiLZ79z3CxUCgkZLw=w408-h544-k-no,15.0,3,2025-06-15T23:37:59.975Z,regaleria
Tiendagiftboxtandil,Tienda de regalos,,depietri 634 barrio procrear 634,+54 249 421-4232,Tandil,Provincia de Buenos Aires,-37.3287999,-59.1367167,,16,https://lh3.googleusercontent.com/p/AF1QipPs194VNG6HrdFRlPQNdouVjuZL7r-8eskDvTo9=w408-h725-k-no,32.0,0,2025-06-15T23:37:59.975Z,regaleria
Merceria Ros-El,Mercería,,Alonso,,Tandil,Provincia de Buenos Aires,-37.315038,-59.1543608,4.0,15,https://lh3.googleusercontent.com/gps-cs-s/AC9h4npzF3-ToFgybqcehfSDzHs9e-BiAINdRg7hLzvReq_UyO0DwHZviHqI4_9mY5NNhjS445tD9bYhDx6W0IwqNKFZ28RP5GBnWkQ8LfGcF3OqpaotSzwcQey0GSPJSIh6k1PDxCEpyQ=w408-h680-k-no,4.0,16,2025-06-15T23:37:59.975Z,regaleria
Hacete Regalos,Tienda de regalos,https://instagram.com/hacete.regalos.tandil?igshid=nv0uxij9upqn,Av. Avellaneda 977,+54 249 451-1202,Tandil,Provincia de Buenos Aires,-37.3317625,-59.1270086,4.5,14,https://lh3.googleusercontent.com/p/AF1QipMel1hHrr40mOteMpKJeEgzX0ruuppFdR4_VBRc=w408-h544-k-no,20.0,2,2025-06-15T23:37:59.975Z,regaleria
El Escocés,Juguetería,,Quintana 485,+54 249 432-1212,Tandil,Provincia de Buenos Aires,-37.3083139,-59.141416,4.7,12,https://lh3.googleusercontent.com/gps-proxy/ALd4DhHsF1jvgVRpektg-3TiwapRTS3Ba1s_dkrW0hq_0Ab-AY_fN8eFznrjBpYt_aoxC8cTDhHK8Ehd8lKhLppzqyqlRSejT1P3S9urpyQthYzFEjlc12TTwdtixmziWkrhKxYweUBuvgIZkAnEqIRfNo_fpbU0f4K7LUKZDtrYGIAPkVh98m_Tnl9tnjhBB2Nv73sP7GQ=w408-h306-k-no,6.0,307,2025-06-15T23:37:59.975Z,regaleria
Tienda Encantada,Tienda de regalos,https://www.tiendaencantada.com.ar/,Gral. Rodríguez 771,+54 249 425-1630,Tandil,Provincia de Buenos Aires,-37.3243608,-59.1376009,4.2,13,https://lh3.googleusercontent.com/gps-cs-s/AC9h4nqjPN8kBMQ0FsVxZxJwmmKn-GTtPmvxk4dG2JM9WLUTX9gWdKAayoNUMpM-Rz0qEcYbXBjAcirnZnXTNYxkA9Gs1bWVNUyRVwnZY6A-GAKrIUYt-eZ-9b-8vUAyOIXQQTBRJFfi=w408-h306-k-no,26.0,81,2025-06-15T23:37:59.975Z,regaleria
Santería Regalería Manantial,Tienda de artículos religiosos,https://www.instagram.com/manantial_santeria_regaleria/?hl=es-la,Lavalle 400,+54 249 430-8911,Tandil,Provincia de Buenos Aires,-37.3046331,-59.1461556,5.0,10,https://lh3.googleusercontent.com/gps-proxy/ALd4DhGUIxSUTdoLOFp5Twar-2AFiputnkJT_6KcrM3AfUVvLtkXOdB3842eoQTGsTImo2iErsbtE0_qK1KUEmqPUsPYsfnad4KWUO_VnBVy24FMHxcNwiniU3QaeuWQZWb2ZOpzv--o0jaUHwfW3Ic78DILyKNUsNJqKXzvoMj_IDVErr3bZm8jtkSakgOST9T_lPH3LqQ=w408-h306-k-no,14.0,3,2025-06-15T23:37:59.974Z,regaleria
Cuenca Mestiza Tandil,Tienda de regalos,http://www.tiendamestiza.com.ar/,Av. Simón Bolívar 283,+54 249 465-0168,Tandil,Provincia de Buenos Aires,-37.3347513,-59.1245972,4.7,11,https://lh3.googleusercontent.com/p/AF1QipOjkkxHVI7bH2UU5Vb9RK9cD0bzXuVzhY6uMZzv=w408-h725-k-no,72.0,23,2025-06-15T23:37:59.975Z,regaleria
Madre Tierra Artesanias,Tienda de manualidades y bellas artes,https://www.facebook.com/madretierratandilartesanias,Av. Monseñor D Andrea 360,+54 249 444-2602,Tandil,Provincia de Buenos Aires,-37.328049,-59.1521388,4.2,9,https://lh3.googleusercontent.com/gps-cs-s/AC9h4npUg2VmCDLr6BlSWgQ9mr4fzKsY232h313sTDKUKVJ_Od59feToZABf6TX-WqT_POFrd9BUCBXvGsT9V3Ftll_Tah0K_NLdMweQZMbUYzv4qyJxkHRMSVasamEhSLStTmv6C7APvw=w408-h725-k-no,112.0,40,2025-06-15T23:37:59.974Z,regaleria
Only One,Tienda de regalos,https://www.facebook.com/tandil599,9 de Julio 599,,Tandil,Provincia de Buenos Aires,-37.325823,-59.1350487,4.0,8,https://lh3.googleusercontent.com/p/AF1QipPjdO7i5Si4GP6LT0BC89x2urWIH7VknGO9rz6G=w408-h306-k-no,23.0,62,2025-06-15T23:37:59.974Z,regaleria
Uno,Tienda de regalos,,9 de Julio 724,,Tandil,Provincia de Buenos Aires,-37.3243916,-59.1362341,4.7,6,https://lh3.googleusercontent.com/gps-cs-s/AC9h4nq2n4q8RVWlXDEGR5T_AOF8tCqpTePjjsQPQU9Uu3GmVN4kF9m4paoohXcY9ETNsLu06UEXkdRbHEKUH-VV2zysfrIOH176lgy2gRFXs5Kzs75rnDZ_iXkIJ7GHS-RZYaU5Yhg=w408-h306-k-no,6.0,3,2025-06-15T23:37:59.974Z,regaleria
Ampola Mía Regalería,Tienda de cubertería,,Mitre 1186,+54 249 420-7417,Tandil,Provincia de Buenos Aires,-37.3205436,-59.129576,5.0,5,https://streetviewpixels-pa.googleapis.com/v1/thumbnail?panoid=959W_o0Jgnmi_Do4aBO8_w&cb_client=search.gws-prod.gps&w=408&h=240&yaw=319.7519&pitch=0&thumbfov=100,1.0,1,2025-06-15T23:37:59.973Z,regaleria
Polirrubro Sol- Mar,Comercio,https://www.facebook.com/sol.mar.9803,De la Canal 223,+54 249 434-0552,Tandil,Provincia de Buenos Aires,-37.3012262,-59.1654465,4.7,4,https://lh3.googleusercontent.com/gps-cs-s/AC9h4nqUL6qpkMWJidPDA_OjRjj_OW1pBVBMviMYMVFMXh-Mfnjd5krMWoZTVpG9IIXkqtWK0_O7HoCTkRElEsikSEqrGLDpDAjmIAe0NzOkTuEYabq5Dx2JT9OScxxy1nWsIMBoHVxx=w408-h544-k-no,4.0,82,2025-06-15T23:37:59.973Z,regaleria
Castellanas,Tienda de ropa,http://www.castellanas.com.ar/,San Martín 650,,Tandil,Provincia de Buenos Aires,-37.3260183,-59.1360609,4.3,20,https://lh3.googleusercontent.com/gps-cs-s/AC9h4nqynnwCs9_NgL3DQQo_RHjPRdJBEFEgujbGNiZycWKzaw_dSy3whlXfwqzrzAazpyPrOLFrVEOYdwdkGh1Cn5-cjrLrwtBAFphW5mqlkltOqR-ki7bCsA2bidc5XejJh487r8AY=w426-h240-k-no,9.0,327,2025-06-15T23:38:00.068Z,blanqueria
Entre a mi pago Artesanías,Tienda de recuerdos,,Av. Estrada 1395,+54 249 448-5948,Tandil,Provincia de Buenos Aires,-37.3450427,-59.1595277,4.8,3,https://lh3.googleusercontent.com/gps-cs-s/AC9h4noQXsYHQlvZ6ZuEj7yXamqqBiYvz9jh_hRlAwLIZUPa_FIS-VlCIkgDHXzZlbWhlLCWvy_O5xZNhZbWeGLDHb0Ql7XbamQ1yKHtXKbpowxyCWWQ9gRE0LmxoDR21WBMkjPj2GRR=w408-h544-k-no,63.0,109,2025-06-15T23:37:59.973Z,regaleria
Pupina Regaleria en Tandil,Tienda de regalos,,Alvarado 765,+54 249 462-4106,Tandil,Provincia de Buenos Aires,-37.3036792,-59.1747581,4.6,1,https://lh3.googleusercontent.com/p/AF1QipPVELhL9QWdCkLYXOv3eUl4db6LMskASP8b7p9o=w408-h544-k-no,167.0,11,2025-06-15T23:37:59.972Z,regaleria
Regalería Tandil,Granja,,"Circuito turistico El Centinela Continuación, Av. Estrada 1600",,Tandil,Provincia de Buenos Aires,-37.3449224,-59.1596647,5.0,2,https://streetviewpixels-pa.googleapis.com/v1/thumbnail?panoid=Zq9Qs96Hg8-TWrZe3RrHOA&cb_client=search.gws-prod.gps&w=408&h=240&yaw=183.81079&pitch=0&thumbfov=100,1.0,1,2025-06-15T23:37:59.973Z,regaleria
Bien Nuestro regaleria criolla,Cuchillería,http://www.biennuestro.com.ar/,Av. Monseñor Actis 1551,+54 249 443-2342,Tandil,Provincia de Buenos Aires,-37.3103588,-59.112158,4.9,7,https://lh3.googleusercontent.com/p/AF1QipNrs--r0Dwk1XkK6Sd3rl9Y1Y_fquijMrEM2wfH=w461-h240-k-no,93.0,21,2025-06-15T23:37:59.974Z,regaleria
Roqui Electronica,Tienda de electrónica,http://www.facebook.com/roqui.electronica,Gral. Rodríguez 1316,+54 249 457-3257,Tandil,Provincia de Buenos Aires,-37.3178271,-59.1419635,4.3,19,https://lh3.googleusercontent.com/p/AF1QipM3bXb9ntjRZVhkatWmcOeUJ7WVrBH4S-2eNULg=w408-h408-k-no,313.0,674,2025-06-15T23:38:46.444Z,tecnologia
Bianqueria Colchones,Colchonería,https://www.bianqueria.com.ar/,11 de Septiembre 902,+54 249 411-2714,Tandil,Provincia de Buenos Aires,-37.3181985,-59.1272155,4.5,6,https://lh3.googleusercontent.com/p/AF1QipMsUCagx62PwPaPi1hQrcajF8XzOrjHX6vvFkJs=w408-h306-k-no,107.0,86,2025-06-15T23:38:00.067Z,blanqueria
Sector 7 Gamers,Tienda de informática,http://www.sector7gamers.com.ar/,Leandro Alem 1126,+54 249 449-5179,Tandil,Provincia de Buenos Aires,-37.3190243,-59.1376757,4.8,17,https://lh3.googleusercontent.com/gps-cs-s/AC9h4nosfzU8UIhTuw4J_FCWtr34dQm0-YfCt3dTPGV4-a6JO5enDZQuFD8rKZBe0yIhdJ2aEr0K4lIQ7Bj-yID6u1SGoZsqe-oHYLXEcNe-2cHwz1_pEX7_shZccaGvPAl7vRG-KT6HCQ=w426-h240-k-no,22.0,308,2025-06-15T23:38:46.444Z,tecnologia
Delphos Technology,Establecimiento de reparación de artículos electrónicos,http://www.delphostech.com.ar/,Gral. Rodríguez 936,+54 249 442-0556,Tandil,Provincia de Buenos Aires,-37.3222576,-59.1392614,4.8,16,https://lh3.googleusercontent.com/p/AF1QipOFMvC053K_gIO_MvtN2JuoQp4zxb3D7y9g9AKj=w408-h526-k-no,40.0,60,2025-06-15T23:38:46.444Z,tecnologia
Almacén,Tienda de alimentación,,,,Tandil,Provincia de Buenos Aires,-37.3011376,-59.1637703,2.0,19,https://streetviewpixels-pa.googleapis.com/v1/thumbnail?panoid=kqc0dExJfZx-n_O74pLkRg&cb_client=search.gws-prod.gps&w=408&h=240&yaw=214.17221&pitch=0&thumbfov=100,1.0,2,2025-06-15T23:38:50.157Z,comercio
Kiosco,Tienda de alimentación,,De la Canal 117,+54 249 437-8135,Tandil,Provincia de Buenos Aires,-37.3001531,-59.1634985,3.7,18,https://streetviewpixels-pa.googleapis.com/v1/thumbnail?panoid=UrA-KoMq-Tp9Hc4Jj20pUA&cb_client=search.gws-prod.gps&w=408&h=240&yaw=247.80771&pitch=0&thumbfov=100,1.0,7,2025-06-15T23:38:50.157Z,comercio
Blanqueria Bianqueria Colchones y Sommiers,Colchonería,https://www.bianqueria.com.ar/,Leandro Alem 695,+54 249 442-1929,Tandil,Provincia de Buenos Aires,-37.3241011,-59.1343564,4.9,5,https://lh3.googleusercontent.com/p/AF1QipP_z03htdfzEOpnH3zMS6ZuR0KNUG6PZhlFSgcV=w408-h408-k-no,213.0,15,2025-06-15T23:38:00.067Z,blanqueria
El Nogal cuchillos,Cuchillería,,Laprida 2524,+54 249 435-8755,Tandil,Provincia de Buenos Aires,-37.2929824,-59.1686225,5.0,17,,,1,2025-06-15T23:38:50.157Z,comercio
Cooperativa apícola (Copsapa),Tienda de alimentación,,RN226 173,,Tandil,Provincia de Buenos Aires,-37.291135,-59.188987,5.0,16,,,1,2025-06-15T23:38:50.157Z,comercio
"Barraca ""Kimey""",Comercio,,Azucena José Cabral y,+54 249 445-4017,Tandil,Provincia de Buenos Aires,-37.2995042,-59.1668213,4.5,15,https://lh3.googleusercontent.com/gps-cs-s/AC9h4np_unYwjF7EJUguKLrOicIr9Eaai2HbhfLaa5geCh8ASWSW5Q4ZK5wdIgk1_BrJEUs0Pjpkd9yTnL5qpu_iyla2NlWaegB3gnSuvHWS25zrcsWjeADNTt94H9jaS8toBsycsIAGsQ=w426-h240-k-no,2.0,8,2025-06-15T23:38:50.157Z,comercio
Kiosco El Semáforo,Kiosco,,"Avenida Lunghi, Piccirilli &",,Tandil,Provincia de Buenos Aires,-37.2995314,-59.1714882,5.0,13,https://lh3.googleusercontent.com/gps-cs-s/AC9h4nooM054wcfzAXlZ9wCy0xBpztgQJl_OR1OQ8uXDg-Ag8Ondviix5XCdFyVyOkaJhAdgO42YVRhVXCx-pTsd0rXZtR-2uULl22jc_VPbxcN3ZK8FoDGugUvXkxgPnlE8zbEnT4yQpg=w426-h240-k-no,4.0,1,2025-06-15T23:38:50.157Z,comercio
Bakery,Panadería,,,+54 249 462-2568,Tandil,Provincia de Buenos Aires,-37.2980795,-59.1738335,4.5,12,https://lh3.googleusercontent.com/gps-cs-s/AC9h4nrskH_B8E3oQpIQHDvrK94DCxeM6oVaTXgg0ucTl7HmmZlucCzRBQPS_JoFDkpNUVaCIouKpEWVmK5LbJJxtMqm5S-H0We0q9E-GwOB7UhkKdXhWzV-aeXqfm8rx3th44X_1ao=w408-h544-k-no,17.0,162,2025-06-15T23:38:50.157Z,comercio
Informática Tandil,Consultora informática,http://www.informaticatandil.com.ar/,14 de Julio 1562 2,+54 249 444-0068,Tandil,Provincia de Buenos Aires,-37.3164194,-59.1477336,5.0,18,https://streetviewpixels-pa.googleapis.com/v1/thumbnail?panoid=xlMvvlUMvgzBb-6uqEDXBA&cb_client=search.gws-prod.gps&w=408&h=240&yaw=256.5367&pitch=0&thumbfov=100,12.0,4,2025-06-15T23:38:46.444Z,tecnologia
Autoservicio Leire,Tienda de alimentación,,,+54 249 406-1664,Tandil,Provincia de Buenos Aires,-37.2968756,-59.1725289,5.0,11,https://lh3.googleusercontent.com/gps-cs-s/AC9h4nox3a7WnwHZit23MAROrIpCZb16D9NqtxPKJhh7WR4oRgMbN7owP6kjqTsCJacDPp0JlTrLzhntawaKuIt5zIoyTj4ZmNtE9mp74MbL264eFnrp23G-20POMts82rTkKkuBnmE=w408-h306-k-no,19.0,1,2025-06-15T23:38:50.157Z,comercio
MERCADO ZARCOIRIS,Tienda de alimentación,,Entre Ríos,,Tandil,Provincia de Buenos Aires,-37.2916496,-59.1574893,,10,https://streetviewpixels-pa.googleapis.com/v1/thumbnail?panoid=fHXvflU9ixJe1nQcysCbcQ&cb_client=search.gws-prod.gps&w=408&h=240&yaw=164.20619&pitch=0&thumbfov=100,1.0,0,2025-06-15T23:38:50.157Z,comercio
Agrototal,Tienda de herramientas,https://www.agrototal.com.ar/,Buenos Aires 1198 Calle Buenos Aires y Ruta 226,+54 249 442-8698,Tandil,Provincia de Buenos Aires,-37.2904377,-59.1474589,4.9,15,https://lh3.googleusercontent.com/p/AF1QipOoRBrz-1_LXsaELbffWYrzoTXTi8IxAz0cHu76=w427-h240-k-no,34.0,36,2025-06-15T23:38:46.443Z,tecnologia
Galtech,Comercio,,Parque Industrial Tandil - Calle 6 n°465,+54 249 442-8506,Tandil,Provincia de Buenos Aires,-37.2914922,-59.1886446,4.6,9,https://lh3.googleusercontent.com/p/AF1QipNje5AehY0lJupeUfrhRez6bXoX33zNcYKRK9yl=w408-h272-k-no,11.0,39,2025-06-15T23:38:50.157Z,comercio
Despensa domini,Supermercado,,,,Tandil,Provincia de Buenos Aires,-37.293852,-59.1604995,4.7,7,https://lh3.googleusercontent.com/gps-cs-s/AC9h4npqs4bFkdGFJIsSc4l3I-qSMexfdmIeLOhAp17eG1POc7R0N79BiLKOK8DTZ0wx1QhHuMCwm2Erc7OugZ0fOUjfAh73ymATHhLmeVmY_Y8ZkMI4mcqz8c0aQ8ZSurNXu5lDLyp0=w426-h240-k-no,31.0,56,2025-06-15T23:38:50.157Z,comercio
GastroLobos,Comercio,,Av. Lunghi 2242,,Tandil,Provincia de Buenos Aires,-37.3001875,-59.1711552,,6,https://streetviewpixels-pa.googleapis.com/v1/thumbnail?panoid=zdG93cNqId3BtzZXobYe-g&cb_client=search.gws-prod.gps&w=408&h=240&yaw=217.91841&pitch=0&thumbfov=100,1.0,0,2025-06-15T23:38:50.157Z,comercio
El Camionero,Tienda general,,Guise 350,,Tandil,Provincia de Buenos Aires,-37.2946787,-59.1750092,,8,,,0,2025-06-15T23:38:50.157Z,comercio
Olivia merceria,Comercio,,Entre Ríos 459,,Tandil,Provincia de Buenos Aires,-37.2939117,-59.1600924,,5,,,0,2025-06-15T23:38:50.157Z,comercio
Barraca el colibrí,Comercio,,Américo Reynoso 2194,+54 249 454-9952,Tandil,Provincia de Buenos Aires,-37.2932916,-59.1608895,4.6,4,https://lh3.googleusercontent.com/gps-cs-s/AC9h4npsRqi7dqyGQ38vo6buYdS4Lp4B3OH2_JcDn6P8YDvh3cet0LCujvfB5_40kMeA1DDxrW0cL90D3lon2XtJIkik5XqV8Fphxt4fqwwlH-ymsm96b0OmfB4LBcx6s-ZXe6KM3Sg=w426-h240-k-no,7.0,5,2025-06-15T23:38:50.156Z,comercio
Duque Indumentaria,Tienda de ropa,,José Cabral 2266,+54 249 427-1494,Tandil,Provincia de Buenos Aires,-37.2980555,-59.1689632,5.0,2,https://lh3.googleusercontent.com/p/AF1QipOPp3eTQAVpQxnl-4lHPcpiUVPgfIr8RvuVYCrw=w408-h544-k-no,5.0,1,2025-06-15T23:38:50.156Z,comercio
Dietetica Sol,Tienda de alimentación,,Av. Lunghi 2223,+54 249 445-0614,Tandil,Provincia de Buenos Aires,-37.3001845,-59.1706337,4.4,3,https://streetviewpixels-pa.googleapis.com/v1/thumbnail?panoid=gsQUPqVhtmrd9qX4uPtyrA&cb_client=search.gws-prod.gps&w=408&h=240&yaw=27.359673&pitch=0&thumbfov=100,2.0,33,2025-06-15T23:38:50.156Z,comercio
Techno Computación 2.0,Tienda de informática,,9 de Julio 724,+54 249 453-8681,Tandil,Provincia de Buenos Aires,-37.3243916,-59.1362341,4.6,14,https://lh3.googleusercontent.com/gps-cs-s/AC9h4nqoddWuaZCJ1oKYnnKrXEyzQUI9g8ILHHWsKK-KZQr8bGOkbs4sn3ZzVW1LmYcclMGs9KSvXRJTwcZFZ_5Lnj7fTUAg20Zc-B2Ub9wuUtjE99kvBYyazph1SmWFjleGsmVY8vCk=w408-h306-k-no,2.0,55,2025-06-15T23:38:46.443Z,tecnologia
G-Tec,Empresa de software,,San Lorenzo 859,+54 249 437-1103,Tandil,Provincia de Buenos Aires,-37.325392,-59.143823,,13,https://streetviewpixels-pa.googleapis.com/v1/thumbnail?panoid=YDoIuU9ugoaQDOPBvWLGKg&cb_client=search.gws-prod.gps&w=408&h=240&yaw=52.283047&pitch=0&thumbfov=100,1.0,0,2025-06-15T23:38:46.443Z,tecnologia
Area Técnica Tandil - Servicio Técnico - Venta de insumos informáticos,Servicio de informática,https://www.facebook.com/AreaTecnicaTandil/,4 de Abril 646,+54 249 460-9561,Tandil,Provincia de Buenos Aires,-37.3230092,-59.129635,4.9,10,https://lh3.googleusercontent.com/p/AF1QipMUSgQw_4tKRMR2edL5BJsn8iBYnvEfNWRoAm3J=w408-h342-k-no,16.0,35,2025-06-15T23:38:46.443Z,tecnologia
Tiendas T,Tienda de herramientas,,Sarmiento 625,+54 249 462-3496,Tandil,Provincia de Buenos Aires,-37.3250748,-59.1369568,3.8,9,https://lh3.googleusercontent.com/gps-cs-s/AC9h4nrvS7_LUSyaSWf0nAHwU-a8OgiXqCN3PUP_nzfT9bXSmfAS8S2qO0OX5-iamptwFQGY401PmaeFnil7adbpx6nGe00GkVtzlzBypQ3pbBKEIZjdN4irccVzCJjYWTdIDgl7vZfjbw=w425-h240-k-no,3.0,40,2025-06-15T23:38:46.443Z,tecnologia
Cluster Tecnológico Tandil,Asociación u organización,http://clustertecnologicotandil.org.ar/,Av. Avellaneda 1140,+54 9 249 424-9939,Tandil,Provincia de Buenos Aires,-37.3303276,-59.1242051,5.0,20,https://lh3.googleusercontent.com/p/AF1QipMtJ3XkQ5zAXYpO0N3xOi9DG1uV4Zh1RWzAiYUF=w738-h240-k-no,2.0,1,2025-06-15T23:38:46.444Z,tecnologia
Techno Tecnología+Insumos,Comercio,,9 de Julio 724,+54 9 249 432-9716,Tandil,Provincia de Buenos Aires,-37.3243916,-59.1362341,3.7,7,https://lh3.googleusercontent.com/gps-cs-s/AC9h4noQpwYCFwnb396hjcKfJBUIVGYBBjVyjS_QdyFCcS5t5c3Bfazr5adCfiL0ueaBT00rba0zY2Wmod2JPEmgE6EIvZEFEr6S-juWl05W8krw2IxJRi_drNae00bvrwJipvzAF69YTQ=w408-h725-k-no,8.0,6,2025-06-15T23:38:46.443Z,tecnologia
Free Zone,Soporte y servicios informáticos,https://www.facebook.com/freezonecomputacion/,Av. España 158,+54 249 463-4074,Tandil,Provincia de Buenos Aires,-37.3249369,-59.1451023,4.4,5,https://lh3.googleusercontent.com/p/AF1QipO4-bU56lFp6RIp-agsedhf_lIDW_eLQmS4ywlu=w408-h306-k-no,4.0,36,2025-06-15T23:38:46.442Z,tecnologia
Cooperativa Cerámica Blanca,Tienda de cerámica,http://www.ceramicablanca.com.ar/,Calle 3 parcela nº9 Parque Industrial Tandil,+54 249 437-0149,Tandil,Provincia de Buenos Aires,-37.2922439,-59.1809921,4.7,20,https://lh3.googleusercontent.com/gps-cs-s/AC9h4nrpUNvNwB-glSUUHVj_z4uDEyXDuIiSD2df6_znjH9aSm5-ZZR1CNWmGPNWqOXaRdm5EF28NXfLEAGIxYyGmz61weZQs46dQeSjgppawDGZmMHX3bWa_XDuXMA-bjqf356N6Og_Pw=w408-h306-k-no,48.0,134,2025-06-15T23:38:50.157Z,comercio
Intermedia IT,Tienda de software,http://www.intermediait.com/,Belgrano 664,,Tandil,Provincia de Buenos Aires,-37.3285267,-59.1344368,5.0,12,https://lh3.googleusercontent.com/p/AF1QipMD6OCV_Cgw4YModpmwh6jR403VGC1WqrgvF__4=w408-h544-k-no,10.0,43,2025-06-15T23:38:46.443Z,tecnologia
Tool-Tec Soluciones Informáticas,,https://www.facebook.com/TOOLTECReparaciones/,Margarita Galfre 1924,+54 249 435-7985,Tandil,Provincia de Buenos Aires,-37.3058027,-59.1708053,,2,https://lh3.googleusercontent.com/p/AF1QipOXb-gktoHcXpUUiwhsLE9ghA0M04AWkuFBZxKq=w408-h320-k-no,17.0,0,2025-06-15T23:38:46.442Z,tecnologia
Computacion Tandil,Tienda de informática,http://www.computaciontandil.com/,9 de Julio 1007,+54 249 457-4121,Tandil,Provincia de Buenos Aires,-37.3207787,-59.1380159,4.9,11,https://lh3.googleusercontent.com/p/AF1QipMm5FtdpvZO0DZhJKm3A0i88hbeA-YoLRmLpJh6=w533-h240-k-no,56.0,73,2025-06-15T23:38:46.443Z,tecnologia
Paraiso Maquinarias S.A,Fábrica de maquinaria agrícola,,"Ruta nacional 226, Juan Manuel de Rosas km 161,5 y",+54 3471 56-5272,Tandil,Provincia de Buenos Aires,-37.3295215,-59.0771599,,19,https://lh3.googleusercontent.com/p/AF1QipMZNabi47mYreKnMtR0sPXF5SYUOPbZk2M1jAcS=w408-h307-k-no,3.0,0,2025-06-15T23:38:59.961Z,maquinaria
4en1 CRAS revocadoras SIBERIA revoque proyectado,Construcción de maquinaria,,RN226 y 30,+54 249 451-3568,Tandil,Provincia de Buenos Aires,-37.2891631,-59.1695622,5.0,18,https://lh3.googleusercontent.com/p/AF1QipOjsch-KVQfGwpHLHdxzwcMoG5bD_Acv-0VW_It=w408-h306-k-no,40.0,1,2025-06-15T23:38:59.961Z,maquinaria
ElTheam .ar,Tienda de informática,https://eltheam.ar/,9 de Julio 686,+54 249 438-6525,Tandil,Provincia de Buenos Aires,-37.3248639,-59.1359338,4.5,8,https://lh3.googleusercontent.com/p/AF1QipNZg0Gf4QKUMrvwH1ZWvpztYzWjXglm7STYle3m=w408-h408-k-no,50.0,174,2025-06-15T23:38:46.443Z,tecnologia
Bianqueria Almohadas Acolchados Colchones,Colchonería,https://www.bianqueria.com.ar/,Av. Perón 1498,+54 249 442-1929,Tandil,Provincia de Buenos Aires,-37.3190722,-59.1514182,4.6,1,https://lh3.googleusercontent.com/p/AF1QipNEv3UXt3plcQidDB_ccb512zrsu2Sf28_xLRug=w408-h306-k-no,132.0,48,2025-06-15T23:38:00.066Z,blanqueria
Asistec Minera - Fabricacion de Equipos de Perforacion,Fábrica de maquinaria,,Figueroa,+54 249 445-1776,Tandil,Provincia de Buenos Aires,-37.3011932,-59.1603203,,14,https://lh3.googleusercontent.com/gps-cs-s/AC9h4np9JRKJ1K7_juCi951Cj32DHKbs1h2NTzGFBS6frVic4nEblMHfbjpOOLcl6QD4BYHpgweG6OAfYD7HtWTTp08p6rInBTuw4AEb8fp5hVFcAPJauhyYFP_l2Ev1dOoJ-uCs3bUbfw=w408-h408-k-no,3.0,0,2025-06-15T23:38:59.961Z,maquinaria
Tahersa Ind y Com,Fábrica de maquinaria,http://www.tahersa.com/,Lavalle 165,+54 249 445-0840,EAC,Provincia de Buenos Aires,-37.3069594,-59.1489963,5.0,20,https://streetviewpixels-pa.googleapis.com/v1/thumbnail?panoid=cqNvs0Hys-GpoQNmEBtgyw&cb_client=search.gws-prod.gps&w=408&h=240&yaw=122.36077&pitch=0&thumbfov=100,1.0,2,2025-06-15T23:38:59.961Z,maquinaria
Vismara Hnos,Taller de maquinaria,https://www.guia-dorada.com.ar/guia/aviso-el-mejor-servicio-venta-y-reparacion-de-mini-tractores-corta-cesped-en-tandil-buenos-aires-25485.html,Colectora Nte. L. M. Macaya 107,+54 9 249 432-9476,Tandil,Provincia de Buenos Aires,-37.3194198,-59.1031875,4.8,15,https://lh3.googleusercontent.com/p/AF1QipMUhmKMUkGZv8H6PrZXFs03Ckb9-9Y4-bH0Y_dl=w408-h306-k-no,208.0,64,2025-06-15T23:38:59.961Z,maquinaria
Cimbra-blaybar,,https://www.industriacimbra.com/web/,Parque industrial,+54 249 449-0899,Tandil,Provincia de Buenos Aires,-37.294603,-59.184862,,12,https://lh3.googleusercontent.com/p/AF1QipOLwN2tLmsFNM74zFxyYwM54ws4RtgESJpnWard=w408-h458-k-no,19.0,0,2025-06-15T23:38:59.961Z,maquinaria
LANG Tecnología,Tienda de informática,https://www.langtecnologia.com.ar/,Quintana 647,+54 249 411-6457,Tandil,Provincia de Buenos Aires,-37.3068115,-59.1431824,5.0,3,https://lh3.googleusercontent.com/p/AF1QipNTzEEeIjk221Oxjv1szwT_YaxyWaK8B0R1nlYu=w408-h544-k-no,14.0,12,2025-06-15T23:38:46.442Z,tecnologia
Arias Tractores,Servicio de reparación de maquinaria agrícola,,RN226 B7000,+54 249 428-3869,Tandil,Provincia de Buenos Aires,-37.2887953,-59.1697269,,8,https://streetviewpixels-pa.googleapis.com/v1/thumbnail?panoid=r5mT9EyTbOA61frr7vM65w&cb_client=search.gws-prod.gps&w=408&h=240&yaw=5.461175&pitch=0&thumbfov=100,1.0,0,2025-06-15T23:38:59.961Z,maquinaria
Traful,Taller de maquinaria,https://www.guia-dorada.com.ar/guia/aviso-traful-bosque-jardin-campo-en-tandil-buenos-aires-25472.html,Garibaldi 358,+54 9 249 433-9357,Tandil,Provincia de Buenos Aires,-37.3227006,-59.1429068,5.0,10,https://lh3.googleusercontent.com/p/AF1QipMlquJX-_ICIzHYwTNMzdgstuXngyB8BgwP0wQm=w408-h306-k-no,230.0,15,2025-06-15T23:38:59.961Z,maquinaria
LANG Tecnología,Tienda de informática,https://www.langtecnologia.com.ar/,Sarmiento 690,+54 249 422-0433,Tandil,Provincia de Buenos Aires,-37.3245522,-59.1362665,4.3,6,https://lh3.googleusercontent.com/p/AF1QipPdQI5R84rohXFQpg_WzleTDyPmNRf0Kk5nGxi7=w408-h306-k-no,11.0,6,2025-06-15T23:38:46.443Z,tecnologia
LANG Tecnología,Tienda de informática,http://www.langtecnologia.com.ar/,Av. España 882,+54 249 443-8654,Tandil,Provincia de Buenos Aires,-37.3210096,-59.134876,4.5,4,https://lh3.googleusercontent.com/p/AF1QipOW-ItTj51PL21SdpHY1qk3sLD-1kosTkC3g0U_=w408-h306-k-no,23.0,509,2025-06-15T23:38:46.442Z,tecnologia
Realwalker - Tecnología LINDA SRL,,http://www.realwalker.com.ar/,Calle 111 (al fondo Parque Industrial,+54 249 464-8786,Tandil,Provincia de Buenos Aires,-37.2915263,-59.1927537,,1,https://lh3.googleusercontent.com/p/AF1QipPICS5gqriHa8rmc9UkoBpKKxt2GRwF8CbsQoea=w408-h306-k-no,20.0,0,2025-06-15T23:38:46.441Z,tecnologia
Folguera Maquinarias,Concesionario de tractores,https://www.agroads.com.ar/e/folguera-maquinarias/,RN226 Km 169.5,+54 249 453-0104,Tandil,Provincia de Buenos Aires,-37.2897485,-59.1482304,4.8,5,https://lh3.googleusercontent.com/p/AF1QipNNbNOqgDhUQX1-3UzBINpgpbJXixsHXg9gd8ug=w720-h240-k-no,3.0,6,2025-06-15T23:38:59.960Z,maquinaria
Pajín Maquinarias,,,RN226 171,+54 249 422-6247,Tandil,Provincia de Buenos Aires,-37.2898671,-59.1650379,4.8,1,https://lh3.googleusercontent.com/p/AF1QipPhMtKVx0Y_NCZfJKrhtaQdi7fRQYb6088a_CgX=w408-h306-k-no,6.0,20,2025-06-15T23:38:59.960Z,maquinaria
Tandilwagen,Tienda de repuestos para automóviles,,Gral. Rodríguez 1520,+54 249 425-0909,Tandil,Provincia de Buenos Aires,-37.3154028,-59.1432508,4.6,20,https://streetviewpixels-pa.googleapis.com/v1/thumbnail?panoid=EDrE972uRap55hs5zSeVaA&cb_client=search.gws-prod.gps&w=408&h=240&yaw=239.67598&pitch=0&thumbfov=100,1.0,107,2025-06-15T23:38:59.662Z,repuestos
Mecanizados Tandil - Torneria Gral - Pulpos Hidraul - Electr,Taller de maquinaria,http://www.mecanizadostandil.com.ar/,C. Almafuerte 2836,+54 9 249 431-0687,Tandil,Provincia de Buenos Aires,-37.2938388,-59.1768566,4.9,7,https://lh3.googleusercontent.com/gps-cs-s/AC9h4nq4cxVnhtGU5UPzZMeqCkfP_se5e_03QqcpZMG4Fu1hR8vORvKPchAh5HOCYZpQ1SAtkbePGFE83bJIkh0yVMG7G5rMTxU7ltovMOMEosD95bHiWTjaDf34gFZ0HrVOvKmeTKRP=w426-h240-k-no,15.0,9,2025-06-15T23:38:59.961Z,maquinaria
Néstor Conni,Tienda de repuestos para automóviles,,Av. Balbín 1035,+54 9 249 466-1630,Tandil,Provincia de Buenos Aires,-37.3142563,-59.1218217,4.9,18,https://lh3.googleusercontent.com/p/AF1QipMUGmmcIOaVIZjBWImHHlN6uYMMislsyKQqvnIS=w408-h306-k-no,13.0,24,2025-06-15T23:38:59.662Z,repuestos
El Ranquel,Taller de maquinaria,http://www.elranquel.com/,"7000, Av. Espora 954",+54 249 442-2915,Tandil,Provincia de Buenos Aires,-37.3153705,-59.1199208,4.5,6,https://lh3.googleusercontent.com/p/AF1QipPHNJjkW0sgekDaVTfW0UrDACODhMyARiMBoE6w=w408-h306-k-no,94.0,223,2025-06-15T23:38:59.961Z,maquinaria
Repuestos Martinez,,,,+54 249 453-5774,Tandil,Provincia de Buenos Aires,-37.2972403,-59.1329531,5.0,16,https://lh3.googleusercontent.com/p/AF1QipNraM93bIimP66j1KDSHxL7FWoLK8JoYlh91YBt=w408-h544-k-no,2.0,11,2025-06-15T23:38:59.662Z,repuestos
CLAAS Argentina S.A.,Proveedor de equipos agrícolas,https://claas.com.ar/,Ruta 226 y Ruta 30,+54 249 445-0838,Tandil,Provincia de Buenos Aires,-37.289946,-59.174207,4.3,2,https://lh3.googleusercontent.com/p/AF1QipNVFBus9ZHuYjmWr7rE4jRtKcFbJz9Xm_SmFf02=w408-h248-k-no,57.0,45,2025-06-15T23:38:59.960Z,maquinaria
Repuestos Barbieri,Tienda de repuestos para automóviles,https://www.guia-dorada.com.ar/guia/aviso-repuestos-barbieri-en-tandil-buenos-aires-1209.html,San Lorenzo 1074,+54 249 438-8090,Tandil,Provincia de Buenos Aires,-37.3234668,-59.1450705,4.9,17,https://lh3.googleusercontent.com/p/AF1QipNqMv5fY0q-p0N-Qgwo7vqhdO41XbqNBPk8iOxZ=w408-h262-k-no,26.0,25,2025-06-15T23:38:59.662Z,repuestos
Agrofac SA Martinez y Staneck S.A,Fábrica de maquinaria agrícola,http://www.martinezystaneck.com.ar/,Calle 4 y 5 del parque industrial,+54 249 445-2575,Tandil,Provincia de Buenos Aires,-37.2919723,-59.1854774,3.6,3,https://lh3.googleusercontent.com/p/AF1QipNmS8L3Z7r6P9H9GeS8Pt-e__BCXIAS8yM76Pw_=w441-h240-k-no,3.0,5,2025-06-15T23:38:59.960Z,maquinaria
MIRAGLIA REPUESTOS,Tienda de repuestos para automóviles,,Hipólito Yrigoyen 1158,+54 249 434-2977,Tandil,Provincia de Buenos Aires,-37.3202735,-59.1420521,4.6,13,https://lh3.googleusercontent.com/p/AF1QipPIUilQKY1cia85lWPjWidgOoI5rvtEWO8fiAbY=w408-h544-k-no,6.0,92,2025-06-15T23:38:59.662Z,repuestos
FORTAN Repuestos Ford,Tienda de repuestos para automóviles,https://www.guia-dorada.com.ar/guia/aviso-fortan-repuestos-en-tandil-buenos-aires-23.html,Hipólito Yrigoyen 1266,+54 249 443-6366,Tandil,Provincia de Buenos Aires,-37.318997,-59.142821,4.5,19,https://lh3.googleusercontent.com/p/AF1QipOq86f9oL79XCt6kzSSiegynXWof2X4aIIBWNdk=w408-h306-k-no,6.0,361,2025-06-15T23:38:59.662Z,repuestos
Autopartes El Taquita,Proveedor de repuestos de carrocería de automóviles,https://www.guia-dorada.com.ar/guia/aviso-el-taquita-en-tandil-buenos-aires-23478.html,La Movediza 864,+54 9 249 400-8283,Tandil,Provincia de Buenos Aires,-37.3004296,-59.1404021,4.5,14,https://lh3.googleusercontent.com/p/AF1QipOZ1NQ9l7yjtDfTSoKVn2ihijb50XSQt1MHUtNt=w425-h240-k-no,55.0,207,2025-06-15T23:38:59.662Z,repuestos
MP motorepuestos,Tienda de repuestos para motos,,Quintana 1051,+54 249 452-2257,Tandil,Provincia de Buenos Aires,-37.3030945,-59.1479387,4.0,10,https://lh3.googleusercontent.com/p/AF1QipO5TQ-Id2_Oq_qHXCnAn-bWbeRKV3xPQi61mH0n=w408-h306-k-no,22.0,11,2025-06-15T23:38:59.662Z,repuestos
Autopartes Dipama,Proveedor de repuestos de carrocería de automóviles,https://www.facebook.com/AUTOPARTES-DIPAMA-106830452740001/,De Roxas 68,+54 249 464-3951,Tandil,Provincia de Buenos Aires,-37.3071079,-59.1539775,4.5,8,https://lh3.googleusercontent.com/p/AF1QipNA4I1XaOpc6ZpJjLThfiCj_ZdObqCTvpk4hV3G=w408-h408-k-no,8.0,2,2025-06-15T23:38:59.662Z,repuestos
Tandil Repuestos,Tienda de repuestos para automóviles,,9 de Julio 1142,+54 249 461-5858,AQX,Provincia de Buenos Aires,-37.3193287,-59.1391766,4.6,9,https://lh3.googleusercontent.com/p/AF1QipPyS6I_45hVWJatZ6PaqJvQXcF6XeC9hRo-cNo=w408-h408-k-no,25.0,229,2025-06-15T23:38:59.662Z,repuestos
"Gomeria y auxilios 24hs ""El Fumii""",Tienda de neumáticos usados,,Alvarado,+54 249 447-5883,Tandil,Provincia de Buenos Aires,-37.3000149,-59.1701353,4.8,7,https://lh3.googleusercontent.com/gps-cs-s/AC9h4npIag1muz7IkpDM49rDZillVmSEAYTUX5qu1iXEzxmleub5jBwsd2mN88gUDbD0wV0TKNVI-N4Zq0NGbVgQdcfvjKotk4cXPierDY0YY-Ja1XzwQMtg9Oeccwqq4evKVkAeCPqmVQ=w426-h240-k-no,12.0,119,2025-06-15T23:38:59.662Z,repuestos
De Paoli,Tienda de repuestos para automóviles,,Lisandro de la Torre 833,+54 249 445-0578,Tandil,Provincia de Buenos Aires,-37.3098781,-59.1510759,4.6,6,https://streetviewpixels-pa.googleapis.com/v1/thumbnail?panoid=2x6XMHmhKiVtwqgcShPxig&cb_client=search.gws-prod.gps&w=408&h=240&yaw=34.502052&pitch=0&thumbfov=100,1.0,74,2025-06-15T23:38:59.661Z,repuestos
PLANTA RECAPADO MICHELIN ARENAS,Tienda de repuestos para automóviles,,Unnamed Road,+54 249 452-4541,Tandil,Provincia de Buenos Aires,-37.2940238,-59.1877509,5.0,4,https://lh3.googleusercontent.com/gps-cs-s/AC9h4noKV8YD5iZ6GbAsP5qXHcb5vIjoqa2IAFSRodFi0Gyl2SmwPVQ8Q223Dlultf0rGsZVE_VZ3xi9P9t5zAu3dsQVXmyC7IW3gGBym4JNW3591zqHX8_Wm-kwOdymDWZt0AFTqAU0=w426-h240-k-no,7.0,3,2025-06-15T23:38:59.661Z,repuestos
Jm-accesorios-tandil,Tienda de repuestos para automóviles,,Saldivar 298,+54 249 401-0229,Tandil,Provincia de Buenos Aires,-37.3020661,-59.164873,5.0,3,https://lh3.googleusercontent.com/p/AF1QipMFzHWO6rxm0X0Ps37NUbdfki-95U-zloLq9RmP=w408-h544-k-no,20.0,1,2025-06-15T23:38:59.661Z,repuestos
Avenida Lubricantes,Tienda de repuestos para automóviles,,Av. Lunghi 2223,,Tandil,Provincia de Buenos Aires,-37.3001048,-59.1705431,3.0,2,https://streetviewpixels-pa.googleapis.com/v1/thumbnail?panoid=gsQUPqVhtmrd9qX4uPtyrA&cb_client=search.gws-prod.gps&w=408&h=240&yaw=34.671036&pitch=0&thumbfov=100,1.0,1,2025-06-15T23:38:59.661Z,repuestos
Iturralde - Repuestos,Tienda de repuestos para automóviles,https://www.gurugo.com.ar/fichas/iturralde-repuestos_15931668,9 de Julio 1556,+54 249 401-7903,Tandil,Provincia de Buenos Aires,-37.3144728,-59.1420555,4.6,11,https://lh3.googleusercontent.com/gps-cs-s/AC9h4npUZyyWoDCNi7arC9ytP8ZsudEUBjx74-0FRmPVkiyUJ4Imw11PKVKKpe_Fx7hTfPrfpEqUkh6haIg6PT_l9dYY14406g9IgI-lm69TZyoWZqO4c_ouH_U7nwc_FcBKmkRz2Lmuog=w408-h906-k-no,31.0,285,2025-06-15T23:38:59.662Z,repuestos
No busques más,Tienda general,,Dufau 1418,+54 249 465-5949,Tandil,Provincia de Buenos Aires,-37.2990245,-59.1513338,5.0,1,https://lh3.googleusercontent.com/p/AF1QipM-fYFn2prCJC5yvP7beLLNlr_SxUBv3X386w08=w408-h544-k-no,5.0,4,2025-06-15T23:39:21.565Z,venta online
Dietética Zarzamora Alimentos Saludables,Tienda de alimentación,,Uriburu 1482,+54 249 453-3170,Tandil,Provincia de Buenos Aires,-37.311782,-59.129278,4.8,20,https://lh3.googleusercontent.com/gps-cs-s/AC9h4nrDdba4YxfzdcsXqI0bMtR8wQXP_Np6YXwz_5Vb5y06LFjvbojjfqekkMEYlzg6GnEWjmGKE6H-Uyq-H2Riq5x8lHBKZVOXS8FXYRJin0rby7NfwMf5RWGC507FkhQhFahAv1vcHg=w408-h725-k-no,2.0,13,2025-06-15T23:39:21.024Z,tienda
Polirubro M-M,Tienda de alimentación,,Av. Marconi 1398,+54 249 450-9716,Tandil,Provincia de Buenos Aires,-37.3181074,-59.127196,,19,https://streetviewpixels-pa.googleapis.com/v1/thumbnail?panoid=N7UKw4u_DEIKP3UYxayl1A&cb_client=search.gws-prod.gps&w=408&h=240&yaw=328.0076&pitch=0&thumbfov=100,1.0,0,2025-06-15T23:39:21.024Z,tienda
Los Rebelo,Tienda de alimentación,,Av. Alvear 298,+54 249 469-3879,Tandil,Provincia de Buenos Aires,-37.3375763,-59.1315588,4.5,18,https://lh3.googleusercontent.com/p/AF1QipNcLs7ItkaiUfVgaOXfVZd4Z8zbG4lTrXIif4eQ=w408-h271-k-no,25.0,42,2025-06-15T23:39:21.024Z,tienda
Sol - Nat,Tienda de alimentación,,E Mosconi 237,+54 249 437-5402,Tandil,Provincia de Buenos Aires,-37.3078042,-59.1350639,1.0,17,https://lh3.googleusercontent.com/p/AF1QipMFYTEk3tf8a9QycOc1mTgdL4IvyZZaJVNCk-lN=w408-h408-k-no,20.0,1,2025-06-15T23:39:21.024Z,tienda
Mayorista de Congelados,Tienda de alimentación,https://instagram.com/mayoristadeloscongelados?igshid=YmMyMTA2M2Y=,"Av. Colón, Garibaldi &",+54 9 249 446-4618,Tandil,Provincia de Buenos Aires,-37.3192652,-59.1334072,4.9,16,https://streetviewpixels-pa.googleapis.com/v1/thumbnail?panoid=UrbvJChMyPsunWFsRGXwQg&cb_client=search.gws-prod.gps&w=408&h=240&yaw=185.28868&pitch=0&thumbfov=100,3.0,10,2025-06-15T23:39:21.024Z,tienda
Distribuidora Islas,Tienda de alimentación,,Payró 241,+54 249 464-8366,Tandil,Provincia de Buenos Aires,-37.3355123,-59.1467304,4.1,15,https://lh3.googleusercontent.com/p/AF1QipPJW7cyDKlA327VIJPmnuizX6CKn3kALVMVIzN8=w408-h306-k-no,22.0,19,2025-06-15T23:39:21.024Z,tienda
Q locura,Tienda de alimentación,,Aeronáutica 2292,,Tandil,Provincia de Buenos Aires,-37.2906958,-59.1202729,4.0,14,https://streetviewpixels-pa.googleapis.com/v1/thumbnail?panoid=8_M8MU8CAozvTxpx5yyozw&cb_client=search.gws-prod.gps&w=408&h=240&yaw=277.38364&pitch=0&thumbfov=100,1.0,1,2025-06-15T23:39:21.024Z,tienda
Él milagro,Tienda de alimentación,,Las Calas 2535,,Tandil,Provincia de Buenos Aires,-37.3185786,-59.1948044,,13,,,0,2025-06-15T23:39:21.024Z,tienda
Testa Express,Tienda de alimentación,,Av. Avellaneda 1502,+54 9 249 469-8120,Tandil,Provincia de Buenos Aires,-37.328393,-59.118975,3.0,12,https://lh3.googleusercontent.com/gps-proxy/ALd4DhEBkHOLE1F10lOQBl4TrReIfclKNC-jLksFhVKi127ENJTpBdrCpSH-rd9q2k9mcPEIkdLyKpt2QtKijGtHftQ7JkGe3uWxgLgQiCEP_8oVR8sAMwIIUZPvCdNlLWM6rvvSkC0q1wFK2kjS4xdHnEWs3HlStZ0gXhTi9Z5b3aQiQb3--gYtDNUKOKflpz1S1y1ppVw=w408-h306-k-no,5.0,1,2025-06-15T23:39:21.024Z,tienda
ok!,Tienda de alimentación,,Independencia 2145,,Tandil,Provincia de Buenos Aires,-37.2934122,-59.1166289,5.0,11,https://streetviewpixels-pa.googleapis.com/v1/thumbnail?panoid=_cneMeMQ_bVIKx7bPHCBVA&cb_client=search.gws-prod.gps&w=408&h=240&yaw=22.81127&pitch=0&thumbfov=100,1.0,1,2025-06-15T23:39:21.023Z,tienda
Liam Tienda De Frutas Y Verduras,Tienda de alimentación,,,+54 249 428-0805,Tandil,Provincia de Buenos Aires,-37.2978929,-59.1472261,,40,https://lh3.googleusercontent.com/gps-cs-s/AC9h4no74vOQOhoATlImoDZKelVKICMGI6GLOcUaQakZAHxyVcRXWDymvTGWOdPSDW44QWs3_Ua1fhA1P40jmXg-IYRwwbHHG2XUMUQC8SJFbGOl7LwP9gm8j-v40uAFdC1jrkk7VAL4fFaGO7wk=w408-h725-k-no,7.0,0,2025-06-15T23:39:22.276Z,tienda
Elisa Bidegain Indumentaria,Tienda de ropa,,Isla Gran Malvina 766,+54 9 249 451-7245,Tandil,Provincia de Buenos Aires,-37.2935352,-59.1518819,,35,https://streetviewpixels-pa.googleapis.com/v1/thumbnail?panoid=qBdaSwXZqENzH-V09-vDbg&cb_client=search.gws-prod.gps&w=408&h=240&yaw=217.528&pitch=0&thumbfov=100,1.0,0,2025-06-15T23:39:22.276Z,tienda
Barraca el trope,Tienda de alimentación,,Piccirilli,+54 249 420-7451,Tandil,Provincia de Buenos Aires,-37.2994637,-59.1712868,5.0,34,https://lh3.googleusercontent.com/gps-cs-s/AC9h4nozqnd7S2cYvFmaxnSCvuqUlvf9EYoxLy8BhMIfVnclvYsYhqdrJ_zjWVSYnEY_9FYzUCtzBWDFwRN-0VMOFAeWAENosKYFbjRktMJOUsoZy7qnFOgVXbgM8jIT7XRT7LxodiYJwg=w408-h544-k-no,56.0,3,2025-06-15T23:39:22.276Z,tienda
Viejo Nacho,Quesería,,"Calle 4 y 5, Ruta 30 y 226",+54 249 425-1155,Tandil,Provincia de Buenos Aires,-37.2918386,-59.1863989,4.6,33,https://lh3.googleusercontent.com/gps-cs-s/AC9h4nqJXEV_78jpIBZvSMzuUwH64kaXWNTnp8JkFKL1may8Au98b_jLE3fL5qVSD7taJ1Rqwt78YaxeoPJlFJ04Z-56GHXjOdDbTtm0IzL9scPau6c5VehEbecZYboN6JmxwbQ4z8zv=w408-h329-k-no,2.0,14,2025-06-15T23:39:22.276Z,tienda
Full Market,Tienda de alimentación,,,,Tandil,Provincia de Buenos Aires,-37.2976295,-59.1469297,,31,https://streetviewpixels-pa.googleapis.com/v1/thumbnail?panoid=RdqLn0GxzcGHsQ3qXle6Lg&cb_client=search.gws-prod.gps&w=408&h=240&yaw=327.94315&pitch=0&thumbfov=100,1.0,0,2025-06-15T23:39:22.276Z,tienda
Los Pollos Serranos,Tienda de aves de corral,http://instagram.com/lospollosserranos,Francisco Beiró 1222,+54 249 449-5378,Tandil,Provincia de Buenos Aires,-37.2980766,-59.145581,4.9,32,https://lh3.googleusercontent.com/p/AF1QipOMNu3ciyIaV2tNRWYdnYBZ_KGAiw8OY-UdxKWr=w408-h544-k-no,25.0,35,2025-06-15T23:39:22.276Z,tienda
Don Juan Quesos y Fiambres,Tienda de fiambres,,Beiró 1285,+54 249 449-7538,Tandil,Provincia de Buenos Aires,-37.2973205,-59.1461915,4.7,28,https://lh3.googleusercontent.com/p/AF1QipNYWJn3kuibR1wUvKFQK73ZKNpgIr5uhdmXRrAe=w408-h544-k-no,43.0,37,2025-06-15T23:39:22.276Z,tienda
Lo de Raulo,Tienda de alimentación,,Mosconi,,Tandil,Provincia de Buenos Aires,-37.2950289,-59.1515546,5.0,27,https://streetviewpixels-pa.googleapis.com/v1/thumbnail?panoid=MxmaPnXJjp7PwWkBvQTT8w&cb_client=search.gws-prod.gps&w=408&h=240&yaw=12.184367&pitch=0&thumbfov=100,1.0,3,2025-06-15T23:39:22.276Z,tienda
Supermercado Asia,Supermercado chino,,Trabajadores Municipales 1709,,Tandil,Provincia de Buenos Aires,-37.2934973,-59.1510306,4.2,26,https://lh3.googleusercontent.com/gps-cs-s/AC9h4noL3EVWDn3AAlJ5J8zjNLIVFz-rFi0JYg6AZyY3YzfoSIkFff-JLGLQ5FWDKSxsPqYwyArxXm50hdTTcOBRofBs9PJelh4dffbNcB7V7wufHssHUsOYPu8jbqytohJx-ZOmDdXxSw=w408-h544-k-no,10.0,203,2025-06-15T23:39:22.275Z,tienda
Despensa el paraiso,Tienda de alimentación,,Mosconi 2098,+54 249 462-9525,Tandil,Provincia de Buenos Aires,-37.2911695,-59.1568303,4.5,25,https://lh3.googleusercontent.com/gps-cs-s/AC9h4np4nrcyYfdIF9jHW4AKk03Y7PAzvuJZgCVUHyolmfHXvp1r9KTtiqioOe7DV_-LkxeXNneVvYlVOq0NRlTO1RJ3Z3RF0IaAtdil6MgwHWiFx7XQzB4IKr0RhJwzgoPwrIU0ysSzgg=w408-h838-k-no,6.0,12,2025-06-15T23:39:22.275Z,tienda
Súper Kiosco Nico,Kiosco,https://www.instagram.com/nico_superkiosco?igsh=cm1vYms0aXoxbDdh,Beiró 1293,+54 249 427-6311,Tandil,Provincia de Buenos Aires,-37.2973276,-59.1462362,5.0,22,https://lh3.googleusercontent.com/p/AF1QipM22WZwJLEm1GSsk4EgrVMBEL92o3sFne59IMla=w408-h306-k-no,42.0,1,2025-06-15T23:39:22.275Z,tienda
Laffargue Raul A,Tienda de alimentación,,Av. Santamarina 895,,Tandil,Provincia de Buenos Aires,-37.3206036,-59.1329141,3.0,10,https://streetviewpixels-pa.googleapis.com/v1/thumbnail?panoid=vlhqjWFX6xqXMspSPLevJg&cb_client=search.gws-prod.gps&w=408&h=240&yaw=274.04767&pitch=0&thumbfov=100,1.0,4,2025-06-15T23:39:21.023Z,tienda
Polirrubro 'El Sanjua',Tienda de alimentación,,Pinto 320,+54 249 442-7438,Tandil,Provincia de Buenos Aires,-37.3288809,-59.139764,5.0,9,https://lh3.googleusercontent.com/gps-proxy/ALd4DhFWmwn6N2qkkJeUkr19X4PxwiEPFQDdvU_dzWWbwCWxS7phyKW4_4bmXtgjOhnQki68gROU4Zc28V--2SIsa9RYFAh4YoRD-_oc-ItFcxcjKTlUOUsJHz-9iZTVScd4of-ez9fyjk6LdulQdsw1Wke_byIoLGQDFXHDEApBRjuGPx2fdrQzse_A4loUpEW2QbVGwVA=w408-h306-k-no,5.0,2,2025-06-15T23:39:21.023Z,tienda
"Corbán ""Minimercado""",Tienda de alimentación,,Av. Avellaneda 1707,+54 249 422-1433,FTE,Provincia de Buenos Aires,-37.3275588,-59.1158489,4.7,8,https://lh3.googleusercontent.com/gps-proxy/ALd4DhEoNZs-ql6BsteLo8joFiXxOaO3YLOrnMZGitqpRjS23OSyUmKrZbLcaGTYE5VPI0H9lG7_Ur4C166V45eDCl9deuOaib87O2i16QBNSls7yZKl71wzk7Nb3OEGBEZaRdaE6bTART98wLLDPWaaIim-KqMx8d4mS1u9PC86O2JahyDfOndHIKCzzbD7QuFPoAqqeQ=w408-h306-k-no,3.0,6,2025-06-15T23:39:21.023Z,tienda
Helados Pepe’s,Heladería,,Andrea y Carmen Calvo 1483,,Tandil,Provincia de Buenos Aires,-37.297164,-59.1483067,5.0,60,https://lh3.googleusercontent.com/gps-cs-s/AC9h4no7p9UdVmVbKyDTomNE3oufRwUUN5zGemKB_B48qG9OgVTWoFGWD8vyp_b5aZJys1HITI5Y19RGSdQUSKlANuEPpFKO2PNQDQpLJbTIS98do6g0If3vMlhnoFI1JvIZX1YAGF-2xlkyugo=w408-h544-k-no,4.0,1,2025-06-15T23:39:23.396Z,tienda
Martínez & Ferreyra,Joyería,,Omar Marocchi 658,+54 249 466-8964,Tandil,Provincia de Buenos Aires,-37.2982002,-59.148719,4.8,59,https://lh3.googleusercontent.com/p/AF1QipPbckaMJMUpIKbYM4o0agubJVeU7GcUTsvkMsnM=w408-h544-k-no,154.0,70,2025-06-15T23:39:23.396Z,tienda
Las Tomas,Tienda de ropa de mujer,,De Pietri 650,,Tandil,Provincia de Buenos Aires,-37.2968623,-59.1502666,,56,https://streetviewpixels-pa.googleapis.com/v1/thumbnail?panoid=xX9CAJ1GoSTXb2MV1AiEHQ&cb_client=search.gws-prod.gps&w=408&h=240&yaw=132.69907&pitch=0&thumbfov=100,1.0,0,2025-06-15T23:39:23.396Z,tienda
S Y P REPUESTOS CHEVROLET - TOYOTA,Tienda de repuestos para automóviles,https://www.guia-dorada.com.ar/guia/aviso-repuestos-chevrolet-s-p-en-tandil-buenos-aires-16366.html,San Lorenzo 1361,+54 9 249 402-4880,Tandil,Provincia de Buenos Aires,-37.319338,-59.1473038,4.6,12,https://lh3.googleusercontent.com/gps-cs-s/AC9h4noNapZT38vM9ys_skIc-o130Bbb47tQ_ad_YUixOsPBUrMTkrvokSy5RYPicPS9r24pxV9EOXev-klNFQRXrRuIC51kE95P4XqLM8_f9-lN4fOOD8h6lNTWcWqkbMhsYq-B9Q=w408-h306-k-no,159.0,201,2025-06-15T23:38:59.662Z,repuestos
Dietética & Cotillón,Tienda de alimentación,,Américo Reynoso,,Tandil,Provincia de Buenos Aires,-37.2932763,-59.1611971,,55,https://streetviewpixels-pa.googleapis.com/v1/thumbnail?panoid=qVUSUdjpfLoj6zWQgsxiIQ&cb_client=search.gws-prod.gps&w=408&h=240&yaw=218.39958&pitch=0&thumbfov=100,1.0,0,2025-06-15T23:39:23.396Z,tienda
Picadas y Quesos Tandilenses 2,Mercado de alimentos frescos,https://www.instagram.com/picadasquesostandilenses2?igsh=cGRwNTMyMmExaDc1,Av. Lunghi 2334,+54 249 400-9006,Tandil,Provincia de Buenos Aires,-37.299363,-59.1722363,1.0,54,https://lh3.googleusercontent.com/p/AF1QipMgXP-7Vp5lUb3fbRhKK6wGvKIxSd1fHZBs7Cz6=w435-h240-k-no,21.0,1,2025-06-15T23:39:23.396Z,tienda
Las Tilas,Tienda de ropa de mujer,,De Pietri 650,,Tandil,Provincia de Buenos Aires,-37.2968623,-59.1502666,,53,https://streetviewpixels-pa.googleapis.com/v1/thumbnail?panoid=xX9CAJ1GoSTXb2MV1AiEHQ&cb_client=search.gws-prod.gps&w=408&h=240&yaw=132.69907&pitch=0&thumbfov=100,1.0,0,2025-06-15T23:39:23.396Z,tienda
MB Tablitas Tandilenses,Tienda de alimentación,,Ricardo Gabriel del Rio 1324,,Tandil,Provincia de Buenos Aires,-37.2973484,-59.1471535,5.0,51,https://lh3.googleusercontent.com/gps-cs-s/AC9h4nrUevvehRHz8U_iRotHyi1ttFDSqu-sUY7ClGM1fZ_qf0bSZXAofLMMqEtnyjCbbSyoEjB2Lo43PrLaq1S8czWpvFreSYEokT_Dxk6id7a-TU-C_SzAEZh6mbooB3dS8BgHS2MO=w426-h240-k-no,12.0,4,2025-06-15T23:39:23.396Z,tienda
Nico-sport,Tienda de ropa,,"Juan Roger Peña, Mosconi &",,Tandil,Provincia de Buenos Aires,-37.2969041,-59.149355,,52,https://streetviewpixels-pa.googleapis.com/v1/thumbnail?panoid=ym04480MCp_oFSyJ66C5Yg&cb_client=search.gws-prod.gps&w=408&h=240&yaw=182.753&pitch=0&thumbfov=100,1.0,0,2025-06-15T23:39:23.396Z,tienda
NANA TANDIL,Tienda de ropa,https://www.instagram.com/nana_tandil?igsh=MTF2dnp6emFhem5zYw==,Córdoba 717,+54 249 458-2144,Tandil,Provincia de Buenos Aires,-37.2935363,-59.153133,,63,https://streetviewpixels-pa.googleapis.com/v1/thumbnail?panoid=qkdjwmy7OaHwSmsAhjl1vQ&cb_client=search.gws-prod.gps&w=408&h=240&yaw=224.69623&pitch=0&thumbfov=100,1.0,0,2025-06-15T23:39:24.466Z,tienda
Carnicería Marcela,Carnicería,https://www.facebook.com/carniceria.marcela,Entre Ríos 711,+54 9 249 437-1381,Tandil,Provincia de Buenos Aires,-37.2910987,-59.1568137,4.9,62,https://lh3.googleusercontent.com/p/AF1QipMMBcOcaTDyuuTUbs69sFBmIksTqxssnsge7KWE=w408-h544-k-no,6.0,20,2025-06-15T23:39:24.466Z,tienda
Supermercado Asia,Supermercado chino,,Quintana,+54 249 431-1688,Tandil,Provincia de Buenos Aires,-37.2932542,-59.1611746,4.1,49,https://lh3.googleusercontent.com/gps-cs-s/AC9h4nriyxOMMViVZ09T5oz3emYM0w3oukxGW2PUYG9uHpAc08QxTval-7OAuc2Iws9qpggNLhNsX5Iia3PN7MVOgJyGQuNW1tI-uVMwlZ441pDJWCWN7SeD_D2Rjqb9rOuYnndPbSg=w426-h240-k-no,8.0,80,2025-06-15T23:39:23.396Z,tienda
Ravi accesorios,Tienda de accesorios de moda,,Córdoba 627,,Tandil,Provincia de Buenos Aires,-37.2945105,-59.1541171,5.0,50,https://lh3.googleusercontent.com/gps-cs-s/AC9h4np1JFRIYmq9tlcS6MFLh0GZe5GA__sVg-EVSXGc937wVsKcuovzpkI2UMHglduoJNGNkWwJb0L8jRR_2JIqpiNj2cUyTvPC_6zk1H3wGcr9Hh9qNjYi7HsDlLyEWc3MFOd3K-U=w408-h725-k-no,13.0,1,2025-06-15T23:39:23.396Z,tienda
Almaq S.A.,Proveedor de equipos agrícolas,http://www.almaqsa.com/,Colectora Sur J. C. Pugliese 442,+54 249 443-5179,Tandil,Provincia de Buenos Aires,-37.3172033,-59.1080158,4.7,16,https://lh3.googleusercontent.com/gps-cs-s/AC9h4no6UjA-O1tUzGLzTtXV1egkfaANWwUQ3on5bFY9oSXeAgrHOUKowzbosbTgxXmyRz7MS1c2u2AB_dIw_y4NG0Flfa91oKAbd9d_FdED9AFBQTtZ4XSxnj9z_WvMPzm3XmiPBcck=w408-h306-k-no,6.0,46,2025-06-15T23:38:59.961Z,maquinaria
El Taca,Tienda de repuestos para automóviles,https://www.autoparteseltaca.com.ar/,RP30,+54 249 443-1956,Tandil,Provincia de Buenos Aires,-37.2830745,-59.1671439,4.0,1,https://lh3.googleusercontent.com/gps-cs-s/AC9h4nqvVJfUTozI9dlZMPTekV275iZAeX5X0auLo9p7cazy3zQkjOPafqdf3VdQPJbLxyDbQ7AeDwigN9ghTkqbbk_ssIncGAf42Z5okbsXsg8UJUu4hKeMkN8DmG3JKOlsfUIKho-sUmBwT2Q=w408-h432-k-no,37.0,226,2025-06-15T23:38:59.661Z,repuestos
DESPENSA La Pipi,Tienda de alimentación,,Av. Pujol 567,,Tandil,Provincia de Buenos Aires,-37.2995429,-59.1489582,,48,https://streetviewpixels-pa.googleapis.com/v1/thumbnail?panoid=eg67mLQv3k8i3xgMysCjlg&cb_client=search.gws-prod.gps&w=408&h=240&yaw=146.05241&pitch=0&thumbfov=100,1.0,0,2025-06-15T23:39:23.396Z,tienda
Amalucada,Tienda de productos de belleza,,Av. Pujol 550,,Tandil,Provincia de Buenos Aires,-37.2995312,-59.1494092,,47,https://streetviewpixels-pa.googleapis.com/v1/thumbnail?panoid=yyHMKWAjp8ZJ7vj8w6QR1w&cb_client=search.gws-prod.gps&w=408&h=240&yaw=316.89148&pitch=0&thumbfov=100,1.0,0,2025-06-15T23:39:23.396Z,tienda
Alquimak,,http://www.alquimak.com.ar/,Urquiza 1735,+54 249 435-6724,Tandil,Provincia de Buenos Aires,-37.2931852,-59.1299931,5.0,9,https://lh3.googleusercontent.com/p/AF1QipMjC3JwqPFPt_nWUmECXdkwMlDap07zZddLq-ch=w408-h725-k-no,4.0,19,2025-06-15T23:38:59.961Z,maquinaria
La gringa tandil,Panadería,,,+54 249 428-2362,Tandil,Provincia de Buenos Aires,-37.2930593,-59.1586465,3.9,46,https://lh3.googleusercontent.com/gps-cs-s/AC9h4noTf0KsoGXJiljO9fdXlwNMwoqYMlWopiz7a6uGQYOVx-GefUoQIZNCtj3ahtuQJByZvSzACs9Mp8RSKdUVIqhyW4EgZhv20xnW0VxfmswblgMetMRpbrJyqoan3Apvgk-BJgfT=w408-h725-k-no,4.0,13,2025-06-15T23:39:23.396Z,tienda
"Despensa ""ABUELA ELVIRA""",Tienda de alimentación,,José Cabral 2051,+54 249 457-1415,Tandil,Provincia de Buenos Aires,-37.2998775,-59.1662456,4.3,44,https://lh3.googleusercontent.com/p/AF1QipP1ShxsentkcIN3427t0HO4csRsyDrH17FYX5iK=w408-h544-k-no,13.0,11,2025-06-15T23:39:23.396Z,tienda
Manjar Serrano,Tienda de alimentación,,Chapeaurouge 636,+54 249 450-9098,Tandil,Provincia de Buenos Aires,-37.2999266,-59.1765207,4.6,43,https://lh3.googleusercontent.com/gps-cs-s/AC9h4nqUsP0ZyATsaXyVuAta6dr2crwapvGp_Ea5hw8bJ7xZ4R5cmjHDeuYb7njUMMLAbKzom1WCsEoeUwnBJueZQJUL0xaMWIPipntEF0isXuZx-16gPN7jFcIF-kuRO6o6N1oU51cV=w408-h408-k-no,4.0,10,2025-06-15T23:39:23.396Z,tienda
"Minimercado ""Lo De Queta""",Tienda de alimentación,,La Pampa,,Tandil,Provincia de Buenos Aires,-37.2988252,-59.1618803,,42,https://streetviewpixels-pa.googleapis.com/v1/thumbnail?panoid=BMYgU5cfzsNn8hiKHqC06Q&cb_client=search.gws-prod.gps&w=408&h=240&yaw=318.02032&pitch=0&thumbfov=100,1.0,0,2025-06-15T23:39:23.395Z,tienda
Sol de Azúcar,Tienda de alimentación,,9 de Julio 1130,+54 249 463-3076,Gran Buenos Aires,Provincia de Buenos Aires,-37.319484,-59.1390919,5.0,6,https://lh3.googleusercontent.com/gps-proxy/ALd4DhFoEkViCswUFzIWXARWAwqhnT1nB-BniAlzFZOEljgSux9BjsrJb8cLxyED7dOnMCJ31dgq8-sM771Joo9Avy96GlAEIysTfYpNOba-P4tV5C68GJ-VtXCwVrfLchyAj5KltvgMc-1nSznXxvUkx-pMx6-pWF1bJkrKF3wby2o2wi9_5P7hMQEbxhg80H-6rGOovOA=w408-h726-k-no,2.0,2,2025-06-15T23:39:21.023Z,tienda
Mercado Riqui,Mercado,,Moreno 1548,,Tandil,Provincia de Buenos Aires,-37.3111045,-59.1276885,5.0,4,https://streetviewpixels-pa.googleapis.com/v1/thumbnail?panoid=TTCYbceZyNqJ4jcy-ANcAw&cb_client=search.gws-prod.gps&w=408&h=240&yaw=263.61563&pitch=0&thumbfov=100,1.0,3,2025-06-15T23:39:21.023Z,tienda
Rincón Serrano,Tienda de alimentación,,Gral. Rodríguez 382,+54 9 249 449-0846,Tandil,Provincia de Buenos Aires,-37.3292895,-59.1351265,4.8,5,https://lh3.googleusercontent.com/gps-cs-s/AC9h4nqYMNi43ViuqaEoyZERU5HOvg0bh1Zu3XPTgMDZANdMZKnCwQ34XhClqD-MI5aNk6W5egf9UYzPzp9ZWfn-_VpyotpzbBT3hkK-xxM-gVXCR-Vu6PwvjPR3qee4Sh9sYxfXGrht=w408-h725-k-no,12.0,58,2025-06-15T23:39:21.023Z,tienda
Los Tres Soles,Tienda de alimentación,,Gral. Rodríguez 1229,+54 249 457-3470,Tandil,Provincia de Buenos Aires,-37.3187891,-59.1410507,4.5,3,https://lh3.googleusercontent.com/gps-proxy/ALd4DhHr-r9HEXygb2ZKBbEec3RxQIfNkE9-dfSZcSy6JkjyqFsR8SeArukuTQ02n7VEc5cBkQAOie73DZysiFuuk4Gn-DtK2Ct7WIOokB0GWFGJqr6HBvCsVru81vMVA0BpyZlpjcwRrl-lHU7pFSeIqJwJ-asfOMvuYU_wGgnQseFph_D9x0B311bN81ulXdWw7U-2cBM=w408-h306-k-no,2.0,4,2025-06-15T23:39:21.023Z,tienda
La vieja esquina,Tienda de alimentación,,,+54 249 463-2318,Tandil,Provincia de Buenos Aires,-37.3206598,-59.1329631,5.0,2,https://lh3.googleusercontent.com/gps-cs-s/AC9h4nqgDN1LvXlYVbGAFBg14k0otuvoFGUCUZZUDOPnbBLvZqmK4DvoWJRHFu8SITDDsviqG7oewSFYJWmWDutPjxt4HMToypXgvf3L4onAx2i8K6arx9NWbjJNLniYbKdmmJFsMd52Yw=w408-h544-k-no,18.0,1,2025-06-15T23:39:21.023Z,tienda
LAS DINAS Venta al público,Tienda de alimentación,,Francia,,Buenos Aires,Provincia de Buenos Aires,-37.3675345,-59.1324132,4.5,20,https://lh3.googleusercontent.com/gps-cs-s/AC9h4nplya5--D69gBHinvL7eX-neibfJkcwRjBAorOL3UyATtl8dQjQDFCuEZPva4_dYoZa4oB1sXVcqoLAg1hWhibOIay-JhxfTSFT6zy9ERlwBDMDYSZSOmSDTvLRZF3dx4moYMlN=w408-h544-k-no,275.0,490,2025-06-15T23:39:20.852Z,venta
Draca Humos - Mayorista de Kits de Sahumerios - ENVIOS A TODO EL PAÍS,Mayorista,http://www.dracahumos.com/,Laprida,+54 11 2690-9643,Tandil,Provincia de Buenos Aires,-37.2925459,-59.1691035,5.0,15,https://lh3.googleusercontent.com/p/AF1QipMSFrctrz-VvRNiVw4uC4XZuhgoEmuxNeOAzJfJ=w408-h306-k-no,57.0,85,2025-06-15T23:39:20.852Z,venta
Martínez Escalada - Productos Siderúrgicos,,http://www.martinezescalada.com.ar/,Figueroa 2880,+54 249 442-5726,Tandil,Provincia de Buenos Aires,-37.2906549,-59.1743447,4.1,17,https://streetviewpixels-pa.googleapis.com/v1/thumbnail?panoid=gfOTNPsRy0YAifgeRSJpGg&cb_client=search.gws-prod.gps&w=408&h=240&yaw=198.70644&pitch=0&thumbfov=100,2.0,32,2025-06-15T23:39:20.852Z,venta
Carrocera Tandil,Concesionario de autocaravanas,,Parque Industrial,+54 249 463-6264,Tandil,Provincia de Buenos Aires,-37.293482,-59.187477,3.8,12,https://lh3.googleusercontent.com/p/AF1QipMS43sFLyI1TrUciFC-MDP1XKMvDljnCqoNpVu4=w426-h240-k-no,5.0,4,2025-06-15T23:39:20.852Z,venta
Taller de Restauración y Venta de Antigüedades,Tienda de antigüedades,,Pinto 916,+54 249 463-6751,Tandil,Provincia de Buenos Aires,-37.3256726,-59.1313756,4.7,11,https://lh3.googleusercontent.com/p/AF1QipOIYoJuUWQnD7F_R3zeUp_B6s23nU3MHZDJmqfT=w408-h725-k-no,126.0,15,2025-06-15T23:39:20.852Z,venta
Biotécnicas Argentina,Tienda de alimentos para animales,http://www.biotecnicas.com.ar/,C. 8 379,+54 249 438-5150,Tandil,Provincia de Buenos Aires,-37.2907696,-59.1897562,5.0,64,https://lh3.googleusercontent.com/p/AF1QipN8JjxrN33HewTzXUX6SKFI9P2f1iyd3j6aiUXR=w408-h306-k-no,16.0,24,2025-06-15T23:39:24.466Z,tienda
"Los sobrinos, venta de huevos",Proveedor de huevos,https://www.instagram.com/los.sobriinos/profilecard/?igsh=MTRhMmxzY2o1YmN1NA==,9 de Julio 173,+54 249 401-7071,Tandil,Provincia de Buenos Aires,-37.3309506,-59.1319043,5.0,10,https://streetviewpixels-pa.googleapis.com/v1/thumbnail?panoid=-csWge-k_eyzH7HN4j6r3g&cb_client=search.gws-prod.gps&w=408&h=240&yaw=53.08588&pitch=0&thumbfov=100,1.0,1,2025-06-15T23:39:20.852Z,venta
MAFALU,Equipos para panaderías,https://mafalu.com.ar/,Parque Industrial calle 111 N° 352,+54 9 249 462-8585,Tandil,Provincia de Buenos Aires,-37.2916692,-59.1920212,5.0,4,https://lh3.googleusercontent.com/p/AF1QipN5nwvBXh44Txeym8S0NtXtDoxNhq0roC2oQ9mp=w408-h725-k-no,84.0,5,2025-06-15T23:38:59.960Z,maquinaria
Estudio de canto y venta de instrumentos musicales usados,,,Dinamarca 322,+54 249 456-5480,Tandil,Provincia de Buenos Aires,-37.3088705,-59.1425972,5.0,7,https://lh3.googleusercontent.com/p/AF1QipN3boFTBDyZP6I401Bpjc_ve9465DEd_v8not6X=w408-h885-k-no,48.0,3,2025-06-15T23:39:20.852Z,venta
Las Dinas Chacinados Fabrica,Carnicería,,calle 5 y circunvalacion norte,+54 249 437-0687,Tandil,Provincia de Buenos Aires,-37.2902403,-59.1889313,4.6,8,https://lh3.googleusercontent.com/gps-cs-s/AC9h4np4k4Hp57EJv8nAbsP52bqb1LwK-J_h9nS8q5IovtBiziCDPfrqgfK1-n3m631pQBWHhYsIpC111yJ_rfHcPzaltvO_uq9lEjwpivXZfL-lBVXAZEiB95iKkBjoYgXp5JOAVQK7=w408-h725-k-no,82.0,289,2025-06-15T23:39:20.852Z,venta
acero eventos venta de verdura orgánica y cocina almuerzos,Comercio,,Gral. Paz 177,,Tandil,Provincia de Buenos Aires,-37.3298963,-59.1290973,3.0,6,https://streetviewpixels-pa.googleapis.com/v1/thumbnail?panoid=T_Fv2QXECaq_ScPEanrakg&cb_client=search.gws-prod.gps&w=408&h=240&yaw=44.66568&pitch=0&thumbfov=100,1.0,2,2025-06-15T23:39:20.852Z,venta
Impresell s.r.l.,Establecimiento de venta de madera,,,+54 249 464-0445,Tandil,Provincia de Buenos Aires,-37.2915177,-59.1819817,4.7,4,https://lh3.googleusercontent.com/p/AF1QipMoNgGMwvyfrQ5ZOaP8M3f_LZ41n8PNgr3raKMp=w852-h240-k-no,6.0,27,2025-06-15T23:39:20.851Z,venta
Cabaña de Troncos Encantada,Cabañas de madera,https://cabanadetroncosencantada.negocio.site/?m=true,G. Cadona,,,Provincia de Buenos Aires,-37.3186351,-59.1961677,4.8,9,https://lh3.googleusercontent.com/gps-cs-s/AC9h4no-wr5GLkjrsi7ZzY7Q77EJD_pbp_1LEvN9rtWfIkuryW0PhNyWX1Faw3C1C1qWkZ6KAc5fv2ASU7ph1gux3yiUSLqHnKp79Qd5HyZllGsr7eSwO2N0kDSQbPlJaNet37PFu2or=w533-h240-k-no,32.0,18,2025-06-15T23:39:20.852Z,venta
Terrenos en venta,Urbanización,,Payró 900,,Tandil,Provincia de Buenos Aires,-37.3276822,-59.1517588,,2,https://lh3.googleusercontent.com/gps-cs-s/AC9h4nrv8DRL-1qAP6-rLgaXulgHNEs9oEzE6FbR6m7EI-nf4mJ9wja9Ih9n558c6r-PfC1vNi2DqyCMrM8XWFuGb3Kwo12DttLQU9zhyRd5U98rklvZbJqSETculTbK3tPemvYpfR0=w408-h349-k-no,10.0,0,2025-06-15T23:39:20.851Z,venta
Cabañas Artemisa,Cabañas de madera,,Guise 176,,Tandil,Provincia de Buenos Aires,-37.2952208,-59.1754694,4.1,1,,,10,2025-06-15T23:39:20.851Z,venta
Andresito Maderas,Cabañas de madera,https://www.guia-dorada.com.ar/guia/aviso-andresito-maderas-en-tandil-buenos-aires-867.html,Av. Juan B. Justo 851,+54 9 249 401-4903,Tandil,Provincia de Buenos Aires,-37.3205809,-59.1644203,3.5,19,https://lh3.googleusercontent.com/p/AF1QipMuMgnlKuKvqnM7kVO7ZPy0dbaVcwsq5AJpGUsb=w408-h326-k-no,75.0,4,2025-06-15T23:39:20.852Z,venta
La Estación,Juguetería,http://jugueterialaestacion.com/,Gral. Rodríguez 1001,+54 249 422-0604,Tandil,Provincia de Buenos Aires,-37.3213794,-59.1394864,4.7,7,https://lh3.googleusercontent.com/gps-cs-s/AC9h4npJ0XNLlhTclhiVlDffr-wQGQqFhlRRKqvu0ApdQqsUz1TneUFq6GKuJx4hhZe59FAyqJMeaoLpCNUTBA9rp43-G_seD1FHI5aoIB2gz9cSYiA71XeEhAVXd7inHKZcZTxKiQ=w408-h725-k-no,11.0,3,2025-06-15T23:39:21.023Z,tienda
Santomauro SRL,Chatarrería,http://www.santomauro.com.ar/,"Ruta 30, km 134,400",+54 249 444-4523,Tandil,Provincia de Buenos Aires,-37.2752297,-59.1551098,4.4,15,https://lh3.googleusercontent.com/p/AF1QipMIU03gqPEkWnTs90ut4MqSdof04KVXS-1qMj5D=w426-h240-k-no,81.0,85,2025-06-15T23:38:59.662Z,repuestos
Shell,Gasolinera,https://find.shell.com/ar/fuel/10129548-terrapetrol-s-a/es_AR,América 120,+54 810-999-7435,Tandil,Provincia de Buenos Aires,-37.2899051,-59.1717952,4.3,1,https://lh3.googleusercontent.com/p/AF1QipMC6KDdCEvl88PQ8vUc90-VHfRbYPGuV1SX28mR=w426-h240-k-no,2.0,13,2025-06-15T23:39:21.023Z,tienda
Mader Arte. Taller de pintura de muebles nuevos y antiguos,Pintura,,Margarita Galfre 2343,+54 249 434-0046,Tandil,Provincia de Buenos Aires,-37.3019239,-59.1755941,3.5,20,https://lh3.googleusercontent.com/gps-cs-s/AC9h4noi9_KYayAoR-eemyR-1zJPgu0Qvv6s-Rurl_xLsce_0eN9DxCe87RJNwjATvG4m24V-mzyMW0P-6zCrKiALXwp08BlvOKQBRjgMy1bMm_0UrMsv1Bw38Zc-aSvzCNTviqeHPjd6w=w408-h305-k-no,6.0,2,2025-06-15T23:39:28.871Z,muebles
Santeria iemanja Tandil,Tienda de artículos religiosos,,Quintana 810,+54 249 448-7219,Tandil,Provincia de Buenos Aires,-37.3055165,-59.1452808,4.8,17,https://lh3.googleusercontent.com/p/AF1QipPHxgBK1XTUNFCVLKIAOIJvH4zJvsoTQ3P0xEo9=w408-h306-k-no,386.0,70,2025-06-15T23:39:29.191Z,regaleria
JF Aberturas,Carpintería,,Trabajadores Municipales 1471,+54 249 402-5617,Tandil,Provincia de Buenos Aires,-37.2961702,-59.1478907,5.0,27,https://lh3.googleusercontent.com/p/AF1QipPp4CjoX1hNnMsvVlq619H-nr8Fj9gOU448w2aw=w408-h544-k-no,16.0,1,2025-06-15T23:39:29.516Z,muebles
SanteffHogar,Tienda de muebles,,Ricardo Gabriel del Rio 1508,,Tandil,Provincia de Buenos Aires,-37.2958247,-59.1493244,,24,https://streetviewpixels-pa.googleapis.com/v1/thumbnail?panoid=J-vx5Z-yYVz4kyHaSyKRsg&cb_client=search.gws-prod.gps&w=408&h=240&yaw=247.56374&pitch=0&thumbfov=100,1.0,0,2025-06-15T23:39:29.516Z,muebles
Mercado Si Gu,Tienda de alimentación,,Sáenz Peña 699-799,,Tandil,Provincia de Buenos Aires,-37.3037246,-59.1427304,4.2,20,https://lh3.googleusercontent.com/gps-cs-s/AC9h4noyc7UBZRVgNVui0XdaRJq4XVJ0yq5LheGLt1K9EFJ3HAuk8YsoWpYhdZd9Te_hmjbLEPZN9rpL21f6LtWJjMe7AcoDbxzE1g138H5egKwYCHzzGuKOS0RWlPUsacXHm2Y-Iz0h=w408-h725-k-no,13.0,274,2025-06-15T23:39:29.775Z,blanqueria
Dipiù LA MODA DECORACIONES,Tienda de artículos para el hogar,,"Sarmiento 387, Chacabuco 694",,Tandil,Provincia de Buenos Aires,-37.3262911,-59.1388448,4.4,19,https://lh3.googleusercontent.com/gps-cs-s/AC9h4nrK5FVKjaI2DT4w8PIx9Ato4IfXy2BgXfLqb35x9eVwD8dlbpRxvGVSVEbB-zR-Ce_sWAHRjGbFHDdtRPA8Lw9rbu3iHVrQyeqcpXKB_c0QFp6GmUad5vlt4IhLU4O7df5UujZC=w408-h345-k-no,13.0,14,2025-06-15T23:39:29.775Z,blanqueria
Troyanas,Tienda de ropa,,Arana 311,+54 249 432-9826,Tandil,Provincia de Buenos Aires,-37.3171828,-59.1468124,4.7,19,https://lh3.googleusercontent.com/p/AF1QipOvutm6cn0re8n_AyS7YC4L33HJ07Dprith_wXv=w408-h487-k-no,13.0,14,2025-06-15T23:39:29.915Z,venta online
Digiteck Virtual,Tienda de informática,,Alsina 45,+54 249 463-5017,Tandil,Provincia de Buenos Aires,-37.3295805,-59.123532,4.9,12,https://lh3.googleusercontent.com/gps-proxy/ALd4DhFkxXBVue2ULCEKWabfiheyQgTkT9O7NxgLSuZX0JbdHDHI-HBUluaPPYS1CMrLYIJdQvroRJ8BlUPOO9vorq-Ma6dtr8GgHiPkMRFR5m4rXzOUd8UCQHosoVS-mubhAfVHYf8tkIWa2aQcss_-n3ZjHJTAFzJiblIPNjCdqar-zdfZdXgWtZtpSk0d3sfQYpRkH6E=w408-h306-k-no,3.0,72,2025-06-15T23:39:30.170Z,telefonia
Tecnophone,Tienda de móviles,,San Martín 587,,Tandil,Provincia de Buenos Aires,-37.3265382,-59.1369842,,11,https://streetviewpixels-pa.googleapis.com/v1/thumbnail?panoid=ZtVlYcphY8xWL4w2TqNJzQ&cb_client=search.gws-prod.gps&w=408&h=240&yaw=144.76033&pitch=0&thumbfov=100,1.0,0,2025-06-15T23:39:30.170Z,telefonia
Phone Store,Tienda de móviles,http://facebook.com/phonestoretandil,Sarmiento 598,+54 249 442-3428,Tandil,Provincia de Buenos Aires,-37.3251627,-59.1375614,4.2,10,https://streetviewpixels-pa.googleapis.com/v1/thumbnail?panoid=lVOYcdDArmf47rkZWPy43w&cb_client=search.gws-prod.gps&w=408&h=240&yaw=284.306&pitch=0&thumbfov=100,1.0,5,2025-06-15T23:39:30.170Z,telefonia
Boxes Neumaticos Tandil,Comercio,,Av. Espora 985,+54 249 428-2939,Tandil,Provincia de Buenos Aires,-37.3153596,-59.1194669,4.6,39,https://lh3.googleusercontent.com/gps-cs-s/AC9h4nqG1RzYuElNffDO1Emwcb4WbEm8uwzmSc9UMLEX-wg6fS8vrHQ5X-fyVD4L--WuJa_dY6YVUcpmW-qqDTnMoAtR4nfJGysUKF6XUTqWiXXPZZKeERlLcfbEfpFgfDQsD5T9fmRB=w408-h290-k-no,17.0,63,2025-06-15T23:39:31.023Z,venta online
Lupe arte textil,Tienda de artículos para el hogar,https://wa.me/c/5492494277645,Rivas 970 1 D,+54 249 427-7645,Tandil,Provincia de Buenos Aires,-37.3239672,-59.1087386,5.0,19,https://lh3.googleusercontent.com/p/AF1QipNkLcnj1H71-p6SBNd2SDricckSKOcDeQxupqgc=w408-h544-k-no,17.0,2,2025-06-15T23:39:29.191Z,regaleria
Barraca Los Troncos,Tienda de alimentos para animales,https://www.guia-dorada.com.ar/guia/aviso-barraca-los-troncos-en-tandil-buenos-aires-425.html,Américo Reynoso 1963,+54 9 249 464-2678,Tandil,Provincia de Buenos Aires,-37.2951613,-59.1584176,4.4,5,https://lh3.googleusercontent.com/p/AF1QipP7BUo422zR_gm5JkYZaUtJX89Dhd4pAYdVC5My=w427-h240-k-no,28.0,22,2025-06-15T23:39:20.852Z,venta
Muebles Antiguos Petete Ferreiro,Tienda de muebles,,Av. Colón 1526,+54 249 455-9726,Tandil,Provincia de Buenos Aires,-37.3131628,-59.1374698,5.0,59,https://lh3.googleusercontent.com/gps-cs-s/AC9h4nphOhV0rBSy0itTEaceVal8kSf6Nin5ULC_4yQ8f3XcDvpsmtHsnVhh7yWQRzpiGvoWh9edwMBElAsAwiQfx86gJYVTRzqOK6pXgPyNYgwu7aTtdZyqUNGlbonHD_9aLXvYd3a7=w408-h612-k-no,17.0,3,2025-06-15T23:39:32.154Z,venta online
DURLOPLACK - Durlock,Tienda de materiales para la construcción,https://www.facebook.com/durloplacktandil/,San Martín 1241,+54 9 249 451-0882,Tandil,Provincia de Buenos Aires,-37.3225927,-59.1271691,4.7,79,https://lh3.googleusercontent.com/p/AF1QipN1mS97E-SHGu9FsccCrokxlGGULTemM93NT5Qi=w408-h306-k-no,27.0,109,2025-06-15T23:39:33.346Z,venta online
Grupo La Huella Neumaticos y Servicios,Tienda de neumáticos,,Hipólito Yrigoyen 1647,+54 249 449-4064,Tandil,Provincia de Buenos Aires,-37.3144529,-59.1451366,4.5,78,https://lh3.googleusercontent.com/p/AF1QipMYwepIuWjfJZJJDeICosqTEHxzPhPdDjepXypi=w408-h513-k-no,29.0,47,2025-06-15T23:39:33.346Z,venta online
Zoma,Tienda de ropa de deportes,,25 de Mayo 299,+54 249 443-5309,Tandil,Provincia de Buenos Aires,-37.3328609,-59.1378374,4.8,77,https://lh3.googleusercontent.com/gps-cs-s/AC9h4nooQ3HdLj-wNBdwXEpNSWEMfr1xxUzLoMidpfbZ1byRbsOMKUYIJY4pXCOO3Y5orH0-GKLf1FIc0rRHbJKlsxMuxIb9BjMiWWgM96_YgYo957usDXallLPnLnRJ8zENwhnNpTKc=w425-h240-k-no,113.0,49,2025-06-15T23:39:33.345Z,venta online
Tecnomotos,Concesionario de motos,,Av. Marconi 1220,+54 249 442-8688,Tandil,Provincia de Buenos Aires,-37.3189783,-59.1294036,4.4,76,https://lh3.googleusercontent.com/gps-cs-s/AC9h4noC0sypU0y-Ai8eTKZEhjuthh4Ellxeqc8tquRGi3nWMOoKfgFeXcj_Am-Yc6EeNuDQTuhpjdz9BSS1UwvQgOO_mD9YqK3nsxkRxwdmzs_ucisokLNsPsXklKNzTzrAPTiYy0St=w408-h723-k-no,9.0,258,2025-06-15T23:39:33.345Z,venta online
Tech BA,Tienda de electrónica,https://techbatecnologia.mitiendanube.com/,Gral. Rodríguez 662,+54 249 437-9702,Tandil,Provincia de Buenos Aires,-37.3256299,-59.1372217,3.5,20,https://lh3.googleusercontent.com/p/AF1QipNvI8R7supVonmYC_HNIO4PaRG4di_wS3vBla0=w408-h495-k-no,8.0,39,2025-06-15T23:39:29.916Z,venta online
Barraca Palencia,Tienda de alimentación,,Fray Justo Sta. Maria de Oro 20,+54 249 444-6840,Tandil,Provincia de Buenos Aires,-37.3275114,-59.1470469,4.4,74,https://lh3.googleusercontent.com/gps-cs-s/AC9h4nqTgixcDfsUkN9dPHeU0J8yF5ncXhs5Rq6Cdg-rvDQt33TCV3vVs61eOIqCQoBUgOvUt2HNfQhM2M08tBypI_LzeAv-FMq4KwmyEmTDq7ZKc0Ga7K9atbP4Ctx6MQconAOHfjh7=w519-h240-k-no,8.0,187,2025-06-15T23:39:33.345Z,venta online
Las Dinas Ventas,Tienda de fiambres,http://www.laprovidenciatandil.com/,Pellegrini 482,+54 9 249 462-7759,Tandil,Provincia de Buenos Aires,-37.3185358,-59.1432328,4.7,13,https://lh3.googleusercontent.com/p/AF1QipO086SrUD93Vu7Ndc7goYj9Zlf8gPKDKH-wL7mK=w408-h541-k-no,121.0,528,2025-06-15T23:39:20.852Z,venta
PINO LAS HERAS,Tienda de muebles de pino,https://www.facebook.com/pino.lasheras,Las Heras 1363,+54 249 465-1710,Tandil,Provincia de Buenos Aires,-37.3161639,-59.1289106,3.5,69,https://lh3.googleusercontent.com/p/AF1QipO6G5PA7tdiCgTofh7bg0sJbfAdp6ys4U3nYNIA=w426-h240-k-no,373.0,21,2025-06-15T23:39:33.345Z,venta online
Usittel,Proveedor de servicios de Internet,https://usittel.com.ar/,,,,,-37.3195228,-59.1427021,1.0,13,https://lh3.googleusercontent.com/p/AF1QipPEyP4ETGZwfDAcbRVOB1j48IT_hBzxTtT_ST4H=w408-h407-k-no,1.0,1,2025-06-15T23:39:30.170Z,telefonia
Yesería Tandil,Tienda de materiales para la construcción,https://chatwith.io/s/609c0f1e7b08d,Machado 1047,+54 249 428-1640,Tandil,Provincia de Buenos Aires,-37.3121337,-59.136899,4.6,75,https://lh3.googleusercontent.com/p/AF1QipMrV_7pVxModFVUjffpKVKmLG8SDro7FeXqfsCZ=w426-h240-k-no,32.0,98,2025-06-15T23:39:33.345Z,venta online
Colchones Tandil,Tienda especializada en camas,,Dinamarca 482,+54 249 431-1834,Tandil,Provincia de Buenos Aires,-37.3073989,-59.1408948,4.6,66,https://lh3.googleusercontent.com/gps-cs-s/AC9h4no8DD0LKiXJ7OMIyyimxD0XQ0x5AznhO9e2QRqcqas6BToKCfX1OGLKhLFGrTctB8nn8YZqoUMQFHUrvtAklMrFgYVGUYG4wvgdZOs95f4XA8ymmZY3L2AHVW9J987FKB9LqD0j=w408-h725-k-no,2.0,14,2025-06-15T23:39:33.345Z,venta online
Hierros Sanchez de Hodasan S.A.,Tienda de materiales para la construcción,http://hierrossanchez.com.ar/,Tierra del Fuego 1255,+54 249 447-6551,Gran Buenos Aires,Provincia de Buenos Aires,-37.3149097,-59.1132184,4.6,58,https://lh3.googleusercontent.com/gps-cs-s/AC9h4nqlO5fQXt7LppwyH4Ij6ED2hcamDYEpPwQUJJnWu5-XR9yfN_9bxCjifr-jBN3PBVojn15UpxYlIQjTR-EE19N0HMRYwCa0WpGxQM0ao3YGPepuCSkcD0MIyi-yrWyk2UZYyHlSDQ=w408-h271-k-no,18.0,118,2025-06-15T23:39:32.154Z,venta online
Cell Store II,Tienda de móviles,,Av. Monseñor Actis 1757,+54 249 401-4882,Tandil,Provincia de Buenos Aires,-37.3086146,-59.1099498,4.8,65,https://lh3.googleusercontent.com/p/AF1QipPA-zxnHa3KR6x_WcD6ygoKpmAEdWMV3N5uUmPY=w408-h408-k-no,79.0,17,2025-06-15T23:39:33.345Z,venta online
Óxido Pampas,Tienda de artículos para el hogar,,"9 de Julio, Mitre &",+54 9 249 463-2550,Tandil,Provincia de Buenos Aires,-37.3233138,-59.1365863,4.6,63,https://lh3.googleusercontent.com/gps-cs-s/AC9h4nofzz3Z3iqqeGhesenoQG8SNV-6Xzhc66eY1U06EgMjMCEsy1BoHlTE2qKPwdjq1PErx1-_I4EnI2DY--9pP4ZVUAUBsHLbSK-SF6wwWuoRHNAdvGEV8890cpVo-PGkq3vrMlL4=w408-h544-k-no,38.0,90,2025-06-15T23:39:33.344Z,venta online
Barraca Rubiales,Tienda de alimentos para animales,,Murature 43,+54 249 436-1645,Tandil,Provincia de Buenos Aires,-37.3132438,-59.1455921,4.7,61,https://lh3.googleusercontent.com/gps-cs-s/AC9h4nqeQ2ihmMuentzVb8omeVSjhr8_gy2_yULjWc2OMDrbVooXdCh2w9TWJLRMaQZ0DoswDvrWIdDWbMdKw7iNnfoAwgdSSBeCgkaoV_HW2ee9a270HBN78LH4rUZi4GUZ__tl3Sm8=w408-h305-k-no,19.0,37,2025-06-15T23:39:33.344Z,venta online
DACAVI S.A.,Oficinas de empresa,https://dacavi.com.ar/,RP30 1418,+54 249 449-9969,Tandil,Provincia de Buenos Aires,-37.2926765,-59.1789925,4.4,18,https://lh3.googleusercontent.com/gps-cs-s/AC9h4now1ECfQS8g2Xkfd0pr66-3P88ujOPjIqUPtydDXXjHN_MfhcQJjyB9rewmXJHQjjK54uHq5XjBdXlHK4eXc3gKaWVsT6btg5HouUI80to8sSlpwvcf3x_Fmc5PtnJ8Kg77vf2eiQ=w532-h240-k-no,1.0,40,2025-06-15T23:39:20.852Z,venta
El Buen Descanso,Colchonería,,Las Heras 1001,+54 249 452-4495,Tandil,Provincia de Buenos Aires,-37.3180828,-59.1341639,4.1,55,https://lh3.googleusercontent.com/p/AF1QipPNKPu74JaIvvPwpDWcuqCsbK5emLjkgLVEX6w-=w408-h725-k-no,39.0,7,2025-06-15T23:39:32.154Z,venta online
Cuchilleria Artesanal El Chaja SRL,Cuchillería,http://www.cuchilloselchaja.com.ar/,Figueroa 1167,+54 249 457-0226,Tandil,Provincia de Buenos Aires,-37.3057975,-59.1538892,4.2,71,https://lh3.googleusercontent.com/gps-cs-s/AC9h4noEYCKSyCAj0Q4FIArfR4s2YbAfKXJrmyAdW6f2GYcNFE5S1QIF2FBWEvlkM_yb69vU1dRQP4EiRfRRe5RSmqvNjgIw3Mq-_EMjXj4KQdcpmkiSUpyrFRTnQeWnGIXbb5SQrww1Hw=w408-h544-k-no,49.0,20,2025-06-15T23:39:33.345Z,venta online
MAGHER TANDIL,Tienda de ropa,http://www.magher.com.ar/,San Martín 657,+54 249 438-6884,Tandil,Provincia de Buenos Aires,-37.3262521,-59.1358734,4.4,38,https://lh3.googleusercontent.com/p/AF1QipP5C4QJmiiOdJgIQEt_cU2V9jTkeKz79c9mjRPa=w408-h306-k-no,3.0,19,2025-06-15T23:39:31.023Z,venta online
