title,categoryName,website,street,phone,city,state,location/lat,location/lng,totalScore,rank,imageUrl,imagesCount,reviewsCount,scrapedAt,searchString
Alto Salame Olavarria,Tienda de alimentación,,Av. Domingo Faustino Sarmiento 2130,+54 2284 62-2206,Olavarría,Provincia de Buenos Aires,-36.8814092,-60.3179388,,20,https://streetviewpixels-pa.googleapis.com/v1/thumbnail?panoid=9lp0kzDOI3g9eW789Du4mA&cb_client=search.gws-prod.gps&w=408&h=240&yaw=231.19724&pitch=0&thumbfov=100,1.0,0,2025-06-15T23:31:30.165Z,comercio
"Frutería y Verdulería ""El Nuevo Galpón""",Frutería,,Av. de los Trabajadores 4312,+54 9 2284 35-5136,Olavarría,Provincia de Buenos Aires,-36.8921936,-60.2947181,4.5,19,https://lh3.googleusercontent.com/gps-cs-s/AC9h4noz8L_P6lNa3G3m4wgSVd5Yhbjax-zY0o8si62g6Jq4yjgZbyq-f4UnVsmZTg8X8kecx9LM9E_05-OzXG3_pCNnqv5hp5NozmEdKiuj7t-mZF3JUd7UHn3OqJ5UITqxzKP3zsH0nQ=w408-h544-k-no,18.0,15,2025-06-15T23:31:30.165Z,comercio
Despensa Bauti,Tienda de alimentación,,Cerrito 4300,+54 9 2284 23-8406,Olavarría,Provincia de Buenos Aires,-36.8794795,-60.3147907,,18,https://lh3.googleusercontent.com/gps-proxy/ALd4DhGGpPvlkGeCTNGDfuILRPXGEM9AJ_dB7ZmvcwSnRqhzKc9OxDgfPcdxcsDu-VZtQLyrHVsL6pUks1xIqOVzR-RGlsuOqBPt4pB2zbQnqpGqbtBAg6YSL3sufAVUona6KYaDEyvKxpHCOoGMNCTv9SQ10br1-MUDJil1CEXn-Q5ueGHkhMkg286F1rxUEcHFEwmDTsI=w408-h306-k-no,4.0,0,2025-06-15T23:31:30.165Z,comercio
Toxica,Tienda de ropa de mujer,,Necochea 2757,,Olavarría,Provincia de Buenos Aires,-36.8914707,-60.3201646,5.0,66,https://lh3.googleusercontent.com/gps-cs-s/AC9h4nqRMcc0uCrXaPNiV4O9mj4eE5fx3FeHZV-6CCN8gVGcXULrvLPFkv3zyvxi0k5KvtL6VnZdEjiWWWS5NV5GpV-BD5vD63dNZrunefwO72HyT7o7Kb83bCsnhv7KqkSTTyjSJT0pXQ=w426-h240-k-no,2.0,1,2025-06-15T23:31:33.614Z,comercio
"Kiosco ""El Quijote""",Quiosco,,Lavalle 2880,,Olavarría,Provincia de Buenos Aires,-36.8913305,-60.3240351,5.0,65,https://streetviewpixels-pa.googleapis.com/v1/thumbnail?panoid=nu5K4llAxXX4vBr7M0bHfw&cb_client=search.gws-prod.gps&w=408&h=240&yaw=132.77924&pitch=0&thumbfov=100,1.0,2,2025-06-15T23:31:33.614Z,comercio
Despensa Norita,Tienda de alimentación,,Av. de los Trabajadores 2490,,Olavarría,Provincia de Buenos Aires,-36.8797952,-60.3099481,,64,https://streetviewpixels-pa.googleapis.com/v1/thumbnail?panoid=_-dJsX__Km18gcCnNqOUOQ&cb_client=search.gws-prod.gps&w=408&h=240&yaw=223.04802&pitch=0&thumbfov=100,1.0,0,2025-06-15T23:31:33.614Z,comercio
Pet Shop San Huberto,Tienda de alimentación,,Av. Ituzaingó 2935,+54 2284 55-2536,Olavarría,Provincia de Buenos Aires,-36.8848715,-60.3314511,4.4,63,https://lh3.googleusercontent.com/gps-cs-s/AC9h4notTx2Q8cQZqZU-9m6tEjxDCiOgYqDe8_dYGVqUR0jWr9h7noTZvyBlrRvIJSzqghohlOOOdWODVGN-W05BBc_bIt2MCwMpmXR1Tkv8zlzGMnaYP8FVIkePKqaSxzg5XARsVPBLZQ=w426-h240-k-no,10.0,20,2025-06-15T23:31:33.614Z,comercio
Art&Maña,Tienda de manualidades y bellas artes,https://www.facebook.com/Artma%C3%B1a-192416934113880/,Rivadavia 3346,+54 2284 41-0198,CUV,Provincia de Buenos Aires,-36.8902338,-60.3176495,4.8,62,https://lh3.googleusercontent.com/p/AF1QipPyQF-sJcS3AMES3HPJQ4-VwDssTBtHgrfAZBNL=w427-h240-k-no,35.0,113,2025-06-15T23:31:33.614Z,comercio
Autoservicio El Zonda,Supermercado,,Maipú 3652,,Olavarría,Provincia de Buenos Aires,-36.8835076,-60.3208665,4.5,61,https://lh3.googleusercontent.com/gps-cs-s/AC9h4npqx45ZNQFP9yAkCfC6Mx0jZ1cUS6sit_WbbOasTYRVJbPiRQmW7cL7e5c4N-HdeoiMlBGtYkprhn5VAAgakQYPFhZleAyCcx2_xRwBwRDbpafm2yLZZaTU2i6iHYhExcnLmLIk=w408-h306-k-no,9.0,45,2025-06-15T23:31:33.614Z,comercio
Amarilis Feria,Tienda de ropa,,Av. Alberdi 4156,,Olavarría,Provincia de Buenos Aires,-36.872542,-60.3258372,,60,https://streetviewpixels-pa.googleapis.com/v1/thumbnail?panoid=IzwmcITPHtbm32bRDDs1hA&cb_client=search.gws-prod.gps&w=408&h=240&yaw=225.6072&pitch=0&thumbfov=100,1.0,0,2025-06-15T23:31:32.616Z,comercio
DS,Tienda de ropa,,Av. Ituzaingó 8190,+54 9 2284 30-8435,Olavarría,Provincia de Buenos Aires,-36.8832933,-60.328998,4.3,59,https://lh3.googleusercontent.com/gps-proxy/ALd4DhGnajcilMmvHC4j-auX_MgzlgDzPk3eXXALxDi1WwjKW64DzwslDkGvj7dQqiS0YknKfi5U_Xpk4-wxMdPDejqTSyW5ToZ2xA8olGellPRXFPjV9OyShsunL1mVb44aLED_ZADNohTsYuSMgEt0CcF9PUqYFhb2_AuH0aFzfj0ISYhY-RqkY4D7te9GAmu5zKHzrQ=w408-h306-k-no,5.0,3,2025-06-15T23:31:32.616Z,comercio
No Me Olvides...,Tienda de ropa,,San Martín 2649,,Olavarría,Provincia de Buenos Aires,-36.8927108,-60.3234649,5.0,58,https://lh3.googleusercontent.com/gps-cs-s/AC9h4nqS5a_ajMjG4mK41ITumgBM67l91CAm0IANUy9xw6glK9GC6arhvQcaMUQ5-pY2zj_8XXs_VgpzvMvv68VND61LuesnNlYn8shfF1zM_Lg9EDjw0brsb9zBGUMHiDHS8hDdj9g=w408-h544-k-no,2.0,4,2025-06-15T23:31:32.616Z,comercio
Donatto,Tienda de alimentación,,Chacabuco 2878,+54 2284 41-9279,Olavarría,Provincia de Buenos Aires,-36.8880484,-60.3282018,,57,https://lh3.googleusercontent.com/gps-cs-s/AC9h4npb-fynoGOok_DPAooc-2w9UfONDqO_OvAhroGR-GWDjFaYugOLm4u5kFKGVdDi_DTY_4dQm_3XFAk8xxdWitBPQeHxTnwhOzllvl0zoZrCUhN8Z6iKTKxbnH0SNmdlrUZu-nI=w408-h306-k-no,4.0,0,2025-06-15T23:31:32.616Z,comercio
Tob Alternativa,Panadería,,Av. Domingo Faustino Sarmiento 2857,+54 2284 41-2616,Olavarría,Provincia de Buenos Aires,-36.8860712,-60.3116707,,56,https://streetviewpixels-pa.googleapis.com/v1/thumbnail?panoid=KXhtVLoacfcodHphl7sm1A&cb_client=search.gws-prod.gps&w=408&h=240&yaw=44.174232&pitch=0&thumbfov=100,1.0,0,2025-06-15T23:31:32.616Z,comercio
Claudio Refrigeración,Comercio,https://www.facebook.com/ClaudioBrefrig,Av. Pringles 4257,+54 2284 22-2089,Olavarría,Provincia de Buenos Aires,-36.8879258,-60.3052752,4.8,55,https://lh3.googleusercontent.com/p/AF1QipP_kbOivv2bis3u1r8u8JUrNN24OJXi-P08Etkz=w408-h408-k-no,38.0,8,2025-06-15T23:31:32.616Z,comercio
Exit,Tienda de informática,,Av. Domingo Faustino Sarmiento 2233,+54 2284 42-9401,Olavarría,Provincia de Buenos Aires,-36.881806,-60.3168864,4.7,54,https://lh3.googleusercontent.com/gps-proxy/ALd4DhE_bDY6E1ZxQaUP-uVRdY6KKlyJVBz3VrLek-Xtm1n0_yLOpRU4OjX6efARxoRUPUpeCpgICL5QuDSbXOf4j0XENPbjYAHZUwdU9jGCz6tcbfLV_XA2TtBLYhU-cAD05akK2Gnp9xu2R8UbV_FyjXCrsN_YEvhJIK8Dh8tEW4OdrTBEmMRELjOcpkfw2hL4OjPf1PA=w408-h306-k-no,11.0,16,2025-06-15T23:31:32.616Z,comercio
SC Repostería Artesanal,Comercio,https://www.instagram.com/screposteriaartesanal,Av. de los Trabajadores 3689,,Olavarría,Provincia de Buenos Aires,-36.8876861,-60.299774,4.4,53,https://lh3.googleusercontent.com/p/AF1QipN-nvDaEdQUcFqZljPgEdJQCWRTWEr8oX4zWt_r=w408-h408-k-no,24.0,9,2025-06-15T23:31:32.616Z,comercio
Maxikiosco 24/7,Librería,,,,Olavarría,Provincia de Buenos Aires,-36.8899364,-60.3374165,,52,https://streetviewpixels-pa.googleapis.com/v1/thumbnail?panoid=kBda2ldqrkJcHq8D7N-Y_Q&cb_client=search.gws-prod.gps&w=408&h=240&yaw=236.82951&pitch=0&thumbfov=100,1.0,0,2025-06-15T23:31:32.616Z,comercio
Lotería De La Provincia,Tienda de lotería,,,,Olavarría,Provincia de Buenos Aires,-36.881564,-60.3075353,,51,https://streetviewpixels-pa.googleapis.com/v1/thumbnail?panoid=aqWq8COJdfROPD10KMEZEg&cb_client=search.gws-prod.gps&w=408&h=240&yaw=121.321144&pitch=0&thumbfov=100,1.0,0,2025-06-15T23:31:32.616Z,comercio
Frutería y Verdulería El Pachi,Mercado de productos agrícolas,,Lamadrid 3498,+54 2284 44-1242,Olavarría,Provincia de Buenos Aires,-36.8904378,-60.3149399,4.4,50,https://lh3.googleusercontent.com/gps-cs-s/AC9h4nquYN1bCR6gYwwPBVNmOKcWgA_4BL3zxFx7J3iePAcEOfcs3AzNcxt0vYEqYfChzXCAgyll_5iNx2cXQBTIztIc8KerbE_kREi8jqvaY_HK5cQyAbsI0a7z9MYQTursSSWdjP9G=w408-h306-k-no,20.0,42,2025-06-15T23:31:32.616Z,comercio
Cielo Artículos de Limpieza,Comercio,,Sgto. Cabral 2585,+54 2284 57-8049,Olavarría,Provincia de Buenos Aires,-36.889615,-60.3206719,5.0,49,https://lh3.googleusercontent.com/p/AF1QipM6FkVlFyBN8V8My2A66yvL5Shj8HMEs_ZeBZvW=w408-h544-k-no,9.0,2,2025-06-15T23:31:32.616Z,comercio
Lotería de la Provincia,Tienda de lotería,,Av. Colón 1032,,Gran Buenos Aires,Provincia de Buenos Aires,-36.8780247,-60.332119,3.7,48,https://streetviewpixels-pa.googleapis.com/v1/thumbnail?panoid=Njg-J6b-vSzX9VZEya-yTQ&cb_client=search.gws-prod.gps&w=408&h=240&yaw=243.06468&pitch=0&thumbfov=100,2.0,7,2025-06-15T23:31:32.616Z,comercio
Verdulería Tomaco,Tienda de alimentación,,Belgrano 1585,,Olavarría,Provincia de Buenos Aires,-36.8848373,-60.331593,5.0,47,https://streetviewpixels-pa.googleapis.com/v1/thumbnail?panoid=LfpR_5NMsBOZcsReZwTsqA&cb_client=search.gws-prod.gps&w=408&h=240&yaw=63.52397&pitch=0&thumbfov=100,1.0,2,2025-06-15T23:31:32.616Z,comercio
Tienda Saludable Pueblo Nuevo,Tienda de alimentación,,Independencia 2772,,Olavarría,Provincia de Buenos Aires,-36.8880989,-60.3299773,5.0,46,https://lh3.googleusercontent.com/gps-cs-s/AC9h4npezJm_geuWDgl9YnsCGd99GhEFCsJLujhCVjyjwBt1WHFvvh6xQVw--LklawNrN1jTFtQGikWD8MgbJ82e2wrRKTsv299RGrZcwuXXrwp5ciz-S6i41MhOmRnxYTR_JNy217D6=w408-h725-k-no,2.0,2,2025-06-15T23:31:32.616Z,comercio
Distribuidora Dionisio,Tienda de vinos,,Lavalle 4562,+54 2284 57-7768,Olavarría,Provincia de Buenos Aires,-36.8801102,-60.3099047,,45,https://streetviewpixels-pa.googleapis.com/v1/thumbnail?panoid=YEQvNdDmCyJIuram8xUCxw&cb_client=search.gws-prod.gps&w=408&h=240&yaw=119.074455&pitch=0&thumbfov=100,1.0,0,2025-06-15T23:31:32.616Z,comercio
Semillería El Pensamiento,Centro de jardinería,,Alsina 2884,+54 2284 55-6435,Olavarría,Provincia de Buenos Aires,-36.8920376,-60.323244,4.2,44,https://lh3.googleusercontent.com/gps-cs-s/AC9h4npaes_5K40sITBaon76pO9NdH6ftC1Zfr7MGGzEy6zYK2-_UWUUqF1-n4mvlq9yEKksxGMQ4gRCvvUjs95ybgL6loV1QngvyDQmCjDU3mmdYB4NMEta8Yh09fJqE_1ifuJ9uX1P=w408-h544-k-no,10.0,15,2025-06-15T23:31:32.616Z,comercio
FRUTAS Y VERDURAS LO DE CACHO,Tienda de alimentación,,Av. de los Trabajadores 3504,,Gran Buenos Aires,Provincia de Buenos Aires,-36.8867951,-60.3012836,,43,https://streetviewpixels-pa.googleapis.com/v1/thumbnail?panoid=CsEERSOxvZIqBzyYqU9aMw&cb_client=search.gws-prod.gps&w=408&h=240&yaw=236.04407&pitch=0&thumbfov=100,1.0,0,2025-06-15T23:31:32.616Z,comercio
Dinamika,Tienda de ropa,,Av. de los Trabajadores 3551,+54 2284 47-6618,Olavarría,Provincia de Buenos Aires,-36.8868245,-60.3009701,,42,https://lh3.googleusercontent.com/p/AF1QipMFqjEVuPHGzsEnbE1p4SEiYT47BEYx0HGPQnuT=w426-h240-k-no,16.0,0,2025-06-15T23:31:32.616Z,comercio
Vicente daiana,Tienda de alimentación,,Av. Alberdi 3365,,Olavarría,Provincia de Buenos Aires,-36.8778504,-60.3327749,,34,https://streetviewpixels-pa.googleapis.com/v1/thumbnail?panoid=lm949fKxXhnrodeAn1-MSg&cb_client=search.gws-prod.gps&w=408&h=240&yaw=308.74017&pitch=0&thumbfov=100,1.0,0,2025-06-15T23:31:31.467Z,comercio
Kiosko Coquito,Tienda de alimentación,,Av. Ituzaingó 2160,,Olavarría,Provincia de Buenos Aires,-36.890201,-60.337712,4.3,32,https://streetviewpixels-pa.googleapis.com/v1/thumbnail?panoid=vIcnbuzk3ykhzMn62lbvwg&cb_client=search.gws-prod.gps&w=408&h=240&yaw=133.63295&pitch=0&thumbfov=100,2.0,6,2025-06-15T23:31:31.467Z,comercio
Essen - Flopi Nievas,Bazar,http://www.instagram.com/essen.flopinievas,"Calle 11, casa 2485 entre Cnel Suarez, Bolívar y",+54 2284 22-6897,Olavarría,Provincia de Buenos Aires,-36.8803517,-60.3439055,5.0,30,https://lh3.googleusercontent.com/p/AF1QipOK6EcNRDTsGNO3K_zn1DKOwZ3oQVRwjS6Dohel=w408-h408-k-no,3.0,3,2025-06-15T23:31:31.467Z,comercio
"Agencia ""El Tero""",Tienda de lotería,,Av. Ituzaingó,,Olavarría,Provincia de Buenos Aires,-36.888985,-60.3368193,4.2,25,https://streetviewpixels-pa.googleapis.com/v1/thumbnail?panoid=QvCCSLTBW-mvA5oIF4r_UA&cb_client=search.gws-prod.gps&w=408&h=240&yaw=316.37012&pitch=0&thumbfov=100,1.0,5,2025-06-15T23:31:31.467Z,comercio
Kceritos,Tienda de alimentación,,Av. Alberdi 2788,+54 2284 41-3655,Olavarría,Provincia de Buenos Aires,-36.881884,-60.3373641,4.3,21,https://lh3.googleusercontent.com/gps-cs-s/AC9h4noYTY3O4vflQ5fhxxOz0pHXMw9ZAHJYByOEtHa5GeChjesOx3z415TVzWurL-ROWeqgb__eSyGMD_sALbYNuvZzDZYlOk7RsgTYQJYZ7RApFQqEYKeycwrN4MEinmnbi3u_GbkG=w408-h544-k-no,11.0,53,2025-06-15T23:31:31.466Z,comercio
Distribuidora la Casera Fiambres - Quesos,Tienda de alimentación,https://www.instagram.com/distribuidoralacasera,Av. Colón 2831,+54 2284 42-1106,Olavarría,Provincia de Buenos Aires,-36.8898977,-60.3168669,4.7,16,https://streetviewpixels-pa.googleapis.com/v1/thumbnail?panoid=ICCghV193iWuEHwhk26HfQ&cb_client=search.gws-prod.gps&w=408&h=240&yaw=56.472973&pitch=0&thumbfov=100,2.0,6,2025-06-15T23:31:30.165Z,comercio
Tienda Dulce Camila,Tienda de ropa,,Av. Ituzaingó 3870,,Olavarría,Provincia de Buenos Aires,-36.8786915,-60.3232056,4.4,15,https://lh3.googleusercontent.com/gps-proxy/ALd4DhEL4wTH1ElX0syiWBM4v9QMM4po97MfGgGPU2nzajzfPEMYQ7hspZ8kr0S89jOhafWsroXb0AqIgSaLrgVaywgfsZas0uCOiVYxlIcVxbzl5osn-zTUaCNAPbodJPS4DRUcZkXzxJ-l42CK1bLAsUctDUGJ6NPG50Bqh_cv1i52Kb_5NgchZtsBzYLDhYlHJ5T2LXc=w408-h306-k-no,4.0,10,2025-06-15T23:31:30.165Z,comercio
Maxikiosco Endulza2,Quiosco,,Av. de los Trabajadores 2795,+54 2284 41-7388,Olavarría,Provincia de Buenos Aires,-36.8815361,-60.3071257,4.0,14,https://lh3.googleusercontent.com/gps-proxy/ALd4DhGALtClDpi6jyvZrVYt3wXXGreqMZgxBqxQnntYlH_2lKBmr6zd9VCOAAGRVbZbdrp5Xfs53EsfZigPx7pp0cHZI5KejPvBhxCb1oXyNPL5mMBNAlSYj7xsyM_OXmn9WiV8ndRevQk070KcmZNOZbHXWuIPh0CBbhUTuaSGqzZQin8gJUrtQhnLx1Rlbj8bsOHGzyY=w408-h306-k-no,4.0,4,2025-06-15T23:31:30.165Z,comercio
espensa Avenida,Tienda de alimentación,,Av. de los Trabajadores,,Olavarría,Provincia de Buenos Aires,-36.8755642,-60.3150587,,13,https://streetviewpixels-pa.googleapis.com/v1/thumbnail?panoid=jpV96FgK5L3Z1i5MB_fEdw&cb_client=search.gws-prod.gps&w=408&h=240&yaw=245.08478&pitch=0&thumbfov=100,1.0,0,2025-06-15T23:31:30.165Z,comercio
Bodysculptolavarria,Comercio,,"Rivadavia, Juan XXIII &",+54 2284 41-0520,Olavarría,Provincia de Buenos Aires,-36.8803557,-60.3039102,,11,https://lh3.googleusercontent.com/gps-cs-s/AC9h4noQMLVqjbj33jpIrZijgQC-_31DqwL-lQ77TnZgTwt8reBU_vjvxnEUYlqmQnczI2aUpRl5y7r3n7gZUkmeoH7RA3KoZ0nN3LHOvtNsJ5wFP63MSaDEiNqM5y6C0qaQnyqDtO1d=w493-h240-k-no,2.0,0,2025-06-15T23:31:30.165Z,comercio
Supermercado Luna,Supermercado chino,,Av. de los Trabajadores 3160,,Olavarría,Provincia de Buenos Aires,-36.8842502,-60.3044514,3.9,10,https://lh3.googleusercontent.com/gps-cs-s/AC9h4nrAC2WAoPh_e0S0nQWQ2V0qJjgFzVHn26WUOK6RGID0RUKACIE2yFxs1MLx5foHM93M-nucEBhEOlp4evJmTOsneaLFekSQOO8MvCavJOSdsYsfoUxoZLL0CCuhrckKUn_CsSE-=w426-h240-k-no,11.0,172,2025-06-15T23:31:30.164Z,comercio
Polirrubro Jona,Tienda de alimentación,,Av. Ituzaingó,,Olavarría,Provincia de Buenos Aires,-36.8857536,-60.3308168,4.7,9,https://streetviewpixels-pa.googleapis.com/v1/thumbnail?panoid=EkgOYygRo67J4d769eSYfQ&cb_client=search.gws-prod.gps&w=408&h=240&yaw=208.73553&pitch=0&thumbfov=100,1.0,3,2025-06-15T23:31:30.164Z,comercio
Jamón del Medio,Quesería,https://www.instagram.com/jamon_del_medio,"LOK, Av. Colón 2723",+54 2284 20-0290,Olavarría,Provincia de Buenos Aires,-36.8892156,-60.3177631,4.4,8,https://lh3.googleusercontent.com/p/AF1QipOgaaGylh50VUzoBU3WN4X9uBPftYEbnTzSkGCv=w408-h440-k-no,40.0,81,2025-06-15T23:31:30.164Z,comercio
"Minimercado, Polleria Y Pescaderia SuMar",Mercado,https://www.instagram.com/minimercadosumar,Av. Domingo Faustino Sarmiento 3348,+54 2284 69-0010,Olavarría,Provincia de Buenos Aires,-36.8897061,-60.3076721,4.5,7,https://lh3.googleusercontent.com/p/AF1QipNOxCzhYljCIYFSLJCZMa62KptBtqPruNp3IqZj=w408-h306-k-no,26.0,126,2025-06-15T23:31:30.164Z,comercio
Tavi,Tienda de ropa,,Hipólito Yrigoyen 1410,+54 2284 52-3693,Gran Buenos Aires,Provincia de Buenos Aires,-36.8791463,-60.3272047,4.6,6,https://lh3.googleusercontent.com/gps-proxy/ALd4DhHO30FAHCpJJmjtV0veXOLVnNxNf_efNZZ-UQAncs-RSVFFpExTdFV3fa395uw83SZLbz1Ncg0k4QVPxZDUqmHD-XRhUs6qnpIIzTzK-LkMD8Vajtpkwd9g9mMPJcu1PYKIGVdhLtjmYtVLuikVRN_XQktZ90sh5QnizcMtt_wB5qCiw0TuYGByQYLgp1PuJzfAge8=w408-h306-k-no,5.0,53,2025-06-15T23:31:30.164Z,comercio
Stikers,Comercio,,Hipólito Yrigoyen 1754,,Olavarría,Provincia de Buenos Aires,-36.8814552,-60.3243615,,5,https://streetviewpixels-pa.googleapis.com/v1/thumbnail?panoid=6ed4L9En-7CfEcQ-x4_jCw&cb_client=search.gws-prod.gps&w=408&h=240&yaw=247.70958&pitch=0&thumbfov=100,1.0,0,2025-06-15T23:31:30.164Z,comercio
"Autoservicio ""Lo de Moni""",Supermercado,,Av. Domingo Faustino Sarmiento 3187,+54 2284 57-5138,Olavarría,Provincia de Buenos Aires,-36.8883142,-60.3089445,4.7,4,https://lh3.googleusercontent.com/gps-cs-s/AC9h4nqM78T1BBKg_pEdxVWscKytrzD4AMt4fINMzGzHvbi6bDkhprroVXkfBIvqvub_gpT2CiKSFFxINRTvmpeT5jt4NYR4uuPgLxRBsgYx0YfXhH-ZoWmQj01ZHE1CmR7wIgdd-G6o=w426-h240-k-no,15.0,66,2025-06-15T23:31:30.164Z,comercio
Jazmín Supermercado,Supermercado chino,,Alvaro Barros 2763,,Olavarría,Provincia de Buenos Aires,-36.8901401,-60.3184846,3.7,3,https://lh3.googleusercontent.com/gps-cs-s/AC9h4nqi3evaqbsp4IMqNJWlvD1_t8sEf9UyBE1BnZZ2U5dD3JuIuqaB1z56pK0kHkDJOHZPua2hzjYRq2pxNH5L7ky7k5uF0gtGUmwKQs7rYK9cwaYzlfVdr_3QgsLH8CLBLq3bQVTM=w408-h544-k-no,16.0,301,2025-06-15T23:31:30.164Z,comercio
Saphirus oficial,Comercio,,Cnel. Suárez 2018 B7400KJV,+54 2284 56-4036,Olavarría,Provincia de Buenos Aires,-36.8900013,-60.3305953,4.7,2,https://lh3.googleusercontent.com/gps-cs-s/AC9h4no7ewdKUWUomsGCm8Cklwu0YyqRJjsIzc4cayqiL28TQdR_GwIQVTMfnwZzOFgvKfE1tezsENPjN7TvnGurfnQRBxBGwc2u_yU1cZvRmDV7iG5F-RoD3RyVG0PIKHsfeFegndEs=w408-h905-k-no,6.0,6,2025-06-15T23:31:30.164Z,comercio
Minimercado Riccobene,Comercio,,C. Muñoz 4331,+54 2284 44-4816,Olavarría,Provincia de Buenos Aires,-36.8936424,-60.2970224,4.0,1,https://lh3.googleusercontent.com/p/AF1QipPqz_6ryxec2u4WKEr5VKnaCxGhGDz3KNhh2IMj=w408-h305-k-no,49.0,54,2025-06-15T23:31:30.164Z,comercio
Farmacia CECO - Centro Empleados de Comercio de Olavarria,Farmacia,http://www.ceco.org.ar/,Cnel. Suárez 2752,+54 2284 42-2013,KKJ,Provincia de Buenos Aires,-36.8949626,-60.3244959,4.6,17,https://lh3.googleusercontent.com/gps-proxy/ALd4DhGhw3KmuYEQJmjDa5SsxX_Fvac_wTPMBKhbszlRSdsJ2mt-wN3GLHuuIJxS-0ULUi3Qk1N87vZD38lbkfeXwIXLMyqS9KoNmkA6ysfU9w7fkRtEAjSblcoH6Kg68IaKFZCxk2l5ynH8dhrFkdBJgC16PAPcDHKpLKZK6n1hNoxSCKruAazWLkjOWnSvw8pHDP_LzY0=w408-h306-k-no,14.0,152,2025-06-15T23:31:30.165Z,comercio
BitField,Servicio agrícola,,"B7400, Alvaro Barros 4374",+54 2284 67-1514,Olavarría,Provincia de Buenos Aires,-36.9012314,-60.3052924,5.0,19,https://streetviewpixels-pa.googleapis.com/v1/thumbnail?panoid=ygx1oJqH4m8sjUQ3L6Nx8Q&cb_client=search.gws-prod.gps&w=408&h=240&yaw=213.24086&pitch=0&thumbfov=100,8.0,2,2025-06-15T23:31:29.857Z,tecnologia
INTA,Instituto de investigación,https://inta.gob.ar/olavarria,"Agencia De Extensión Rural, Alsina 2642",+54 2284 42-4115,Olavarría,Provincia de Buenos Aires,-36.8934925,-60.325438,5.0,18,https://streetviewpixels-pa.googleapis.com/v1/thumbnail?panoid=TWFqx2sCUPqZJyWTiV2hRg&cb_client=search.gws-prod.gps&w=408&h=240&yaw=332.57288&pitch=0&thumbfov=100,1.0,3,2025-06-15T23:31:29.857Z,tecnologia
DJ korubo S & I,Servicio de tecnología de eventos,,7400,+54 2284 50-9098,Olavarría,Provincia de Buenos Aires,-36.8965979,-60.3262013,,17,https://streetviewpixels-pa.googleapis.com/v1/thumbnail?panoid=eKFCY-jY_B-V4PF03oECoA&cb_client=search.gws-prod.gps&w=408&h=240&yaw=311.96423&pitch=0&thumbfov=100,1.0,0,2025-06-15T23:31:29.857Z,tecnologia
A mi modo Boutique,Comercio,http://www.amimodoboutique.com.ar/,Independencia 4757,,Olavarría,Provincia de Buenos Aires,-36.8748416,-60.3129769,5.0,12,https://lh3.googleusercontent.com/gps-cs-s/AC9h4nqZrVXehoBToHZdzrsLt3uxDy561cVV1iqyYUFrtK8T8763NaiB0ju5YsunP7S3qOPFKZwGY3m7S1nF3AhHNNocsckh6e6FMemf7A5Ims6qZIONA07A_9TuKHWNGU4kIBThO2D9BQ=w408-h496-k-no,11.0,13,2025-06-15T23:31:30.165Z,comercio
Prometeo-Libreria,Librería,,Vicente López 2625,+54 2284 68-9947,Olavarría,Provincia de Buenos Aires,-36.894219,-60.3247229,4.8,15,https://lh3.googleusercontent.com/p/AF1QipMsjMXyyOILI_2YVxB3cj_430q2o0euKLssf1B4=w408-h544-k-no,14.0,23,2025-06-15T23:31:29.856Z,tecnologia
Informática Olavarría,Proveedor de servicios de Internet,,Av. del Valle 3141,+54 2284 41-0036,Olavarría,Provincia de Buenos Aires,-36.8999322,-60.3244492,3.7,14,https://streetviewpixels-pa.googleapis.com/v1/thumbnail?panoid=R7Qoe6mHZOyqJj5N7nBs8w&cb_client=search.gws-prod.gps&w=408&h=240&yaw=48.966694&pitch=0&thumbfov=100,1.0,55,2025-06-15T23:31:29.856Z,tecnologia
Pardo,Tienda de electrodomésticos,,Vicente López 3161,+54 2284 42-3156,Olavarría,Provincia de Buenos Aires,-36.8907321,-60.3204402,4.5,13,https://lh3.googleusercontent.com/gps-cs-s/AC9h4noyfTocUdKwM54TUWwOWd0Lzegn_FTgJXdDCHyLsCgurMdw-U--v8SjtLyTSZdLV4BSsKdBcXvXUrWmlBRSk_kSvoSIbCRnoW8352V3N5S4rwsliJexwjTmIriAkNb-1zy5aYk=w408-h544-k-no,25.0,256,2025-06-15T23:31:29.856Z,tecnologia
Alarmas centro,Tienda de alarmas antirrobo,,Av. Pringles 3436,+54 2284 41-6262,Olavarría,Provincia de Buenos Aires,-36.8937743,-60.3118298,4.7,12,https://lh3.googleusercontent.com/gps-cs-s/AC9h4nrXHXymEFhvhPKhEEL2BRmD6zfdxwcEtNBS7912gHQVnHX2GcgNvhRt-POLauvAxEoD0x7PCX7dFhWTpATnDLuNxhd6dahBWkDinwIHkJ2rc3BvRDTaoyPS7nG_EFFKtqkcaHm7OA=w408-h446-k-no,4.0,15,2025-06-15T23:31:29.856Z,tecnologia
All.Com,Tienda de informática,,Cnel. Suárez 2702,+54 2284 42-0006,Olavarría,Provincia de Buenos Aires,-36.8946207,-60.3248253,4.6,11,https://lh3.googleusercontent.com/gps-proxy/ALd4DhFOu9VsZWcDpM-rHMZwlTLFZOYFTT3tRiWJiQu7NbOHekjOZbVnDEZwD5faOh46TyOG6NsRW7RXf3Txr0ua-p7H1MU52O31jwbI3KIAL82jm2ceA3LTF0_mJvVSC73S_DSvQ5Q4jGOZzBa_6famifmmPBsA0fNr8TWbJS0WBsxnRHsdtDsnT0bqrUe2QXH_K4_nu3w=w408-h306-k-no,6.0,48,2025-06-15T23:31:29.856Z,tecnologia
Ingka Digital,Tienda de informática,,Vicente López 2377,+54 2284 44-6144,Olavarría,Provincia de Buenos Aires,-36.895917,-60.3268099,4.9,10,https://lh3.googleusercontent.com/p/AF1QipNWmVQtIPHm-Skm15W9oDLRtYHhwCvtScFKHY7e=w408-h408-k-no,24.0,142,2025-06-15T23:31:29.856Z,tecnologia
Fotocabinas Olavarria,Servicio de tecnología de eventos,,Rivadavia 3493,+54 2284 42-3099,Olavarría,Provincia de Buenos Aires,-36.8890783,-60.3166742,,9,https://streetviewpixels-pa.googleapis.com/v1/thumbnail?panoid=SpVNPQP1EMyK-8yAnSOE9g&cb_client=search.gws-prod.gps&w=408&h=240&yaw=304.2772&pitch=0&thumbfov=100,1.0,0,2025-06-15T23:31:29.856Z,tecnologia
Estudio Filippin,Oficinas de empresa,http://estudiofilippin.com.ar/,"7400, Bolívar 3384",+54 411645,Olavarría,Provincia de Buenos Aires,-36.9003026,-60.3211052,5.0,20,https://lh3.googleusercontent.com/gps-cs-s/AC9h4npGlch2y0-Lvv3Kan2TC0UqwLJU2oarM8KBmcrBJOZp85DeiXV73QBQ4J9C1qOL0xo34-Ksya_TfB8xffsce82vZ7BJhcdFaakRcnt3BadKR0b9txYKVqCCBAHEXQK5Eq_hw4cveQ=w408-h306-k-no,4.0,1,2025-06-15T23:31:29.857Z,tecnologia
Prometeo Tecnología,Tienda de móviles,https://www.instagram.com/prometeo.tech/,Vicente López 2615,+54 2284 58-8644,Olavarría,Provincia de Buenos Aires,-36.8942231,-60.324808,1.0,6,https://lh3.googleusercontent.com/p/AF1QipOiLnr2q7veyHFgVchyhZM_3a__1xA0iS8-pOtx=w408-h544-k-no,7.0,2,2025-06-15T23:31:29.855Z,tecnologia
Electrónica Olavarría,Tienda de equipos de sonido,,Rivadavia 3196,+54 2284 41-5550,Olavarría,Provincia de Buenos Aires,-36.8913443,-60.3190621,4.8,5,https://lh3.googleusercontent.com/gps-cs-s/AC9h4nplqMX4hxR2cEyy8kr95H7LyBRdiUMyxB8KvFNV0ygmLXq1d9Vfz2mcaOYdgyVLL_A6ITyTRqjJ6VMzPNFjCe5_im71h9u1_PnAc69fC-RfD9VqONG8JPfRJCFYitxWU2PXFRhnwQ=w408-h306-k-no,29.0,18,2025-06-15T23:31:29.855Z,tecnologia
GL TECHNO,Tienda de informática,http://www.gltechno.com.ar/,Necochea 3374,+54 2284 26-9251,Olavarría,Provincia de Buenos Aires,-36.8957628,-60.315545,5.0,7,https://lh3.googleusercontent.com/p/AF1QipPjWNPYNuIJMwggyul083e67tkNVoUVUcjYsfG5=w426-h240-k-no,27.0,42,2025-06-15T23:31:29.855Z,tecnologia
Casa Silvia,Tienda de artículos para el hogar,http://www.casasilvia.com/,Dorrego 3198,+54 2284 42-0958,Olavarría,Provincia de Buenos Aires,-36.895134,-60.317653,4.4,16,https://lh3.googleusercontent.com/gps-cs-s/AC9h4no3zKx0gESF6Oo4LWWNTtuUlpSL-mYIPtZnznKyNnt4NTrzto2CEvonYcgjBV5W00Tbvv4_oGAozhdQv-RQCR_mnnMXQN4BHhVRMu2c94IXiHwsES99Q-PjXJarPZYg7P16PneX4A=w426-h240-k-no,143.0,1601,2025-06-15T23:31:29.857Z,tecnologia
GS Computacíón,Servicio de informática,,Necochea 2884,+54 2284 45-9213,Olavarría,Provincia de Buenos Aires,-36.8924547,-60.3192685,4.7,2,https://streetviewpixels-pa.googleapis.com/v1/thumbnail?panoid=GVhDscP74evg6V3xMEZNew&cb_client=search.gws-prod.gps&w=408&h=240&yaw=243.75114&pitch=0&thumbfov=100,2.0,26,2025-06-15T23:31:29.855Z,tecnologia
OLANET I Tecno.Gaming.Hogar,Tienda de informática,,"Av Pringles 3409, Av. Colón y",+54 2284 41-4600,Olavarría,Provincia de Buenos Aires,-36.8936261,-60.312356,4.4,1,https://lh3.googleusercontent.com/p/AF1QipPZA2Dej9zxUg3f7KdiG9v2g72wRKkVeTh4XS-s=w408-h408-k-no,218.0,462,2025-06-15T23:31:29.854Z,tecnologia
OLAVARRIA.COM - Vta de Insumos de Pc - Serv Tecnico Informatico,Tienda de informática,http://www.olavarria.com/,25 de Mayo 3335,+54 2284 58-4626,Olavarría,Provincia de Buenos Aires,-36.8929583,-60.3144696,4.6,8,https://streetviewpixels-pa.googleapis.com/v1/thumbnail?panoid=SYl88EL4BUcjJqDNEMb6OQ&cb_client=search.gws-prod.gps&w=408&h=240&yaw=150.45769&pitch=0&thumbfov=100,1.0,26,2025-06-15T23:31:29.856Z,tecnologia
Sachs Piezas Orginales,Tienda de repuestos para automóviles,,Belgrano 1815,,Olavarría,Provincia de Buenos Aires,-36.886439,-60.3296147,,36,https://streetviewpixels-pa.googleapis.com/v1/thumbnail?panoid=CfrOrK81rZTpfA_ZVAK1Og&cb_client=search.gws-prod.gps&w=408&h=240&yaw=62.77608&pitch=0&thumbfov=100,1.0,0,2025-06-15T23:31:56.366Z,repuestos
El Cholo Repuestos Citroën,Tienda de repuestos para automóviles,,Antonio Pelegrino 1058,+54 2284 42-8912,Olavarría,Provincia de Buenos Aires,-36.8865759,-60.3425532,4.4,34,https://streetviewpixels-pa.googleapis.com/v1/thumbnail?panoid=SszJHR1TF1i4iPamB8ZK9A&cb_client=search.gws-prod.gps&w=408&h=240&yaw=44.512493&pitch=0&thumbfov=100,1.0,31,2025-06-15T23:31:56.366Z,repuestos
Wangulén Repuestos,Tienda de repuestos para automóviles,,Ayacucho 2971,+54 2284 32-0325,Olavarría,Provincia de Buenos Aires,-36.8851812,-60.330226,,31,https://lh3.googleusercontent.com/p/AF1QipOBfe6RbW6EI03iQXDjMbV6Vria9hvAol-AGwOR=w408-h395-k-no,2.0,0,2025-06-15T23:31:56.366Z,repuestos
Mecanica Dorrego Reparacion y venta de Cajas de Velocidad ydiferenciales,Taller de reparación de automóviles,,Dorrego 1627,+54 2284 45-6037,Olavarría,Provincia de Buenos Aires,-36.8845778,-60.3302699,4.7,60,https://lh3.googleusercontent.com/p/AF1QipP1Spo3FvlrCvPRX8-o3uFreAxL8ArLiCTf8XXy=w426-h240-k-no,73.0,26,2025-06-15T23:31:57.143Z,repuestos
Moto Sport,Taller de reparación de motos,,Av. Ituzaingó 2141,,Olavarría,Provincia de Buenos Aires,-36.8900033,-60.338014,5.0,59,https://streetviewpixels-pa.googleapis.com/v1/thumbnail?panoid=vIcnbuzk3ykhzMn62lbvwg&cb_client=search.gws-prod.gps&w=408&h=240&yaw=304.22797&pitch=0&thumbfov=100,2.0,3,2025-06-15T23:31:57.143Z,repuestos
La Casona de Diego,Chatarrería,,"Club Atlético Pueblo Nuevo, Necochea 1734",+54 2284 47-3939,Olavarría,Provincia de Buenos Aires,-36.8847002,-60.3288765,4.4,58,https://lh3.googleusercontent.com/gps-proxy/ALd4DhFOYWWFaVPGNBPRhR7TsWyqh4jLkexcjrRy1cVZQUMXOnvmYXt7CCtqczchw2Pc8EIPA9OZ0O4GP5OQswkBe6Ggr1h_gF5l9MZjaGQhBtshyFudTeB4Vq_f-3N5JIxkN6Cc-eKKRYU5FXfzwan7mufdHDIvjjI2ykZymfOuMyygwGlXYvRy3Hz_vR9sfk13yIujMw=w408-h306-k-no,9.0,12,2025-06-15T23:31:57.143Z,repuestos
MODARELLI MECANICA INTEGRAL,Taller mecánico,,Gral. Paz 1461,+54 2284 45-5036,Olavarría,Provincia de Buenos Aires,-36.8853898,-60.3342608,4.8,67,https://lh3.googleusercontent.com/p/AF1QipPkthU8vxCeYwWMlD-rfwMRACZCfw7HY9isLfoc=w408-h528-k-no,49.0,68,2025-06-15T23:31:57.884Z,repuestos
Rodriguez Miguel Angel Aire Acond.,Taller de automóviles,,Maipú 3366,+54 2284 42-2942,Olavarría,Provincia de Buenos Aires,-36.8854334,-60.3232781,4.1,66,https://streetviewpixels-pa.googleapis.com/v1/thumbnail?panoid=u7Jc8UmqyyyfB4mWPKltZg&cb_client=search.gws-prod.gps&w=408&h=240&yaw=142.5755&pitch=0&thumbfov=100,1.0,11,2025-06-15T23:31:57.884Z,repuestos
Alicante Sanitarios,Tienda de equipos de baños,https://www.instagram.com/alicantesanitariosyferreteria,Av. Colón 1785,+54 2284 42-1886,Olavarría,Provincia de Buenos Aires,-36.8827921,-60.3255805,5.0,65,https://lh3.googleusercontent.com/gps-proxy/ALd4DhEUjAh-xiQasEZpV1_C7PhmayJRnvibG2c0FVrJXL_d4SYx4Bf7a5apfYab7-Qk3Nb18R0yAG3bLzcvfjCpxRibbBDYgSVJGwuJO4ZX1KlUSOErdwe5yx4JcxqOvN8X0DYnB4obsYb0MkflvOBcHTNKQKzyF8pZfWLg4zusX7PjNGTmFnbqDfQsVbRPLetL3w-W7w4=w408-h306-k-no,4.0,1,2025-06-15T23:31:57.884Z,repuestos
Speedway Motos,Taller de reparación de motos,,Chacabuco 2759,+54 2284 50-8680,Olavarría,Provincia de Buenos Aires,-36.8885947,-60.3295004,4.0,64,https://streetviewpixels-pa.googleapis.com/v1/thumbnail?panoid=SGfSmWds37UTDjBeLjnU3g&cb_client=search.gws-prod.gps&w=408&h=240&yaw=308.08298&pitch=0&thumbfov=100,2.0,9,2025-06-15T23:31:57.884Z,repuestos
La Unica,Servicio de lavado de coches,,"MOO, Av. Domingo Faustino Sarmiento 2750",+54 2284 41-6370,Olavarría,Provincia de Buenos Aires,-36.885633,-60.312906,3.8,63,https://lh3.googleusercontent.com/gps-proxy/ALd4DhHiGgJkdrWIZ-BseOSNtsP_9FzEaYw1GDbCmqghbTPKboEevPUuuVT9jMoj7m2DgqIohbov7thgjHWcz-7GNyAdunDx_0Kt17Cjdf758iGuRYlClBYTLcVgtCBTn6lvkcPmbLsqeshdeTNpTGC3OsqYITvrStuDFyK67OIsoDHBdfAkZeSY-IOT5sStjmMzDijveKQ=w408-h306-k-no,4.0,19,2025-06-15T23:31:57.884Z,repuestos
Hauswagen Olavarria S.A.,Concesionario Volkswagen,https://www.hauswagenolavarria.com.ar/,"Centro Comercial Walmart, Rivadavia 4770",+54 2284 67-0111,Olavarría,Provincia de Buenos Aires,-36.8806323,-60.3039491,4.3,57,https://lh3.googleusercontent.com/gps-cs-s/AC9h4noelqhEPt3XOLsc-snU-3HKNhGGSyO7U0SXNTVSBXFb_QRNxeElpphQM2OKeVKHoNmLNVSDQVny9cFVnfZB1NRqnBsftem5PPuo24Vr4Ii-ZUc3BP5Lrgt_YIfj9gzsBLmymZ5N=w408-h906-k-no,5.0,12,2025-06-15T23:31:57.143Z,repuestos
Escapes El Tronador,Taller de reparación de automóviles,,Cerrito 3226,+54 9 2284 52-1204,Olavarría,Provincia de Buenos Aires,-36.8871888,-60.3236857,4.7,61,https://lh3.googleusercontent.com/gps-cs-s/AC9h4noNgaEUgYi9D0z-0mqmWLbzlOpRnK39EqYhEOnEnWN9Nw-kC2ZqB9xoHU88e1PMzlt_4gNp9NKUpq-vN3lxAZNTL2YnbW0qVZu-gDVjPssdpUbodqQZAg9rnIX_YtsPd9xY4c9R=w408-h725-k-no,19.0,95,2025-06-15T23:31:57.883Z,repuestos
Splendore Automotores,Compraventa de automóviles,https://www.facebook.com/vw.splendoreautomotores,Av. Alberdi 3180,+54 2284 45-5899,Olavarría,Provincia de Buenos Aires,-36.8792816,-60.3340442,4.5,56,https://lh3.googleusercontent.com/p/AF1QipN6jpxSsNrl2m5QM7-3mcAV8QbBJ_7vbqcg595u=w408-h249-k-no,27.0,68,2025-06-15T23:31:57.143Z,repuestos
Camellia feria,Chatarrería,,Piedras 2468,+54 9 2284 22-6257,Olavarría,Provincia de Buenos Aires,-36.8873035,-60.3358065,,55,https://streetviewpixels-pa.googleapis.com/v1/thumbnail?panoid=Ap8004FxPCkmPYLS6NDlCQ&cb_client=search.gws-prod.gps&w=408&h=240&yaw=118.01025&pitch=0&thumbfov=100,1.0,0,2025-06-15T23:31:57.143Z,repuestos
Baterías Bianchi,Tienda de repuestos para automóviles,,"Club Atlético Pueblo Nuevo, Belgrano 2143",,Olavarría,Provincia de Buenos Aires,-36.8886509,-60.326933,5.0,54,https://lh3.googleusercontent.com/gps-cs-s/AC9h4nq6DTJP6FEi8nYP_dnF3u-jc_5I5QA8RF64BtAMxqSyA7I_Ygdcxmrvlz1ACqTlFp1CT9HlBszMFlHLWKd3_6oeZnb_re3h5mt5SkYYnZWfoofXGJPs2WBaEGODP6eUKiEcIheXmg=w408-h306-k-no,12.0,1,2025-06-15T23:31:57.143Z,repuestos
Repuestos Cardiello,,,Independencia 2385,+54 2284 50-0218,Olavarría,Provincia de Buenos Aires,-36.8903524,-60.3334283,4.6,53,https://lh3.googleusercontent.com/p/AF1QipObM9jzQfCTOqqMlL-Dvi7fB2Ngl49tEKyN268C=w408-h306-k-no,4.0,31,2025-06-15T23:31:57.143Z,repuestos
Electricidad del Automóvil,Taller de reparación de automóviles,,Av. Ituzaingó 3563,,Olavarría,Provincia de Buenos Aires,-36.880691,-60.3255523,4.4,52,https://streetviewpixels-pa.googleapis.com/v1/thumbnail?panoid=VewzLUnevGIY93E3c0r0Lg&cb_client=search.gws-prod.gps&w=408&h=240&yaw=134.56306&pitch=0&thumbfov=100,2.0,7,2025-06-15T23:31:57.142Z,repuestos
Moriones Hector - Tren Delantero,Taller de revisión de automóviles,,Av. Ituzaingó 2433,+54 2284 45-6275,Olavarría,Provincia de Buenos Aires,-36.8880971,-60.3351305,4.6,51,https://streetviewpixels-pa.googleapis.com/v1/thumbnail?panoid=Ui_CcD35dKck5Npsv1KQKA&cb_client=search.gws-prod.gps&w=408&h=240&yaw=115.65566&pitch=0&thumbfov=100,1.0,93,2025-06-15T23:31:57.142Z,repuestos
Gomeria Sarmiento,Tienda de neumáticos usados,,Av. Domingo Faustino Sarmiento 3781,+54 2284 42-0080,Olavarría,Provincia de Buenos Aires,-36.8922392,-60.3039701,4.4,50,https://lh3.googleusercontent.com/gps-proxy/ALd4DhFRlfh3fAYpFPWEAo6hSPpAvnSvmtGJgb7xoROInRqqfxuFp7LQ2a3v2bIxiyz7Uabnsq7Y29EuS0LJsX59v8fh97YV0u8OPHIjLYGZ-dEhJtukS2PcW0NFU1Fvyw6_4PK6O9Y5Fo1cuE5ynW5vOGfnqgGPouVZ1_2BRjStO-q4v6F763wbiNyj0AOK8KA170Y30A=w408-h306-k-no,4.0,188,2025-06-15T23:31:57.142Z,repuestos
Kegreiss Alfredo,Tienda de repuestos para automóviles,,Cnel. Suárez 1687,+54 2284 45-5068,Olavarría,Provincia de Buenos Aires,-36.8875274,-60.333111,5.0,48,https://lh3.googleusercontent.com/gps-cs-s/AC9h4noB-ykLtAWivlzCxFQgUnrK1g-Ymu9EWcHoYPcwGENhNMtJV8DdbLrEI9c3mhyWs7qx5vsgf0H2IvTSbiG5YamflHYiZ-4ELIerfhKoOE5ayTqghWhgNCnJg_fOfmPBjmuR-vlQkQ=w408-h306-k-no,3.0,23,2025-06-15T23:31:57.142Z,repuestos
Embragues Berho,Tienda de repuestos para automóviles,,Av. Pringles 4248,,Olavarría,Provincia de Buenos Aires,-36.8883056,-60.304875,,47,https://streetviewpixels-pa.googleapis.com/v1/thumbnail?panoid=W_XHiJlVSbSbP7edyY7kQg&cb_client=search.gws-prod.gps&w=408&h=240&yaw=141.01367&pitch=0&thumbfov=100,1.0,0,2025-06-15T23:31:57.142Z,repuestos
Embragues Berho,Taller de reparación de automóviles,,Av. Pringles 4248,+54 2284 42-8939,Olavarría,Provincia de Buenos Aires,-36.8883222,-60.3048369,4.7,46,https://lh3.googleusercontent.com/p/AF1QipMHyJ7KNJs42RZmB7QrXFRuJBnJN-WABI9cvdZk=w426-h240-k-no,5.0,64,2025-06-15T23:31:57.142Z,repuestos
Repuestos Agrícolas Colón,Proveedor de equipos agrícolas,,Av. Colón 1909 LOC,+54 2284 55-2840,Gran Buenos Aires,Provincia de Buenos Aires,-36.8836499,-60.324456,3.0,45,https://lh3.googleusercontent.com/gps-proxy/ALd4DhFb5udM_HIf-smL_pd0NlBODS2L3_i-QnjBUCG1l2GQ9AmYCRxqIimpTDG6F2u0_M4LxE9aALW5XxkVU0NCu7j7_obg12iZEhJUDogB1zqJVpyruYvXxzyu2WOXNrG2oN2t8hNfEud4Vao579FDi7W-UaCUnDdqcu8tqIVDbvibEXjOKcYL_D1RgEHEi21SozSuxMs=w408-h306-k-no,5.0,3,2025-06-15T23:31:57.142Z,repuestos
Ciclomoto,Tienda de repuestos para motos,https://www.instagram.com/ciclomoto.olavarria,Av. Colón 1850,,Olavarría,Provincia de Buenos Aires,-36.8835319,-60.3253992,4.3,44,https://lh3.googleusercontent.com/gps-cs-s/AC9h4no7r4azODjfTad9-bP7YezlscwPvT0ppOose7gOx5lvZ_1TpsOkKvkWRENLrgAsv3BfGDVQ7rZ3ocDeeecQb8P5ajReW3nGU_q9L92OpGiL-bhLOXgN_th55PxWDvv8xqntI9fE2g=w408-h544-k-no,2.0,51,2025-06-15T23:31:57.142Z,repuestos
Frenos Norte,Taller de frenos,,Elpidio González 3120,+54 2284 42-7088,Olavarría,Provincia de Buenos Aires,-36.8818456,-60.3019405,4.6,43,https://lh3.googleusercontent.com/gps-cs-s/AC9h4nqSYmL8YadcJ7IhwVU-zar9VNyruZA9on-_SMatKlBSi-JdFCA5g4TGLHGC9QfiUqaYExObSaQgRSgxr8wZ7DBDkIm8yVgtYQiKX5jYloKszSumKC1VBwCnbIxgboLrsQ6Ev8eHjg=w408-h544-k-no,9.0,101,2025-06-15T23:31:57.142Z,repuestos
Motorepuesto León,Tienda de repuestos para motos,,Buchardo 1459,,Olavarría,Provincia de Buenos Aires,-36.8912804,-60.3419301,4.6,42,https://lh3.googleusercontent.com/p/AF1QipNe7myVPZY463TBTEN46KJLely118yvMXasSfvD=w408-h725-k-no,8.0,9,2025-06-15T23:31:57.142Z,repuestos
Baterías Olimpo,Tienda de baterías para automóvil,,Independencia 2216,,Olavarría,Provincia de Buenos Aires,-36.891652,-60.3345348,4.9,41,https://lh3.googleusercontent.com/gps-proxy/ALd4DhGD4SbdHsxx0vOP5udjvpEyi5ZtFtAPFk4aT2Lvv2gAtcyGbHxkUUYRrUZpI9m17Ifz8VIcOStcT7m2fk-1Lqewj2kHGTh56kIJDsisULjp59U0lfBGdxzxRVtVxI2Znb4V9naVau4C1w-lEcyHEb42v6VJRoDR0Zq4jORh_UFsqN6HN7NBvIdkU-B_nHCyShdrg_w=w408-h306-k-no,2.0,9,2025-06-15T23:31:57.142Z,repuestos
Repuestos Avenida,Tienda de repuestos para automóviles,,Av. Urquiza 3363,+54 2284 42-6411,Olavarría,Provincia de Buenos Aires,-36.8981439,-60.307793,4.6,20,https://lh3.googleusercontent.com/gps-cs-s/AC9h4np8axiXRnhVSIqu7HqQxhh0eXZHFdAEyYCFl_4xzcdjxXJ0y50asjvS6HIH6skDFknnTW2cD57acXVhCzbbb7QYsKiVcjo6moy4IJZtdLLap_5MAhyOEUU99QtTpY0czj5TwUJ-=w426-h240-k-no,15.0,16,2025-06-15T23:31:55.605Z,repuestos
TORO'S. .. ACCESORIOS PARA VEHÍCULOS,Tienda de repuestos para automóviles,http://www.facebook.com/accesoriostoros,Av. Pringles 4498,+54 2284 34-0090,Olavarría,Provincia de Buenos Aires,-36.8867557,-60.3030114,4.0,19,https://lh3.googleusercontent.com/gps-cs-s/AC9h4nrmAreZ_il0cRfkXGtJ_4QB5orGo4ynkRzITBnhyrhFE17ANjmtq0AveA5EEEQkJakO5kH1trxx5DR5_qjOPOgMpP2drQtrLSGtiCcmmasJAAy6g7xZ_4chtsrnxvN12fTZIp2p=w408-h306-k-no,651.0,8,2025-06-15T23:31:55.605Z,repuestos
Moto Repuestos 2000,Tienda de repuestos para motos,,Belgrano 2491,+54 2284 60-6061,Olavarría,Provincia de Buenos Aires,-36.8909644,-60.3239926,4.2,18,https://lh3.googleusercontent.com/gps-proxy/ALd4DhFg3Ojh0XToLdYAqGkaZXhmND6Z77VNgU2zhkwoKSTZdml0-KcDKnr7ZV0BA8zpRuk7Z_UOHmdGP2Er87eRt-rJ3WJcFCg5m7CzYjDzZkEVba9xKbCkcYwnYqGZjl21JUXrhXJnCBDHZwsf4GLGDx8zG_O0BI79DCtbY_jGfcQu9Je7l5mocjyIcgV2MkU5D-fILWY=w408-h306-k-no,5.0,56,2025-06-15T23:31:55.605Z,repuestos
Truck Center Olavarría - Goodyear Planta Reconstructora de Neumaticos,Tienda de neumáticos,http://www.launionneumaticos.com.ar/,CARLOS PELEGRINI 5900,+54 9 2284 21-8123,Olavarría,Provincia de Buenos Aires,-36.8851237,-60.2820839,4.6,62,https://lh3.googleusercontent.com/p/AF1QipPAcj6H176zxSnZg1CpED-l2NmGoI3A0cUEexAQ=w426-h240-k-no,56.0,56,2025-06-15T23:31:57.884Z,repuestos
Servicio Mecánico MAURI Especialidad Chevrolet y Multimarcas Repuestos Originales y Alternativos para tu Chevrolet,Taller de reparación de automóviles,https://www.facebook.com/Servicio-Mec%C3%A1nico-Mauri-111758210290450/,Beruti 4251,+54 2284 33-3980,Olavarría,Provincia de Buenos Aires,-36.8928761,-60.2993919,5.0,17,https://lh3.googleusercontent.com/p/AF1QipPpGmBdoenYYUfMFnPlEuapIRkN0P2J9pmO5LZj=w428-h240-k-no,21.0,7,2025-06-15T23:31:55.605Z,repuestos
Ferar Accesorios,Tienda de repuestos para automóviles,https://instagram.com/ferar_accesorios,Av. Colón 1670,+54 2284 53-0580,Olavarría,Provincia de Buenos Aires,-36.8823135,-60.3269122,5.0,16,https://lh3.googleusercontent.com/p/AF1QipOd87_e-RuqiJKC7QmaEYoak2gWtLg7YH9WmV_m=w408-h306-k-no,65.0,1,2025-06-15T23:31:55.605Z,repuestos
Splendore VW Servicios - Repuestos Unidades 0 Km Y Usados,Taller de automóviles,,"Av J B Alberdi 3180, Olavarr a, Buenos Aires",+54 2284 45-5899,Olavarría,Provincia de Buenos Aires,-36.8792874,-60.3340721,3.9,14,https://streetviewpixels-pa.googleapis.com/v1/thumbnail?panoid=XJPcR25FTgt33NggYKyRvw&cb_client=search.gws-prod.gps&w=408&h=240&yaw=145.78052&pitch=0&thumbfov=100,1.0,14,2025-06-15T23:31:55.605Z,repuestos
Autopartes Del Valle,Tienda de repuestos para automóviles,https://www.facebook.com/Autopartes-del-Valle-2152756388176677/,Av. del Valle 2570,+54 2284 54-4722,Olavarría,Provincia de Buenos Aires,-36.8963524,-60.329492,4.3,13,https://lh3.googleusercontent.com/p/AF1QipNfX7UpOtpN1Nx1w5i6_E2q4pElW8TzMDfbgUHF=w426-h240-k-no,20.0,49,2025-06-15T23:31:55.605Z,repuestos
Juan C. Repuestos (motores Perkins-Maxion-MWM),Tienda de repuestos para automóviles,,Av. Pringles 4037 Loc. 45,+54 2284 58-6359,Olavarría,Provincia de Buenos Aires,-36.8893972,-60.3071357,4.4,11,https://lh3.googleusercontent.com/gps-proxy/ALd4DhHNCAcglbcV8JC3ZqWkvB7NgUexhfpi0e1nqtMu1s_FYUGO_5Y2Frhcr_S1ltqZwQwFfuwWnnIZt-a_Fmv6nT5kv30RiOQt6mCl9GoANhToKaG9DhzLQF4o1bkhdnZ8ZhaSDOLfWFxqb3jU5De50rbvFCjJLyv7YvezdBTRDqE1VWL20hcY9OVkt_zjSEOPJECXEXg=w408-h306-k-no,4.0,30,2025-06-15T23:31:55.605Z,repuestos
Suspensión Olavarría de María Cristina Corvi,Tienda de repuestos para automóviles,https://www.facebook.com/Suspension-Olavarria-de-Maria-Cristina-Corvi-103690851087679/,Vicente López 3580,+54 2284 44-0838,Olavarría,Provincia de Buenos Aires,-36.8880487,-60.3166086,4.8,10,https://lh3.googleusercontent.com/gps-cs-s/AC9h4nroDvmBQiuV-2SZTJLyLO-tj7vofo0pHqiZDp0AjdEGeswT8hsMN88GMffTCOqoE_G1rRMf855vV4hNLZ6ieLNgD14aNnMnXT4wiyE3-C0IjCJtWX7-PKMduGfY4S2bx8eYFuDjVw=w408-h613-k-no,64.0,47,2025-06-15T23:31:55.605Z,repuestos
Repuestos Dentaro,Tienda de repuestos para automóviles,,Av. Pringles 4320,+54 2284 41-7417,Olavarría,Provincia de Buenos Aires,-36.8878597,-60.304353,5.0,9,https://lh3.googleusercontent.com/gps-proxy/ALd4DhGXpftSWUvDuLX8OeHCOOvwo5It2-Z3moi4fqws6kSQ6Ru15bKgtbmwdEbE22PoKmDoo6pYjLYMWhsPSEKUumsrq4krexsq72DB9CxsD369QbdIJ0fcu1IkWWg4NXBYD0DPGnWKNwrF2AplInTQA4js6sGKzSDGBoms2MwOzydI0C9QKbqFpje4zbBFVUweZe9ULqY=w408-h306-k-no,2.0,2,2025-06-15T23:31:55.605Z,repuestos
Total Autopartes,Tienda de repuestos para automóviles,,"Av J B Alberdi 3985, Olavarr a, Buenos Aires",+54 2284 23-0813,Olavarría,Provincia de Buenos Aires,-36.8737306,-60.3274849,4.4,8,https://lh3.googleusercontent.com/gps-cs-s/AC9h4npZKjxefp3Rnrv1yIO1eW4EZhhVmFBpVreMQW6k_B0DPZTm7Zd0Qnzb-MRK_JUiAQDyKo6Rh-uTvaRNIUGHyyHvEp5xE40c_qv3npfJoQjTJHfAAT7-6NuzMmbvlrSKH3-EDPd5YA=w426-h240-k-no,2.0,47,2025-06-15T23:31:55.604Z,repuestos
Grand - Prix,Tienda de repuestos para automóviles,,Belgrano,+54 2284 42-8088,Gran Buenos Aires,Provincia de Buenos Aires,-36.8865525,-60.3297875,4.4,7,https://lh3.googleusercontent.com/gps-proxy/ALd4DhESORrphRPeyXwaLuLOLz2-tRvSIy25ubaB-ozd32cvDS0m7tlJRflvF-8RQbsEygV5XKiFFBCfGtayRvmtFPxsmyN9q9RBsD3vv1X0HfQMdHLUFmnlZTaCWUnOGOnzK3mLNC4AsPuDHo-OEbHGg9pp50L33ctgZR9D_eYhaRPRKsnzU52JKlGXYAkdjpcVxmq3dDE=w408-h306-k-no,5.0,74,2025-06-15T23:31:55.604Z,repuestos
Repuestos Agricolas Alberdi,Tienda de repuestos para automóviles,https://www.facebook.com/profile.php?id=100016058346859&mibextid=2JQ9oc,Av. Colón 1955,+54 2284 55-2840,Olavarría,Provincia de Buenos Aires,-36.8840191,-60.3240502,4.7,6,https://lh3.googleusercontent.com/gps-proxy/ALd4DhGSCPCBePJOvLiqg0b40P43G6vNiqtJ4917m7auazrGeBYkZy1soBmoFKcaMm_pocfklwpr9YIzutrsSfRyP-jn5dzfyj-WID76pkgulx4rFx6UA02Yr8a1RcwbsVFNFYCoBBpkuuOJKIgitOfVXz2HYeGL03xIie3i_W3QHE8WhDBUK5hoBaxrmBILqJYsfHy2NA=w408-h306-k-no,9.0,35,2025-06-15T23:31:55.604Z,repuestos
Autotractor S.A..,Tienda de repuestos para automóviles,,España 3437,+54 2284 42-0222,Buenos Aires,Provincia de Buenos Aires,-36.8913874,-60.3145618,4.4,5,https://lh3.googleusercontent.com/gps-proxy/ALd4DhF-KiJ1R6GjtC6t2ilfE1wCyyKRgXDp1A0IooyNC-GHyj_J14qhF3jIMgQR2Wslm4Tu83MOtmiHhZV3c5jkyF6PUTvpJB6Rl_d11726QQiPs3X3jv-sIxa6lP3-Oa2V2UgVDWlEw5F8Oi6EWuNoKCWve7tioLVjdunfmAOttmb8xmFmIm2pe-m6xe3gamuiMz4RBg=w408-h306-k-no,5.0,105,2025-06-15T23:31:55.604Z,repuestos
Repuestos Magford,Tienda de repuestos para automóviles,,Independencia 3027,+54 2284 44-0850,Olavarría,Provincia de Buenos Aires,-36.8861534,-60.3280264,4.6,4,https://lh3.googleusercontent.com/gps-cs-s/AC9h4noXzIkOBvmTVRSTFhccH3ikb6bv3YdI1PhLsaguYLH4CDM3P_wmSh_u_XxGgSfHMKDREJxacQDkrcRQFg3coR-_Wc3Au-ao-ZkjWHtfHiV-bqNYb22FFh_lqkEviUs7Fd_R3mnDBg=w408-h306-k-no,8.0,146,2025-06-15T23:31:55.604Z,repuestos
Toyomec,Tienda de repuestos para automóviles,https://www.instagram.com/toyomec.repuestos.oficial,Av. Colón 2198,+54 2284 44-0404,Olavarría,Provincia de Buenos Aires,-36.8858161,-60.3224297,4.7,3,https://lh3.googleusercontent.com/p/AF1QipNN37nmFpapbknNAfswkpssLZ5GtqNvJKV0HKEM=w493-h240-k-no,9.0,50,2025-06-15T23:31:55.604Z,repuestos
Repuestos D'Onofrio,Tienda de repuestos para coches de carreras,https://www.facebook.com/RepuestosDonofrio/,Av. Colón 2666,+54 2284 42-7134,Olavarría,Provincia de Buenos Aires,-36.8890453,-60.3186281,4.6,2,https://lh3.googleusercontent.com/p/AF1QipMoeJy2-T35lb-vjGd1d6MJ50ZiqSDN11h3MgfW=w408-h306-k-no,12.0,233,2025-06-15T23:31:55.604Z,repuestos
Renault - Plan Rombo,Concesionario de automóviles,http://www.renault.com.ar/planrombo,España 3500,+54 810-666-7362,Olavarría,Provincia de Buenos Aires,-36.8910978,-60.3137939,3.5,68,https://lh3.googleusercontent.com/gps-proxy/ALd4DhHQHaqirALD5rz12kiopJXJs9z2MP7nGMWFPoXIKLf4j5ab__-ZvZw9QsJ7H_BD-Qu56LdmrAOWFz_QqxanVqSJjgp-tRAoU-ETxn60L8af26pgsWT1gnaSio6C_iHniRU78wBcbsiF1h5QWY1otroIJMpnQFf6FJUu-3Gf3lbyjlSiaxopcSYMvLxHTlUMZLn86_s=w408-h306-k-no,6.0,40,2025-06-15T23:31:57.884Z,repuestos
Repuestos Chiappe,Tienda de repuestos para automóviles,https://www.facebook.com/Repuestos-Chiappe-para-el-Automotor-109103693939760/,Av. Colón 3099,+54 2284 42-7800,Olavarría,Provincia de Buenos Aires,-36.8916341,-60.3147977,4.6,1,https://lh3.googleusercontent.com/p/AF1QipMf13k36vjiCMuOPF4Ew48bqC86m9vnCwi3uHMI=w497-h240-k-no,7.0,218,2025-06-15T23:31:55.604Z,repuestos
BRIOZZO Y CIA - RECTIFICACIONES Y REPUESTOS,Taller de reparación de automóviles,https://wa.me/c/5492284637896,Av. Ituzaingó 3299,+54 2284 63-7896,Olavarría,Provincia de Buenos Aires,-36.8824109,-60.3283569,4.7,15,https://lh3.googleusercontent.com/gps-cs-s/AC9h4nqVXteg3nN7qMbYvXZD3z4ba5F0H0uV-9z3Dx2kAJSiD2IBirrZmnXaCjyfeC_x1g6kuVD_vr2EAc3j7AFYNFbT3Xx_bMpOsHw5g0Qz3eE5Zm5rGoZNRocQNMcdIWOjbIpM96s=w408-h306-k-no,23.0,53,2025-06-15T23:31:55.605Z,repuestos
El Fronterizo,Tienda de repuestos de automóviles usados,http://www.elfronterizo.com.ar/,146 3298,+54 2284 44-0759,Olavarría,Provincia de Buenos Aires,-36.8675926,-60.2817125,4.1,12,https://lh3.googleusercontent.com/gps-cs-s/AC9h4noTnJYwY2qEl7jhF2aJ5jrBayr3ZF2dIM-FVQi_icOyAVCg-tSFtmEs6mLRDyhWcoxK-MAxk8mgkB4wA2AcoMWOEsgumEOHoWRr9cV129nsvf1LRlEv7oBmHyy5aY9vcgyHKysn=w408-h306-k-no,15.0,344,2025-06-15T23:31:55.605Z,repuestos
VENTA DE PRODUCTOS NATURA Y BIOGREEN,Tienda naturista,,,+54 2284 21-5397,,,-36.8596106,-60.2870294,,77,https://lh3.googleusercontent.com/p/AF1QipPNKfDNblbrZ14m5lS4ern5eWnYGPRarnZsCvsV=w426-h240-k-no,4.0,0,2025-06-15T23:32:14.794Z,venta
Edificio Arcos del Sol,Edificio de apartamentos,,Rivadavia 3698-3794,,Olavarría,Provincia de Buenos Aires,-36.8873513,-60.3139534,,76,https://streetviewpixels-pa.googleapis.com/v1/thumbnail?panoid=ZacIoTWe7wuhh5nkQ4FXMw&cb_client=search.gws-prod.gps&w=408&h=240&yaw=137.03908&pitch=0&thumbfov=100,1.0,0,2025-06-15T23:32:14.794Z,venta
Inmobiliaria Di Salvo,Agencia inmobiliaria,,Sgto. Cabral 2556,+54 2284 60-5026,Olavarría,Provincia de Buenos Aires,-36.8896043,-60.3211078,4.3,75,https://lh3.googleusercontent.com/p/AF1QipNxyHqz-U6UduASapT9sZlFr-q4ZoDV6dMciTxp=w408-h298-k-no,15.0,31,2025-06-15T23:32:14.794Z,venta
Claro,Compañía telefónica,,Vicente López 2865 Local 1 -2,+54 9 2284 24-6597,Olavarría,Provincia de Buenos Aires,-36.8925911,-60.32284,3.3,74,https://lh3.googleusercontent.com/gps-proxy/ALd4DhFLWtDcQpK276wsefahlKQuDsGrzl1q-mmDQ_bwKBpUFMlLp6uhw7ytUoomHXZ-aQGveIgRYYIwPUyOuvF5nVfYX6g9lbGMkQv_4cxSIWBf8KYwiDE_i7_nQZkwTCLtL3bfEj4EtIWAysF8pdWvPzKtnzuKpBJ8GlzEr5XRgam9dLGjoThrzCeibJqRsBQgyaIGLfM=w408-h306-k-no,3.0,11,2025-06-15T23:32:14.794Z,venta
"""El Paisa""",Tienda de alimentos para animales,,Av. Ituzaingó 4096,+54 2284 68-8315,Olavarría,Provincia de Buenos Aires,-36.8770048,-60.3213475,4.6,64,https://lh3.googleusercontent.com/p/AF1QipNGoaH5NR2frl0TujckRSwim5esC88fZTXEvLpP=w408-h306-k-no,14.0,19,2025-06-15T23:32:15.598Z,tienda
Afrodita,Tienda de ropa de mujer,,"CUF, Necochea 2725",+54 9 2284 46-9401,Olavarría,Provincia de Buenos Aires,-36.891222,-60.3204265,4.7,63,https://lh3.googleusercontent.com/gps-cs-s/AC9h4nqNKrMGyIo4X1UviJ383xRNS68qt4EVk1WsuKAIi6G4OS0Z1S7Xn-cWWDpmMeFSxVc_wY4s36tOobkF3rBIE8iE-7Ziy3XT_nZbnGaMFhkpxtq5ARPB0lLaCVKdc6W9yMLXPBii=w408-h306-k-no,18.0,11,2025-06-15T23:32:15.598Z,tienda
Ale de libano,Tienda de fotografía,https://www.facebook.com/aledelibano/,"Trabajadores y, Aguilar",+54 2284 56-1081,Olavarría,Provincia de Buenos Aires,-36.8874186,-60.3003309,,61,https://streetviewpixels-pa.googleapis.com/v1/thumbnail?panoid=h7JGdQYveEPS_rSaCgep8g&cb_client=search.gws-prod.gps&w=408&h=240&yaw=356.03024&pitch=0&thumbfov=100,1.0,0,2025-06-15T23:32:15.598Z,tienda
Sportia,Tienda de ropa de deportes,https://instagram.com/sportiaolavarria,Belgrano 2482,+54 2284 41-4414,Olavarría,Provincia de Buenos Aires,-36.8910737,-60.3243518,4.5,62,https://lh3.googleusercontent.com/gps-proxy/ALd4DhEO9caON1xjK3YFwQBuxiKIypK2almInXdGWwd8yGnOYLGFxA1MR5Pp3taxz3RkqOZcRuJnBIxi4C7Mt3m6vqcCDZL01GPe5MzA7KqpKI3PyRSaAbVu2h8TmqsOoZV6tZoQ9cPLiaT40WXhBYstCNpzz3O5o8azfreKn2oSD1iuAko1vQJNSSeJu4_alGdTKWUXWCY=w408-h306-k-no,2.0,50,2025-06-15T23:32:15.598Z,tienda
Inmobiliaria Carlos Alloggia,Agencia inmobiliaria,,"V L pez 2479, Olavarr a, Buenos Aires",+54 2284 44-5420,Olavarría,Provincia de Buenos Aires,-36.884,-60.30974,,71,https://streetviewpixels-pa.googleapis.com/v1/thumbnail?panoid=5mtRwHrF0NQpRj7NP2-kzQ&cb_client=search.gws-prod.gps&w=408&h=240&yaw=119.66677&pitch=0&thumbfov=100,1.0,0,2025-06-15T23:32:14.794Z,venta
Bicicletería Santa Elena,Tienda de bicicletas,,Belgrano 1831,+54 2284 42-2506,Olavarría,Provincia de Buenos Aires,-36.887935,-60.3312982,4.0,69,https://lh3.googleusercontent.com/gps-proxy/ALd4DhEw9kJkEoHb9Ooe-7ztPBDcOFD88Iq5eCBLHim8zM4-cIbNNVO6Sfk4_UQv1IKzBLruXalZz6mNbq1mx9WIwFmdFzk6UsZ6FQFM2LSTVQNlpGMQ83OvEXe0PPE-MgohRa9FGJR2dWRMVgsNoB5YAPPLKv5GZqqZrNFwBvwfgqurAw35iLXklIQHupdrjVQhZHZAlWw=w408-h306-k-no,4.0,22,2025-06-15T23:32:14.794Z,venta
Rago Automotores,Concesionario de automóviles,,"Club Atlético Pueblo Nuevo, Av. Ituzaingó 2658",+54 2284 45-5840,Olavarría,Provincia de Buenos Aires,-36.8868791,-60.3333471,4.4,68,https://lh3.googleusercontent.com/gps-proxy/ALd4DhHrDMciOfU7-uAp6dcvWhQp8wHdspljAEET0-OhQz95ZWtZl1fSPOPx-w7bhoa-6diDCAIx1O0mVfFAwCCHZSzuGGxMwKE8ovml71itLZArVPwmK4Xybyw-903eUyDXiLPxTTDOziRYKDX_acn46M6-j1OPIYbqebTs-qQbi8GDcGzOXnCL3gA6JqHW7IOsGNsM1VM=w408-h306-k-no,2.0,15,2025-06-15T23:32:14.794Z,venta
Ensueños Hogar,Tienda de ropa de cama,https://www.ensuenoshogar.com.ar/,Necochea 2218,+54 2284 42-8995,Olavarría,Provincia de Buenos Aires,-36.8879897,-60.3247067,4.8,20,https://lh3.googleusercontent.com/p/AF1QipPB6r29Li9_YoiRlmP3TNzuHrlQ4UmE8hxuSL4=w408-h725-k-no,36.0,294,2025-06-15T23:32:12.266Z,venta online
Gonzalo Bahl Inmobiliaria,Agencia inmobiliaria,,Alsina 3421,+54 2284 52-2820,Olavarría,Provincia de Buenos Aires,-36.8882505,-60.318812,5.0,63,https://lh3.googleusercontent.com/gps-cs-s/AC9h4nqF0hoOEFor2ctowAKNmbsIet1iLclpodACwzSI1B_M6dgHODAKbhTMtNMdFxBGjTlbC65IkIQJ1IrgnbtsoobL80CtUkofMeldQQWuaUz2Jp7pMGaMLCpsWECpklrrxqdEboPA=w408-h306-k-no,4.0,3,2025-06-15T23:32:14.793Z,venta
Inmobiliaria Máspero,Consultor inmobiliario,,Vicente López 3571,+54 9 2284 62-0701,Olavarría,Provincia de Buenos Aires,-36.8879288,-60.3170094,4.0,62,https://lh3.googleusercontent.com/p/AF1QipOn2iVlhVMokO0MKb9alyMhtJ6SwE-fv8kI3K1D=w408-h306-k-no,8.0,4,2025-06-15T23:32:14.793Z,venta
Barrio Jardín Monoblock 23,Edificio de apartamentos,,Av. Urquiza,,Olavarría,Provincia de Buenos Aires,-36.8905069,-60.2989917,4.5,61,https://lh3.googleusercontent.com/gps-proxy/ALd4DhFo6jgo0t7LiCVAqLEPo0QUf327NN5FiK1TgzA9UO4RmS87na2C8AtEMtEYjAvYW6pPnPBWloIZFnUUnchTKq7OyN2zzhUMeWZOQF7j4r6DojP_iPqj7hiSoUGTsA6yXzaXa__ayg1z0lSYAj2Y9mAm_4IEgXc9rVEEoKRCtuhxm56FBjhj7Ax_zuMNPZkOfqzIpA=w408-h306-k-no,2.0,2,2025-06-15T23:32:14.793Z,venta
Mimito Kids,Tienda de ropa infantil,,,+54 2284 72-5037,Olavarría,Provincia de Buenos Aires,-36.8889962,-60.3350473,,60,https://lh3.googleusercontent.com/p/AF1QipPUFQMuZ89pEaWqxW5P5hPeKdU0vPc5a7rTwRFr=w408-h544-k-no,35.0,0,2025-06-15T23:32:14.049Z,tienda
Motos Minnig Yamaha Olavarria,Concesionario de motos,http://www.motosminnig.com.ar/,Av. Colón 2695,+54 2284 42-0788,Olavarría,Provincia de Buenos Aires,-36.8889775,-60.318067,4.5,73,https://lh3.googleusercontent.com/gps-proxy/ALd4DhHHjgaht4VcWpeP6SpyKrLS8obfailVGWSnL4skyNEQimhBKSXiH5WANrTR1w_pg-SZvRlEFeAM9AwcsyCBb5FQL8YRCWzOrJw37KUJkGV-YwxRZ9fjdJo9mDqv9ToEpv6919lzDGjShSjH3EmudM6eAlIFxBAX11obKwovcH5j73Yl1f1w3QYWKhRayA87ckaXlQ=w408-h306-k-no,179.0,136,2025-06-15T23:32:14.794Z,venta
DI TASCA,Tienda de ropa de hombre,https://www.instagram.com/ditascaolav/,Vicente López 2881,+54 2284 41-9488,Olavarría,Provincia de Buenos Aires,-36.8925238,-60.3226351,4.6,59,https://lh3.googleusercontent.com/p/AF1QipPLD60HPX4ziuiw-dQ18TpkZmEFTZJRZ80je_iX=w408-h306-k-no,17.0,25,2025-06-15T23:32:14.049Z,tienda
Kioskon,Kiosco,,Av. Domingo Faustino Sarmiento 3390,+54 2284 51-0094,Olavarría,Provincia de Buenos Aires,-36.8898545,-60.3075,4.7,58,https://lh3.googleusercontent.com/p/AF1QipOV2eli-a77qSXz8HP87Cts8H5NZWUqUUQ4Lz7q=w408-h408-k-no,17.0,59,2025-06-15T23:32:14.048Z,tienda
Ana Marsico,Tienda de ropa de mujer,,Necochea 2475,+54 2284 42-8058,Olavarría,Provincia de Buenos Aires,-36.889579,-60.322468,4.6,57,https://lh3.googleusercontent.com/p/AF1QipMnjghRPdRDt9rZrRpg9htEFbqyY0NlFsRjANs5=w426-h240-k-no,9.0,71,2025-06-15T23:32:14.048Z,tienda
Verea Perfumerias,Perfumería,,Rivadavia 3051,+54 2284 44-6055,Olavarría,Provincia de Buenos Aires,-36.892113,-60.320474,4.5,56,https://lh3.googleusercontent.com/gps-cs-s/AC9h4nryIsC2ivGHDWMgj9kidhk-jU6BPC6-zUfxI0KWoeksxCxxHc2YyJpqvhJ7HmzrylcD8FWUiwbBxdt9AKFBjDebppc6R_t7QZvknK_b3J0N0OB-iCGoJm36GSEPVKpFJxFIZWc=w409-h240-k-no,13.0,672,2025-06-15T23:32:14.048Z,tienda
Greta tienda natural,Tienda general,https://www.instagram.com/gretatiendanatural?igsh=MWtpNjVoeTd2MXprYw==,Rivadavia 3160,+54 2284 71-0571,Olavarría,Provincia de Buenos Aires,-36.8916164,-60.3192666,,55,https://lh3.googleusercontent.com/p/AF1QipOK9WA8yo8tfEufI7i2zDhnC_aMjbwjxeYRp-ow=w426-h240-k-no,4.0,0,2025-06-15T23:32:14.048Z,tienda
Ramos Generales,Mercado,,Lavalle,,Olavarría,Provincia de Buenos Aires,-36.8853343,-60.3163857,4.3,54,https://lh3.googleusercontent.com/gps-proxy/ALd4DhEBFQb39INni8UQQglutdj9oBzYznU0Z7Cdji3fq0wO94sOInP7RjLORwlYUQTtctnSPw34Re8RS7FDhnevuQ94rUZJTnna9H5W0Yp-hrtj_bfH75v1QHy8zOl22cVoNhp2XJnMjTV0vMcKnuH_YuEgkGoG571yiWpYF_eRwDYECiPxgfliTICrHRLr7gQFDXlN0z4=w408-h306-k-no,2.0,7,2025-06-15T23:32:14.048Z,tienda
Costumbres Argentinas,Carnicería,,"Club Atlético Pueblo Nuevo, San Lorenzo 2932",+54 9 2284 53-0665,Olavarría,Provincia de Buenos Aires,-36.8862512,-60.329414,4.9,53,https://lh3.googleusercontent.com/gps-proxy/ALd4DhHJR29BCe-oPy9Vf_L_yQDUPgx6S9F2J4ukyIlkX-ytHRg1PQNea-V9i4QdHm5ZeuRYSTVXU-95FCoQHyB47Taxoi77fCiFOgZwgTUnALTAnAQk7NgODHQqy_70iYBSHZaDwGNoOH2nCnTLRyzErnC5cLln_ju2BgRKb6vJEO0Ec9TgCgSjNyGMvHZ_RcN4jXzuBME=w408-h306-k-no,6.0,28,2025-06-15T23:32:14.048Z,tienda
tienda trostrostrillie,Tienda de ropa infantil,,Cnel. Suárez 1389,,Olavarría,Provincia de Buenos Aires,-36.8854631,-60.3357443,,52,https://streetviewpixels-pa.googleapis.com/v1/thumbnail?panoid=mgOYUB9mF5elHY3sn6ye8A&cb_client=search.gws-prod.gps&w=408&h=240&yaw=47.017597&pitch=0&thumbfov=100,1.0,0,2025-06-15T23:32:14.048Z,tienda
Coldie - Tienda de Juguetes,Juguetería,https://www.facebook.com/coldietiendadejuguetes,Rivadavia 3147,+54 2284 47-7080,Olavarría,Provincia de Buenos Aires,-36.8915005,-60.3195869,4.9,51,https://lh3.googleusercontent.com/p/AF1QipPP4-fk2SlVDuY6FrV8_CayAPA6T-QPhYoEZSeM=w408-h544-k-no,20.0,26,2025-06-15T23:32:14.048Z,tienda
Karui tienda de regalos,Tienda de regalos,https://www.instagram.com/_karuii?igsh=ODhzNDIwaGZ3ZmF6,Junín 3110,+54 2284 20-1027,Olavarría,Provincia de Buenos Aires,-36.8816838,-60.3319963,,47,https://lh3.googleusercontent.com/p/AF1QipOQ7KQ_eNiH8W-GGaEZNEe4tok0BvgSaY9q3Sxd=w408-h727-k-no,12.0,0,2025-06-15T23:32:14.048Z,tienda
Tienda De Ropa Iker,Tienda de ropa,,Vicente López 3356,,Olavarría,Provincia de Buenos Aires,-36.8895755,-60.3184799,,45,https://streetviewpixels-pa.googleapis.com/v1/thumbnail?panoid=aAD33XIfzxZT2YcbOm0gPA&cb_client=search.gws-prod.gps&w=408&h=240&yaw=115.741104&pitch=0&thumbfov=100,1.0,0,2025-06-15T23:32:14.048Z,tienda
Tienda Fan!,Tienda de ropa infantil,,Cnel. Suárez 1389,,Olavarría,Provincia de Buenos Aires,-36.8854631,-60.3357443,,42,https://streetviewpixels-pa.googleapis.com/v1/thumbnail?panoid=mgOYUB9mF5elHY3sn6ye8A&cb_client=search.gws-prod.gps&w=408&h=240&yaw=47.017597&pitch=0&thumbfov=100,1.0,0,2025-06-15T23:32:14.048Z,tienda
Flor Shop,Tienda de accesorios de moda,,Vicente López 3135,+54 9 2284 30-3729,Olavarría,Provincia de Buenos Aires,-36.8907965,-60.320596,4.3,41,https://lh3.googleusercontent.com/gps-proxy/ALd4DhFhsfrZ4Onq7eKDKtpOS4l4CV8Lx9bcKQ7K1339sv3Xi8MXpA9LLqHkc3rBVHTt62ckIwrfNhsBNuDwkKVpgeRWi6Vt8Jfq1QuVhdTnMlcNeDioELJT_LFSYzraQgybi9KKNVJ7syG28ccvtY9nIV63sJ7Tbi7mFnnlk5SaeR2oCW7zVIXtW45c12cJHgDixPlvBwQ=w408-h306-k-no,3.0,65,2025-06-15T23:32:14.047Z,tienda
Le Utthe,Tienda de ropa,http://www.leutthe.com/,Vicente López 3158,,Olavarría,Provincia de Buenos Aires,-36.8909738,-60.3200587,4.4,50,https://lh3.googleusercontent.com/gps-cs-s/AC9h4nrZ4PxtcROqM8MC_DGySVwmlCc4gCY9havg8fOeyIE1tLkyZJYV1VY17SH0Y5CVHcMO79ndYZbvMURDZDypR0ArnOMoRxjisO-H53qN2b0JUgfDxhfJijIDOWeMwB1BADhum6Gm=w426-h240-k-no,35.0,953,2025-06-15T23:32:14.048Z,tienda
LB SERVICIOS INDUSTRIALES,Taller de maquinaria,,Av Eva Perón N° 3978,+54 2284 47-7742,Olavarría,Provincia de Buenos Aires,-36.9084598,-60.2846375,5.0,18,https://lh3.googleusercontent.com/gps-cs-s/AC9h4nqcpB2_d0-FjCWVcMFUg1mxJccT1744pKXpl4NYOiPK88TrCacwdyPyRpqdYz0Cu-aOWAb733iGgsnG0LwAcDgU9BSmR523JzNJZJXSu7yXeO6_deRbn4o1Bm8L4Nt9cGrFnvq39A=w533-h240-k-no,20.0,3,2025-06-15T23:32:14.016Z,maquinaria
"Tornería ""El Portu""",Fábrica de maquinaria,,Av. Alberdi 2799,+54 2284 59-8084,Olavarría,Provincia de Buenos Aires,-36.8815918,-60.3375807,,17,https://streetviewpixels-pa.googleapis.com/v1/thumbnail?panoid=6GI0Ho8GNTGQ3Hvkr8bl2Q&cb_client=search.gws-prod.gps&w=408&h=240&yaw=301.4924&pitch=0&thumbfov=100,2.0,0,2025-06-15T23:32:14.016Z,maquinaria
alonso jose e hijo,Taller de maquinaria,,Av. Ituzaingó 2480,+54 2284 58-4638,Olavarría,Provincia de Buenos Aires,-36.8877409,-60.3348477,,16,https://streetviewpixels-pa.googleapis.com/v1/thumbnail?panoid=HUzVnF5DodCNeZdSCDGcfw&cb_client=search.gws-prod.gps&w=408&h=240&yaw=43.98234&pitch=0&thumbfov=100,5.0,0,2025-06-15T23:32:14.016Z,maquinaria
Carmelo Vargas Inmobiliaria,Agencia inmobiliaria,https://carmelovargasinmobiliaria.com/,Av. Colón 725,+54 9 2284 26-9850,Olavarría,Provincia de Buenos Aires,-36.8760874,-60.3340542,5.0,66,https://lh3.googleusercontent.com/p/AF1QipPaHXW773f8zycaKH4sJUTr5x5AMXtedvdXfgmo=w408-h725-k-no,5.0,1,2025-06-15T23:32:14.793Z,venta
Daniel y Gregorio Sanchez S.A,Proveedor de equipos agrícolas,https://www.facebook.com/people/Daniel-y-Gregorio-S%C3%A1nchez-SA/100054470860746/,Av. del Valle 5530,+54 2284 65-5362,Olavarría,Provincia de Buenos Aires,-36.9162423,-60.3054469,4.4,14,https://lh3.googleusercontent.com/gps-cs-s/AC9h4noyeItqTnOSismhdmqb81flmgtq7QNnq1QsPmRJhxK2x2xszAJYH_Gc4zYlHnbKro3DZrAn9y-NEUgIWDrXn7Scd2d-r2AwlqpQB7T7q7laDvylxY3MivRRWzetNEk6oZDuPYAA=w489-h240-k-no,19.0,27,2025-06-15T23:32:14.016Z,maquinaria
Registro de Maquinaria Agrícola Olavarría,Registro civil,http://www.dnrpa.gov.ar/,Moreno 2938,+54 2284 44-0418,Olavarría,Provincia de Buenos Aires,-36.8937139,-60.3201844,,15,https://streetviewpixels-pa.googleapis.com/v1/thumbnail?panoid=9yFHmdNuytJEmyQ0jz8vXw&cb_client=search.gws-prod.gps&w=408&h=240&yaw=149.724&pitch=0&thumbfov=100,1.0,0,2025-06-15T23:32:14.016Z,maquinaria
Gundel S.A.,,,San Martín 3750,+54 2284 42-2006,Olavarría,Provincia de Buenos Aires,-36.900513,-60.3154985,4.8,11,https://streetviewpixels-pa.googleapis.com/v1/thumbnail?panoid=r5phh6zzV2xqpIcM_9PE9Q&cb_client=search.gws-prod.gps&w=408&h=240&yaw=53.912117&pitch=0&thumbfov=100,1.0,8,2025-06-15T23:32:14.015Z,maquinaria
Imzama Potes SA,,http://www.imposa.com.ar/,Las Catalpas y Los Ciruelos,+54 2284 44-3996,Olavarría,Provincia de Buenos Aires,-36.8979873,-60.2806396,4.7,10,https://lh3.googleusercontent.com/gps-cs-s/AC9h4npc_PHP4jj78YuZ3yxcNP0ZBL1EWK8piNaPvyjPP0TbvHHhHXQ0EW426-eLJmK6bceZJv2cmG30EQea5NjTPuWKLX1f__dROqBINJwDE-9lAQnWoe4KH96reCVXab2MghoSFNlj=w408-h306-k-no,42.0,17,2025-06-15T23:32:14.015Z,maquinaria
Agro Repuestos Olavarría,Taller de maquinaria,https://agrorepuestosolavarria.com/,Av. del Valle 3750,+54 2284 42-0180,Olavarría,Provincia de Buenos Aires,-36.9044937,-60.3197094,5.0,13,https://lh3.googleusercontent.com/gps-cs-s/AC9h4nqjYzDeXfTdURl9KAQXzEYaWuKymRib4TqZbr1dEyM_-JlCfPcBE5tWUab3UxoMDn8VMj6yKXq5jwSzvKw33ZNUyAd50fECY5nyTbrpkCgCCg0eUsIrWl3Q0S7r_VeAmapaIRy12w=w408-h408-k-no,20.0,13,2025-06-15T23:32:14.016Z,maquinaria
Roca Plana,Tienda de ropa,http://www.rocaplana.com.ar/,Vicente López 3201,+54 2284 41-0648,Olavarría,Provincia de Buenos Aires,-36.890499,-60.319896,4.7,48,https://lh3.googleusercontent.com/p/AF1QipM9l2bkw9_QMuN-EuNxap4OCbG3-u8E9vM-LwlT=w408-h306-k-no,24.0,170,2025-06-15T23:32:14.048Z,tienda
Martínez Escalada S.A.,Proveedor de maquinaria de construcción,https://www.martinezescalada.com.ar/,Av. Pringles 3502,+54 2284 42-3574,Olavarría,Provincia de Buenos Aires,-36.8933341,-60.311126,4.1,6,https://lh3.googleusercontent.com/gps-cs-s/AC9h4nqk6tvMmYLymCsipGrTRu5TWaYJkmdSEkIlm8l6lyX68BTy3k5aPX9j7n1HYzE8xzUCxvBiXBt8V4U2Z17qJl1QmNOk05NWwh-jL0bOyRTOIOhvlI-gunF884SE2LXhlOUBd_pWPw=w408-h544-k-no,2.0,27,2025-06-15T23:32:14.015Z,maquinaria
Ticvo Sas,Proveedor de servicios de telecomunicaciones,http://ticvosas.com.ar/,Maipú 2679,+54 2284 44-3940,Olavarría,Provincia de Buenos Aires,-36.8897994,-60.3293947,5.0,3,https://streetviewpixels-pa.googleapis.com/v1/thumbnail?panoid=16pPzmxkDHXUntb-K3gFRg&cb_client=search.gws-prod.gps&w=408&h=240&yaw=307.95947&pitch=0&thumbfov=100,2.0,3,2025-06-15T23:31:29.855Z,tecnologia
Automatizacion Olavarria,,https://automatizacionolavarria.com/,Rivadavia 4648,+54 2284 42-7736,Olavarría,Provincia de Buenos Aires,-36.8815381,-60.3065836,4.4,9,https://lh3.googleusercontent.com/gps-cs-s/AC9h4npjViMc1of7WAhzQyIsObSZdtYP02Ic5GSvnE6lfP-Zo6Qc9mt_X9KisccM97BmM8KA1UuLSnoUOl7DP1IWzyNA15DrS-y2pMFMJt1RNWln6A9Ei4wJsXbcmR9gIfCXyMj6vSS6=w408-h306-k-no,4.0,5,2025-06-15T23:32:14.015Z,maquinaria
Sinoma Argentina SAU-OLAVARRIA,Agencia de alquiler de grúas,http://www.sinoma.com.cn/en/,RN226 km 301,,Olavarría,Provincia de Buenos Aires,-36.8566093,-60.3289254,4.5,5,https://lh3.googleusercontent.com/p/AF1QipP4LS_4QM_ex8PkmeE2Ak2Y-ETkPNMUIG8DSJqs=w408-h408-k-no,3.0,2,2025-06-15T23:32:14.015Z,maquinaria
Ciarpella Bienes Raices,Agencia inmobiliaria,,Moreno 3181,+54 2284 41-2402,Olavarría,Provincia de Buenos Aires,-36.8917993,-60.3185436,4.4,59,https://lh3.googleusercontent.com/p/AF1QipO1LPsn5iFTHjnvXFdB5cfKwvMQ3mq-zacdR7s=w408-h544-k-no,5.0,17,2025-06-15T23:32:13.568Z,venta
"Crediexpress - Dolar Ok, Olavarría",Agencia de préstamos,https://crediexpress.com.ar/,Dorrego N°2771,+54 2284 62-2285,Olavarría,Provincia de Buenos Aires,-36.8922336,-60.3208151,5.0,72,https://lh3.googleusercontent.com/p/AF1QipPGYJblCm24NO2g64Kg724ft7jV8PrJVwEbHsOC=w408-h408-k-no,20.0,102,2025-06-15T23:32:14.794Z,venta
"Nievas, Fabrica de Maquinas Agricolas",Fábrica de maquinaria agrícola,http://www.nievasargentina.com.ar/,"Ruta 226 y La Rioja, Parque Industrial Olavarria I",+54 2284 42-6829,Olavarría,Provincia de Buenos Aires,-36.8962,-60.281254,5.0,2,https://lh3.googleusercontent.com/gps-cs-s/AC9h4nob3oNoOo4KAlmaq7-sGRB8uWhnsLXkFdqDJEyOGq7nqvEhH0ZxYaqNJv8b3BxNojoFH6MG2MmzeJBJ8V5oWMkNA4TnuFW4D1IV6V9c6KrsmBpNuT0er11BhhxVRes7G7-Qegwr=w408-h408-k-no,5.0,1,2025-06-15T23:32:14.015Z,maquinaria
Paula Anaya Negocios Inmobiliarios,Agencia inmobiliaria,https://paulaanayanegociosinmobiliarios.com.ar/,Moreno 3142,+54 2983 51-1557,Olavarría,Provincia de Buenos Aires,-36.8924507,-60.3184855,5.0,60,https://lh3.googleusercontent.com/p/AF1QipOIY18TuIzamKk2NvAnGSCei2LbhxD-delnfcSP=w426-h240-k-no,44.0,3,2025-06-15T23:32:13.568Z,venta
Liste Propiedades,Agencia inmobiliaria,,Lavalle 2955,,Olavarría,Provincia de Buenos Aires,-36.8909144,-60.3235033,4.7,51,https://lh3.googleusercontent.com/gps-cs-s/AC9h4nrhKBxI8OgAo-1KJ9obHu9C3WxLwMvgdIuErejwONnoEZG4O_A7TG4JuOwJwIoDpeCgCIzWwwUr7WD2PNGyhPS2Ta1qxFJjO41buiZyRCzCVcHHOLi19CpASfvd4LtLVz0kun4=w408-h544-k-no,3.0,3,2025-06-15T23:32:13.568Z,venta
AXION energy,Gasolinera,https://www.axionenergy.com/,Rivadavia 5141,+54 2284 42-8571,Olavarría,Provincia de Buenos Aires,-36.878381,-60.3032433,4.4,56,https://lh3.googleusercontent.com/gps-cs-s/AC9h4nq8jZGv1uD9AR1-oBAc6-Zr2Y1wUvArjxBPh17AZxlm8xm4y41pYD3WqgkSTsq4lmJiJemrx-l20f4godL6AsWhNNiLmuIAC6Kudc4tyrhEYtsRWbkmKJmzOQJ1ryWOwmwrbkYt=w408-h240-k-no,43.0,306,2025-06-15T23:32:13.568Z,venta
Torre Nativa,Edificio de apartamentos,,Rivadavia 3359,,Olavarría,Provincia de Buenos Aires,-36.8900421,-60.3178298,1.8,48,https://streetviewpixels-pa.googleapis.com/v1/thumbnail?panoid=zHdXcD6WSPyhLywsnav3gA&cb_client=search.gws-prod.gps&w=408&h=240&yaw=333.6971&pitch=0&thumbfov=100,1.0,5,2025-06-15T23:32:13.568Z,venta
Sanitola S.A - Distribuidor mayorista y minorista en Sanitarios,Tienda de herramientas,https://www.facebook.com/sanitola.sa/,República del Líbano 2843,+54 2284 44-4180,Olavarría,Provincia de Buenos Aires,-36.8873781,-60.3134836,4.6,47,https://lh3.googleusercontent.com/p/AF1QipOuMiwm8a7uMjV5aUjxQEuTM7o44FRw7pOe0K7x=w426-h240-k-no,25.0,202,2025-06-15T23:32:13.568Z,venta
Pey Propiedades,Agencia inmobiliaria,https://www.facebook.com/PeyPropiedades,Vicente López 3236,+54 412438,Olavarría,Provincia de Buenos Aires,-36.890367,-60.3194502,3.3,45,https://streetviewpixels-pa.googleapis.com/v1/thumbnail?panoid=aEhYQbVA84Eme0va2HvpNg&cb_client=search.gws-prod.gps&w=408&h=240&yaw=141.01894&pitch=0&thumbfov=100,1.0,6,2025-06-15T23:32:13.568Z,venta
Inmobiliaria Notararigo de Juan Carlos Notararigo,Agencia inmobiliaria,http://notararigoweb.com.ar/,Av. del Valle 1520,+54 2284 42-5976,Olavarría,Provincia de Buenos Aires,-36.8891121,-60.3381844,3.0,54,https://streetviewpixels-pa.googleapis.com/v1/thumbnail?panoid=Ov_NcqZ75mAanPgTvbkFuA&cb_client=search.gws-prod.gps&w=408&h=240&yaw=85.090675&pitch=0&thumbfov=100,1.0,5,2025-06-15T23:32:13.568Z,venta
GNC olavarria,Gasolinera,,"4699,, Rocha Enecait 4613",,Olavarría,Provincia de Buenos Aires,-36.8910643,-60.287307,4.1,41,https://lh3.googleusercontent.com/gps-cs-s/AC9h4nr6_vK9i4nMHxEMra9JfsSgEtNVOJLbjKfvf09q1z0I3Q_5w2HpBcuFol-52xid5gAyBi7IRgFJxpXcDrPXW-imRcQBeKloP27vV1AYbcoLYcm9e245th0Tbmc2SkjmHIyzV_g=w408-h544-k-no,37.0,676,2025-06-15T23:32:13.567Z,venta
Perera Propiedades,Agencia inmobiliaria,https://pererapropiedades.com/,Av. Ituzaingó 2756,+54 2284 68-5200,Olavarría,Provincia de Buenos Aires,-36.8861337,-60.3325752,,50,https://lh3.googleusercontent.com/p/AF1QipN92wlOpT9_pBlUzXQJqp8ToFk-ShpCIDYkJEQR=w408-h306-k-no,10.0,0,2025-06-15T23:32:13.568Z,venta
Hofu tienda,Tienda de accesorios de moda,,3163 Calle 106,,Olavarría,Provincia de Buenos Aires,-36.8799994,-60.2988626,,39,https://lh3.googleusercontent.com/p/AF1QipNwBOXkJfRjKfgk_xBXtfSk0bWC9luZdRSjfSwG=w408-h725-k-no,5.0,0,2025-06-15T23:32:12.903Z,tienda
Tiendas Tere,Tienda de ropa,,Dorrego 2624,+54 2284 73-1780,Olavarría,Provincia de Buenos Aires,-36.891445,-60.322267,3.5,38,https://lh3.googleusercontent.com/gps-cs-s/AC9h4nq-tIKdNSIiPNFFTXhrsanNy9MI3aybZsAollsBJqcb69cSBcjHuNX9RNC14G9yt1IE3rp-a-Knojiq-F2Glg01UWmoi9PtjM7TRw7LeVrK83WUENPDMR149MXydtM5HKGLtGhqjg=w506-h240-k-no,31.0,2,2025-06-15T23:32:12.903Z,tienda
El Secreto Tienda de Vinos,Tienda de vinos,http://instagram.com/elsecretotiendadevinos,Alsina 3299,+54 2284 41-0401,Olavarría,Provincia de Buenos Aires,-36.8892011,-60.3200191,4.6,37,https://lh3.googleusercontent.com/gps-cs-s/AC9h4nrcX4EFN_vfE-mW6U7kNV6r2rxJsqq_FDvj_VOflwSenVWHWrIZB__zCKWOdiQBs0nX2V872OZ7o8AE_ojsof2j4_t0p6cdHFVNDOzgWz1Dj1eZdws-4h6zQTXs6w-Vguswft1-2g=w408-h306-k-no,102.0,144,2025-06-15T23:32:12.903Z,tienda
Maquinarias Platino,Proveedor de equipos para fábricas,http://www.platinomaquinarias.com.ar/,Au L. Fortabat 6399,+54 2284 72-7245,Olavarría,Provincia de Buenos Aires,-36.9214054,-60.297651,5.0,3,https://lh3.googleusercontent.com/p/AF1QipNnHLm7HyxfIcZkO3cvN90sMcBmzsOOPoILHkYP=w425-h240-k-no,33.0,10,2025-06-15T23:32:14.015Z,maquinaria
Stagoros.veg • Alimento Artesanal,Tienda de delicatessen,https://www.instagram.com/stagoros.veg?utm_source=ig_web_button_share_sheet&igsh=ZDNlZDc0MzIxNw==,Zona Pueblo Nuevo Zona Racing Atletic Club,+54 2284 20-0047,Olavarría,Provincia de Buenos Aires,-36.882949,-60.3260263,5.0,36,https://lh3.googleusercontent.com/p/AF1QipNGfoTTbjlksXOhy6lzXImjpSW6R5sUO2Riezir=w408-h726-k-no,33.0,11,2025-06-15T23:32:12.903Z,tienda
SAYA,Tienda de ropa,http://www.facebook.com/sayaolavarria,rivadavia y juanxxIII loca1 walmart,+54 2284 41-0520,Olavarría,Provincia de Buenos Aires,-36.8804756,-60.3044289,3.6,33,https://lh3.googleusercontent.com/gps-cs-s/AC9h4npQ16LdPWtaqKylyy6LL7vO4812VAwWJbV74VNSsV-bIgV02fuMj3AB8Sf7yKT3vdUaYy9XgdLrm03Pgy4qblndyD5gJD5dV1MVxm6aq1CuM1K7E9_R7RuSQv457pocyB3cPgY8=w408-h408-k-no,18.0,9,2025-06-15T23:32:12.903Z,tienda
Tienda El Horneto,Tienda de alimentación,,España 3781,,Olavarría,Provincia de Buenos Aires,-36.8892093,-60.3116876,,30,https://streetviewpixels-pa.googleapis.com/v1/thumbnail?panoid=6vbfuhVBG-XnkoJvSPQTeA&cb_client=search.gws-prod.gps&w=408&h=240&yaw=321.83984&pitch=0&thumbfov=100,1.0,0,2025-06-15T23:32:12.903Z,tienda
J C - Tienda de ropa,Tienda de ropa,https://www.facebook.com/pg/JC-104014204313449/shop/?ref=page_internal,Vicente López 3333,+54 2284 45-4104,Olavarría,Provincia de Buenos Aires,-36.8895502,-60.3189101,3.5,29,https://lh3.googleusercontent.com/gps-cs-s/AC9h4npuLKGM8f1f65fHOXpEKj378Zoe7HWeG8L2ediu_Nk3-m-lvs3DaUAnCFPcMfEQ1jT8DnclVdWlSJBPgrH9aZvPhlWwL5ku-FZumYe3ofQDHRRLVd4-0PEUaklJK_k6E_wX-YD0=w408-h306-k-no,9.0,2,2025-06-15T23:32:12.903Z,tienda
Famularo,Tienda de ropa,https://m.facebook.com/pages/FAMULARO-SA/159162330949584,Rivadavia 3024,+54 2284 42-4431,Olavarría,Provincia de Buenos Aires,-36.892554,-60.3203452,4.1,27,https://lh3.googleusercontent.com/gps-cs-s/AC9h4nphy3Kp8YMLZ9y-f4xFdnY_wUVCVZmfkZX6bVQloXBDeWKndos9P2rsGDm8aLw2OyMcNunbW8DkgfY47A7BXLJIhmlyJYSyabFM1fxye53jvD7vgjkg_bUTh9TnXTKazYGkBiW8uw=w408-h306-k-no,8.0,403,2025-06-15T23:32:12.903Z,tienda
Matafuegos Messineo,Servicio de seguridad contra incendios,https://www.guia-dorada.com.ar/guia/aviso-messineo-recarga-y-venta-de-matafuegos-en-olavarria-buenos-aires-21220.html,Av. Ituzaingó 3145,+54 2284 41-2577,Olavarría,Provincia de Buenos Aires,-36.883394,-60.329655,4.6,42,https://lh3.googleusercontent.com/p/AF1QipNYouy3bbv9l3HJIm1HHRz8V-2JcZpJlrORYtT5=w408-h306-k-no,119.0,45,2025-06-15T23:32:13.568Z,venta
La Casa de Cristina,Tienda de lana,https://www.facebook.com/profile.php?id=100011328912061,Necochea 2745,+54 2284 41-2422,Olavarría,Provincia de Buenos Aires,-36.8913585,-60.3203013,4.6,39,https://lh3.googleusercontent.com/p/AF1QipNzZhyQCI3GnLYgH6LromkzIjmKw0qNc3gaCijP=w408-h272-k-no,10.0,7,2025-06-15T23:32:12.413Z,venta
Barrio Jardín - Monoblock 14,Edificio de apartamentos,,Av. de los Trabajadores 3799-3899,,Olavarría,Provincia de Buenos Aires,-36.8890704,-60.2986467,4.5,38,https://streetviewpixels-pa.googleapis.com/v1/thumbnail?panoid=B2m_t1FZUBK9ZaXgc4wANg&cb_client=search.gws-prod.gps&w=408&h=240&yaw=229.67383&pitch=0&thumbfov=100,3.0,2,2025-06-15T23:32:12.413Z,venta
Sabor Argentino,Quesería,https://deliveryolavarria.com/tienda/sabor-argentino/,Alsina 2987,+54 2284 41-2500,COO,Provincia de Buenos Aires,-36.8911418,-60.3225113,4.8,23,https://lh3.googleusercontent.com/gps-proxy/ALd4DhHQCZCX22kfJna6a0P-MFZGzDLhkkJKDhKv2Zc6RXZ7ZQeJjEhSW1JSBLlWoEyeZmYQxQkBA3Lf7u9S8PaB1_NaDdzuX9OkWeXgAfyG79ufSVuUDNLNWN4GkjVXJFzYZ89ign8dNKkeqa0dVXhX48aPhNaS130bC5xT6dvF2-wGhcqiBZTIdwgZjEb8WyIDf0xQxGo=w408-h306-k-no,3.0,10,2025-06-15T23:32:12.903Z,tienda
Luciano Paz Negocios Inmobiliarios,Agencia inmobiliaria,,Riobamba 2877,+54 2284 64-5686,Olavarría,Provincia de Buenos Aires,-36.8898948,-60.3260466,4.0,37,https://streetviewpixels-pa.googleapis.com/v1/thumbnail?panoid=qWEyUBtYzokRSgEVFbY5LQ&cb_client=search.gws-prod.gps&w=408&h=240&yaw=311.52823&pitch=0&thumbfov=100,1.0,1,2025-06-15T23:32:12.413Z,venta
Maderera Misiones,Establecimiento de venta de madera,,Rivadavia 4670&nbsp,+54 2284 44-2088,Olavarría,Provincia de Buenos Aires,-36.8814942,-60.3065134,4.6,35,https://lh3.googleusercontent.com/gps-proxy/ALd4DhGD_Vgi3u1T1bGM344Cru7FAoIKYK_Oj_A1c0TlwTOoK2R0DOQBg2sj4dx4zihfgE-xigDqEdZV3HDRh4ESSqXrL0ZZXaICmu7fhXVE8C-R4uLvETG1LAmFe1IfFyt8QZanFuh-HdEgeSJcae64XBOLSHw7Be3u-VbHLJYJD7i37mG-FhzECrDoCdHxrxGigGY9_Q=w408-h306-k-no,9.0,109,2025-06-15T23:32:12.413Z,venta
"""La Casiana Olavarria""",Tienda de productos lácteos,http://www.lacasiana.com/,Av. Colón 2498,+54 2284 67-1534,Olavarría,Provincia de Buenos Aires,-36.8879252,-60.3201289,4.6,40,https://lh3.googleusercontent.com/gps-proxy/ALd4DhHEYt_T3tvcVg1CLeaoDvIgzfSlJwdCjfqtd9Yw8DLKGeNGUSQMt317eRcEE2hs9ObMy0gJC9-ck8bwrfGpSSQYeCZXUJZ2rKV2d28IDFTaY27pM0bI4HvY0YF8QVZza2lH5LCSDxdZ6u7NprAxlmqZbXCR87NuOJgHTtKNmQft--ZYWfvhBwjidTcZh_ewbX1T_ew=w408-h306-k-no,10.0,172,2025-06-15T23:32:12.903Z,tienda
Llorente & Paz Inmobiliaria,Agencia inmobiliaria,https://llorentepazinmobiliaria.com/,Riobamba 2877,+54 9 2284 58-4666,Olavarría,Provincia de Buenos Aires,-36.8898948,-60.3260466,3.8,43,https://lh3.googleusercontent.com/p/AF1QipMxXLae7SSvvkwgSffD4DieOB25EWvZa3wnQZ4m=w408-h306-k-no,5.0,9,2025-06-15T23:32:13.568Z,venta
Telas en Pueblo Nuevo,Tienda de telas,,Necochea 2087,,Olavarría,Provincia de Buenos Aires,-36.8868868,-60.3257375,4.3,15,https://lh3.googleusercontent.com/gps-cs-s/AC9h4npLR0KHCCwTdslvfivxdnWpjoit8KA6V-4ZDzCVwwOXBvdKSwietBYTOTiNxI1DHdiRzPzJNo2LyTsxqZqc5pk-P4hlV1-7JlWlf2L4TziZlNz2X_rd9lFpotjPU5jtCimP7lh1=w426-h240-k-no,5.0,38,2025-06-15T23:32:12.266Z,venta online
Naldo - Olavarría,Tienda de electrodomésticos,https://www.naldo.com.ar/,Vicente López 3023,+54 2284 42-2366,Olavarría,Provincia de Buenos Aires,-36.8915663,-60.321369,4.3,34,https://lh3.googleusercontent.com/gps-cs-s/AC9h4nqcWTnFNr6V8NFQhKrz-yQBdOXoip3M5eLI-FHNmT9793IqPLEQygnGa3XhrrGce84XIamu_gRJpPJAAL9PfeyYuGUEQi7bCOfpcgXFZ_8nzqoabOs0Mu0LpmL5zv0ky2Oe1QNbkg=w408-h725-k-no,52.0,330,2025-06-15T23:32:12.413Z,venta
Track Mar SACI,Proveedor de maquinaria de construcción,http://www.trackmar.com.ar/,Av. del Valle 3335,+54 2284 50-4407,B7400JWP,Provincia de Buenos Aires,-36.9011835,-60.3228008,5.0,8,https://lh3.googleusercontent.com/gps-cs-s/AC9h4nrzUqCOveJOFJQrqt98cyKAV_I_o2sFZQqzhqjUagioh1O03RS-tCjA8LE-tZ8ntf8qg5WOLd3b6a36ubymSKo5d9DO-ohA0gd6Wa9BbzAnStkZh4VuZ5VLRRNRLTdBS0GjDM7oMg=w408-h306-k-no,3.0,4,2025-06-15T23:32:14.015Z,maquinaria
MaxiCell,Tienda de móviles,https://maxicellolavarria.empretienda.com.ar/,Rivadavia 3119,+54 2284 41-7695,Olavarría,Provincia de Buenos Aires,-36.8915875,-60.3197939,4.4,14,https://lh3.googleusercontent.com/gps-cs-s/AC9h4noSH-xCf2Mk7Aayi_CV8s3SpNqeQgxAQhb9gmUL8OUnLm9u_yPQ2W7rb9qTMj7jv4WIbDBHPwg7sibWT7PPBNNkBhAgddYUWBQ-1qT4tB7ut9NPliAdmR1-4P53wCtv9vYCOiIA=w408-h544-k-no,3.0,61,2025-06-15T23:32:12.266Z,venta online
Textil Rivadavia,Tienda de telas,,Rivadavia 3042,,Olavarría,Provincia de Buenos Aires,-36.8923628,-60.3201831,3.9,11,https://lh3.googleusercontent.com/gps-cs-s/AC9h4npebG-oqylf0nGzrFphhpXRRWF7ZhTVjxgpibkDxRGaihzKKmER20DvJA8lvkKXU2sH4dzOQKDxt5Idbw-hhX2Pcko6mvMtwDiMladSB_HGOqUvMGaxZ_ovV_bBsf73sODVxohRtg=w408-h306-k-no,7.0,7,2025-06-15T23:32:12.265Z,venta online
Anita Fernández,Tienda de ropa,,Necochea 3262,+54 2284 20-2364,Olavarría,Provincia de Buenos Aires,-36.8949974,-60.3161222,4.8,10,https://lh3.googleusercontent.com/gps-cs-s/AC9h4nqarYMZ_jUlS8aBegbKbxESm1iqbVGeh1xb-xxU-IwwST8j-uEqJ00WCDUM7D6q28xQXi4KwfW1wdjEDH7Rb3FrwIKz2vQ1qvWpiUXLRgrzAWI5m0pc_gMeEFGgWMuwallQBz0=w408-h345-k-no,35.0,15,2025-06-15T23:32:12.265Z,venta online
Todo Cuotas S.A.,Tienda de electrónica,,Lamadrid 2231,+54 2284 42-8105,CZY,Provincia de Buenos Aires,-36.898768,-60.3255093,4.6,9,https://lh3.googleusercontent.com/gps-proxy/ALd4DhHX_0BlnH6roqiyXFh4eY4wnjXoizjcjqwRMaRpxxDC7wa-btrF81LBEwD8WJUXlr16p89y-lRZNq4tlgFHDnEZo0wqUO6UQs9y4sN3quMF8Y59tG1AwSnyQrNv_O8QCpmzn6M6P_iZHpc8XHT2M4-BoRPyMahsqD3VXGR4QH_zm7k6AJO_sJrMz_1qp0hV1ZBbbkk=w408-h306-k-no,4.0,9,2025-06-15T23:32:12.265Z,venta online
Tecnocentro Group,Tienda de móviles,https://www.instagram.com/tecnocentrogroup/?hl=es-la,Rivadavia 3065,+54 2284 69-6949,Olavarría,Provincia de Buenos Aires,-36.8920088,-60.3203189,4.7,7,https://lh3.googleusercontent.com/p/AF1QipOCdLiOyNfQB58LCXjdTsNRyDE-whKRZub93GLw=w533-h240-k-no,21.0,26,2025-06-15T23:32:12.265Z,venta online
Duwen Maipu,Mercería,,Maipú 3144,+54 2284 41-5750,Olavarría,Provincia de Buenos Aires,-36.8868949,-60.3251985,4.8,2,https://lh3.googleusercontent.com/p/AF1QipPi0T2UmQoNS0NGIpnBcnpDcgC9fujkJy-TKDrz=w408-h406-k-no,15.0,6,2025-06-15T23:32:12.265Z,venta online
Telemundo,Tienda de móviles,,Necochea 2893,+54 2284 41-7777,Olavarría,Provincia de Buenos Aires,-36.892333,-60.319047,4.5,1,https://lh3.googleusercontent.com/gps-cs-s/AC9h4nriEdeoxjHNDCiRW6FHlRJhUP0P5Qufbja5I61FOsO_Nz4kXyL-UzNQQwN3ArvgGVz9rtkhzC_jKELLEUth1uGt75miS9AngAP2xsu6aXDjD1k-oaI0TbIeg3ZsS28Q9ImtKhc=w408-h544-k-no,3.0,20,2025-06-15T23:32:12.264Z,venta online
"Autoservicio ""Lo de Rodo""",Tienda de alimentación,,Av. Domingo Faustino Sarmiento 3992,,Olavarría,Provincia de Buenos Aires,-36.8937988,-60.302675,3.0,20,https://lh3.googleusercontent.com/gps-cs-s/AC9h4noEou76KgW9lwTZ6vu3_74mXpPyjtDsQvqDjxnsWeOUz526NCa5d-Xe9HysrLsPSseT602ZOv_Ee7GDA9tayQ1auVLoUuylGC_Kh--h8CGnFV_g3aH0YyQ0xFx8cquKDzNvxGUrHw=w408-h337-k-no,2.0,1,2025-06-15T23:32:11.548Z,tienda
Kiosko y Almacén Díaz Rosana,Tienda de alimentación,,"Club Atlético Pueblo Nuevo, Maipú 3198",+54 9 2284 21-8567,Olavarría,Provincia de Buenos Aires,-36.886627,-60.324885,5.0,19,https://lh3.googleusercontent.com/gps-proxy/ALd4DhGEPliq62MAkUjb13uy9g5LHIv8C4LSvsynd-fLRB6wgX12bIkc1lhm3DCLODtaf4XcVV1Ik2ORSPIknqN0OLUuc8qa6h7lmA3E1slA6HiEwCVGj_TezxxgumosYBEGx57MEcGxB6GYqp_M0mAI19H2VMI1BqUzzz2WEuFV2m1xtMGlS3VaJGWp3W6rQkvPyUKw-a0=w408-h306-k-no,2.0,3,2025-06-15T23:32:11.548Z,tienda
"Super Kiosko ""Dante""",Tienda de golosinas,,Cnel. Suárez 2301,+54 223 454-8755,Gran Buenos Aires,Provincia de Buenos Aires,-36.8917323,-60.3280939,5.0,17,https://lh3.googleusercontent.com/gps-proxy/ALd4DhFfjr212Su720tEAwHHU_8BBVWo6EKlhEFv9ZvRMdaWJu77FWrudi3qkeJMWxlvdoA3YhkJkxeO4AflmI_cPhMtMvLcDUvPnP0MSp6ayIK-64G8of5utiq6ih76mU4T7926Py56YeH1VEj04MzhC0HHUmbET1aJ_Or8I-8YOCl2fM9HNp9AQbdgzm1wUm2pDnCA_FQ=w408-h306-k-no,3.0,1,2025-06-15T23:32:11.548Z,tienda
Maxi Kiosco New City,Tienda de alimentación,,España 3801,+54 2284 67-5079,DFE,Provincia de Buenos Aires,-36.8901795,-60.3142645,4.0,16,https://lh3.googleusercontent.com/gps-proxy/ALd4DhGTTR6RjfQHIwpd4jKfBvSHngD8R2WL34CFnKpHXpIYZsPgnQj5bgI-tMI7K8-uy3pekAlZTtqPrm1l7tbMBZVmQj6KriafoN3F8RAoS0WJl4jnMsCu9dY_ekdG5BMmqKXf2CACYHM-QLtsXv5zZtnJZIiuycJ3YJA1-MU-zdBQoe_ekRT4Grn8oTvEZfJKN7Gmjeg=w408-h306-k-no,4.0,1,2025-06-15T23:32:11.548Z,tienda
Minimercado Cristian,Tienda de alimentación,,España 3598,,Olavarría,Provincia de Buenos Aires,-36.8906132,-60.3131532,4.7,15,https://lh3.googleusercontent.com/gps-proxy/ALd4DhH3gIWNLU3-JS8heymRToYUyVSu21cfs91Bjjdgs4CDOb1TV5XU_2ROPXgF5rc-ORtVhZkpln0D2C8tS8a79gvAXfdfC4adGRpBGiGVwB2FxQ7Vl2EEmS5no_y5ZQEOM1LfFje5ZzZzN0kObLq8y8WVdFgB_XqoRnhb339gMvFDUJJ37tVDmr0IS7p9_kJHK3vi0w=w408-h306-k-no,5.0,3,2025-06-15T23:32:11.548Z,tienda
Katrina,Supermercado,,Av. Alberdi,+54 2284 57-5415,Olavarría,Provincia de Buenos Aires,-36.8796149,-60.335099,5.0,14,https://lh3.googleusercontent.com/gps-proxy/ALd4DhHYmb2QXdv44I1fR79y_KVOstWTahxODOKbxwjmYCGfxnWKjRHGP75LW6u8MFE-neEZUZpPFgnJrZpyHpz-pSWIc5zwvt3JNqTyP3RM39SB30MayYKFARMa8CvdxOg6y-yAVDX5OTZScDhtaz8xx0BMCfRUnhICM118Ur398KUJcJbySUzQvj-SUP7sbNbDrRX_BpQ=w408-h306-k-no,2.0,2,2025-06-15T23:32:11.548Z,tienda
Despensa Pina,Tienda de alimentación,,Grimaldi 1745,+54 2284 42-0512,Gran Buenos Aires,Provincia de Buenos Aires,-36.875949,-60.3174794,,13,https://lh3.googleusercontent.com/gps-proxy/ALd4DhEDjyC5G2Cl_nhArbYY6CVmMaLvwxDabxLeWU0zIE3WTxjI4oGzw5cEqz_2BJ_M0DwkG_8U_6F7ZvpTn9ei5DmUuHNw3ujG7pVgSE_BHwo7N4DaYLLyMnKsBdPyI4Y4hsyXT495tY82ZxiLkAtm5xZscHv9SANOiKVv2zVaXC8fatGiBmsdaZQDaIRKcsRhJwNEK7Q=w408-h306-k-no,4.0,0,2025-06-15T23:32:11.548Z,tienda
Kiosco Reyes,Tienda de alimentación,,Av. Colón 1758,+54 220 944-0894,Olavarría,Provincia de Buenos Aires,-36.882994,-60.3261593,5.0,12,https://lh3.googleusercontent.com/gps-proxy/ALd4DhH5FwtI6hFW2L3BFRPE_hVr2Y7HO5cBtRUop_KeIVFDJW_o-4caa70mQiTlsAHWTCO213dxqPmL3X60QCufZ8vAm_mjCRiwHUdywfSSPgpZLiPMWZGSh3UpqS1pPkYrm7prQ1yiIj8fY7hs6zmcYD9M2f7AIYd_ryuDgmFODfTDJMkUX3FayRVPKARlo_tr0wSEAas=w408-h306-k-no,6.0,2,2025-06-15T23:32:11.548Z,tienda
Mercadito Adrian,Tienda de alimentación,,Av. Alberdi,+54 2284 68-9321,Olavarría,Provincia de Buenos Aires,-36.8783122,-60.333403,5.0,11,https://lh3.googleusercontent.com/gps-proxy/ALd4DhFUa2Ti4XY7Qqd711S-dAX8HDEUvFf_8voCHooLKb8WFhoS1BAr72oMK4FqpSGNMnmHteUGCBBCGN-I-T4WhOJWwxwp2-1O3wfRtfX5_X_-ln-qpn8dDVGnIgBeZI4eG-z6w8Oyhyf6HNezek1-ggtGqrkyFy6Uh52jZ0aq2YTv7cudL9lflC1F_HRMalnl-lSjmYI=w408-h306-k-no,3.0,1,2025-06-15T23:32:11.548Z,tienda
"Minimercado ""Lo de Sosita""",Almacén,,Cerrito 4115,+54 2284 30-0138,Olavarría,Provincia de Buenos Aires,-36.8807725,-60.316336,4.3,10,https://lh3.googleusercontent.com/gps-cs-s/AC9h4nqT6FsPO26NGjx2R7x6BUFGLHuABx7oZurnsz5AR6givQdUlNIEFoQk419R4oMW2i-WrBr23CD5iMHd27kO-6Pb0WHFon-x69uUvqcwCV7L7KlXaucl85y_pwbAzBwOeljnDaEw=w408-h306-k-no,10.0,3,2025-06-15T23:32:11.548Z,tienda
Vieira Daniel G,Tienda de alimentación,,Suárez 2113,+54 2284 42-7370,Olavarría,Provincia de Buenos Aires,-36.8839989,-60.3089981,,9,https://streetviewpixels-pa.googleapis.com/v1/thumbnail?panoid=TITP7iRT3SqtSKelRwcWfw&cb_client=search.gws-prod.gps&w=408&h=240&yaw=49.02158&pitch=0&thumbfov=100,1.0,0,2025-06-15T23:32:11.548Z,tienda
Kiosco Enzo,Kiosco,,"KWD Olavarría AR, Belgrano 2268",+54 2284 41-0045,Olavarría,Provincia de Buenos Aires,-36.8896123,-60.3261484,4.1,8,https://lh3.googleusercontent.com/p/AF1QipN6vo7r4j0zkAmbfWw8w1MDX64Ehea3DzrCwEiG=w426-h240-k-no,16.0,9,2025-06-15T23:32:11.548Z,tienda
La Mona Lisa,Kiosco,,Belgrano 2438,+54 2284 60-5222,Olavarría,Provincia de Buenos Aires,-36.8908913,-60.3245889,,7,https://lh3.googleusercontent.com/gps-proxy/ALd4DhEvqa86RmpB854FYBoU1odDdyqANcUUDD8QogCWaM9DXKB45zOG0Oo7PlCmqS8GGgCrKf6HxvN4lc7YijXWUeXk7PjyX1PHmCGDL0ip6sYjNqM9ReZNlYQsQ_YO38OvpNoDEesomvOEQRxQ95SSiyWEt7kOEZdeEDEUMJwbSZXBVySNpk_q7t8P5KgJW2W7Kua0HwQ=w408-h306-k-no,2.0,0,2025-06-15T23:32:11.548Z,tienda
Maxikiosko Lavalle,Tienda de alimentación,,Lavalle 2715,+54 2284 41-5660,Olavarría,Provincia de Buenos Aires,-36.8922178,-60.3255492,,6,https://lh3.googleusercontent.com/gps-proxy/ALd4DhGyoDyrc1503tONmP3gAeQDyrbXOtlyZ2y_Lkf2ICsZ6XtCiPGOn0jO2ERf7dhGrUk-SzBZK1RotOFAqo8_nTcCJhL2Lom_c-dYs3P5e6111fwBstC8sS22fVbJLqtHlYh1v_LtY5emkz46vPjhdBi1RMJVnkAh5SCnW62oUS_FzHuspiSvKMfggu8WOeYNdwy2ccY=w408-h306-k-no,5.0,0,2025-06-15T23:32:11.548Z,tienda
"Mini Shoping ""Graciela""",Tienda de alimentación,,Belgrano 1866,+54 2284 41-5399,Gran Buenos Aires,Provincia de Buenos Aires,-36.8869101,-60.329398,5.0,5,https://lh3.googleusercontent.com/gps-proxy/ALd4DhFKk4d7m_ny-iZoFKDMx6FMysmC9J2CV3KUUDcd2psxiZ3Wo_gBmGVgN-U1uWWFQlLJ0JAjUeHhBTi3sS_P9Wp85Ue1n1QavIZK1Mo1VHhaeu6pKrpL82y-h9HdRkQ8nfwmQNIWhp9bus4FLol_lgKy3aiPQ48knrx809ModMN-PEs8qgt2Fa61c1g6shDHOVDcvCE=w408-h306-k-no,5.0,1,2025-06-15T23:32:11.548Z,tienda
Kiosco Richard 2,Quiosco,,Av. Domingo Faustino Sarmiento 2998,+54 2284 42-4100,Olavarría,Provincia de Buenos Aires,-36.8871241,-60.310856,4.5,4,https://lh3.googleusercontent.com/gps-proxy/ALd4DhFNHOd3ifi83Qtjtd_9ams7ojmkGfxy9gYG8InWjdqzifImsLTVVIeUkCJ5XNiPYF4w-Mb7FOwOXJvu6T82o34qKZ7bhXfq9C4VyyTf8jOTHz9BnKD2rbDKvBbDfs4vyAR9ZAuKjz9RaPdJ6QqhzqeONH-9xHBsi_MHsvktjjnsSIW_wfQEUUoZq-Zozz3UvjNR2g=w408-h306-k-no,4.0,2,2025-06-15T23:32:11.548Z,tienda
La Vía,Tienda de alimentación,,Av. Domingo Faustino Sarmiento 3494,,Olavarría,Provincia de Buenos Aires,-36.8905259,-60.3067101,3.0,3,https://lh3.googleusercontent.com/gps-cs-s/AC9h4noCVhcgP4Id5IE9XYE3Jy55EbgEVZjlqRMy5jU-_YuCkhjg6UfWN3lBKe42NFmYR03JhMimESnnblQblYsqnqwTtcN9fOjXs3cTk-655SOjkAF9Pt7ZTCaMNU8tlWA9dhygo1ng=w408-h306-k-no,3.0,2,2025-06-15T23:32:11.548Z,tienda
Egno Shop,Tienda de alimentación,http://www.facebook.com/egnoshop,Av. Colón,+54 9 2284 60-9993,Gran Buenos Aires,Provincia de Buenos Aires,-36.8875141,-60.3206474,5.0,2,https://lh3.googleusercontent.com/gps-proxy/ALd4DhFOaKL5zpnSEJjzPKIlyZgb0f0pI9Ue1TlWt0RA1OKkbfiSwP1SGU3O7oE62ueHcyWBf8ucnUVtl-Kf542l6Sc8777C8TFHiJwHoOVP9cI4xIw4XyaoG4R3-dgQFdVuwV6O8VAaUM0pVC7lJ1UU3YrIzbhwQKfE4Sv7LpEEkDpVHvLpvlb9TZCp3lz5FpwYnJxHFpQ=w408-h306-k-no,4.0,1,2025-06-15T23:32:11.548Z,tienda
Casa Gustavo,Tienda de alimentación,,España 3661,+54 2284 44-0938,Olavarría,Provincia de Buenos Aires,-36.8899815,-60.3127881,4.5,1,https://lh3.googleusercontent.com/gps-proxy/ALd4DhEt5J3ux7smm0SIbx_o-oBNokbSNnw_mPfNWoPMaj13fBlJAaEAVoQkBhIqdAnv5CE7nSsbZQI-N7SiEbRm9CkrQQfMHh2s4wxKimlciiWSe0jlw43PF-EMjSdA6_tVZHEbVJ5p8NnQp9Vh1t2jadURgvSw713kQ1GFr96gAaB_hS5-CiySzC_VgRieIDaX2VZV1A=w408-h306-k-no,3.0,2,2025-06-15T23:32:11.547Z,tienda
The Beer Point,Cervecería artesanal,https://instagram.com/thebeerpoint.olav,Vélez Sarsfield 2793,,Olavarría,Provincia de Buenos Aires,-36.8968733,-60.3265079,5.0,20,https://lh3.googleusercontent.com/gps-cs-s/AC9h4nrO7752OqnPSBGS4PVLjqZZjH2ZOgSLIwkiF1EHX9Fi_UPrNCkYcf8ogaQW6r-XWMJTqiHJT1-mS32as3DT4RaKt5qQMgCIT7TLP9rAVi6SAjIgjB5l72EI86NeD0QyGXedRmpSoA=w408-h544-k-no,10.0,15,2025-06-15T23:32:11.107Z,venta
Golomania Mayorista,Mayorista de confitería,https://m.facebook.com/mayoristaintegra/?locale2=es_LA,Lavalle 3128,+54 2284 43-0061,Olavarría,Provincia de Buenos Aires,-36.8896984,-60.3219887,4.7,19,https://streetviewpixels-pa.googleapis.com/v1/thumbnail?panoid=ZrcAg2vtWPR1oCYFZOSstg&cb_client=search.gws-prod.gps&w=408&h=240&yaw=138.88728&pitch=0&thumbfov=100,1.0,13,2025-06-15T23:32:11.107Z,venta
Corso Propiedades,Agencia inmobiliaria,,Sgto. Cabral 2618,+54 2284 43-0372,Olavarría,Provincia de Buenos Aires,-36.8900666,-60.3205786,4.8,18,https://streetviewpixels-pa.googleapis.com/v1/thumbnail?panoid=SCabrcYWLCA8oiW_kxYX4Q&cb_client=search.gws-prod.gps&w=408&h=240&yaw=250.40758&pitch=0&thumbfov=100,1.0,5,2025-06-15T23:32:11.107Z,venta
Messineo Maderas,Carpintero,,Independencia 2780,+54 2284 41-2945,Olavarría,Provincia de Buenos Aires,-36.8880205,-60.3299529,4.5,17,https://lh3.googleusercontent.com/gps-cs-s/AC9h4nrZfWJuPQk7J5j18ImKOm_CBN9bE_pQhW4h01yQrP6Xoyi6eJaYN2YsUabowH4HQM0KBZT36wM6TZuUWPi3wG69IGpTiHqSklN9NkO5B-PfhaQNtonQZOgUVCLaj5lFJj1Osc5r=w426-h240-k-no,23.0,231,2025-06-15T23:32:11.107Z,venta
Hilos y Regalos,Mercería,https://tiendadehilosymas.com.ar/,Av. Domingo Faustino Sarmiento 1455,,Olavarría,Provincia de Buenos Aires,-36.8767843,-60.3235459,4.7,12,https://lh3.googleusercontent.com/p/AF1QipPsmEE0lTc7ekI13pZcferhZJAfZeeN41N_yyOH=w408-h544-k-no,119.0,43,2025-06-15T23:32:12.265Z,venta online
Puma Olavarría,Gasolinera,https://www.instagram.com/puma_olavarria,Av. de los Trabajadores,+54 2284 56-7374,Olavarría,Provincia de Buenos Aires,-36.885843,-60.301812,4.3,15,https://lh3.googleusercontent.com/p/AF1QipNoEJh4pPSZGoVVCy6MPD1UCKkV4u3GrJV6xwW2=w426-h240-k-no,27.0,132,2025-06-15T23:32:11.106Z,venta
Tienda de Telas,Tienda de telas,,Necochea 2874,,B7400LCX,Provincia de Buenos Aires,-36.8923438,-60.3194165,3.8,14,https://streetviewpixels-pa.googleapis.com/v1/thumbnail?panoid=Xb1lTWu3avdeGCtfaQjZCA&cb_client=search.gws-prod.gps&w=408&h=240&yaw=226.80994&pitch=0&thumbfov=100,1.0,5,2025-06-15T23:32:11.106Z,venta
Lebrero Propiedades,Agencia inmobiliaria,,Lavalle 2601,+54 2284 69-9361,Olavarría,Provincia de Buenos Aires,-36.8929226,-60.3264724,5.0,13,https://lh3.googleusercontent.com/gps-cs-s/AC9h4nqeoMR25BZ5bTvJfb5pdB8Ke3emAZji_pWZvOXWKBFiK4bC6oyOwShNoxWBua3sIs65og81TTmAgdbEi1pSlN81O21N7A7vyfxh1Y8Cvt1iEtBqnuFRBdqttSc8rYJBmZrqLZPq=w408-h472-k-no,4.0,2,2025-06-15T23:32:11.106Z,venta
Pesca y Camping el Barba,Tienda de artículos de camping,https://www.facebook.com/Pesca-El-Barba-279981982178451/,Dorrego 795,+54 9 2284 22-5219,Olavarría,Provincia de Buenos Aires,-36.8786867,-60.3374206,4.4,12,https://lh3.googleusercontent.com/gps-cs-s/AC9h4noURSo6dmhgUcigviYChsyJMVs7U-Iv11w7nhYvcZtWiWY4Z9cvMyE0y6xFCkNfTxqyVIKCh8tYkPS64vg1Jw6ehjBvZYxLcNKi1G1q75VxqxD8f4LnoCF7AtzHaXzx-pRX0Fz9Bg=w408-h306-k-no,26.0,116,2025-06-15T23:32:11.106Z,venta
OLAVARRIA AUTOMOTORES,Concesionario de automóviles,https://www.facebook.com/olavarriaautomotores,Rivadavia 4698,+54 2284 67-3645,Olavarría,Provincia de Buenos Aires,-36.8810424,-60.3064292,4.5,11,https://lh3.googleusercontent.com/p/AF1QipP4nYQt0mrsWdcOqHHnAXRMifKtiTSVbrxG5rAy=w408-h283-k-no,31.0,17,2025-06-15T23:32:11.106Z,venta
Chantir,Tienda de alimentación,,Av. del Valle 1799,+54 2284 42-1407,Olavarría,Provincia de Buenos Aires,-36.8911334,-60.3357738,4.7,10,https://streetviewpixels-pa.googleapis.com/v1/thumbnail?panoid=tKSEnfzJwCpF9d5CBz9C3Q&cb_client=search.gws-prod.gps&w=408&h=240&yaw=280.6546&pitch=0&thumbfov=100,1.0,6,2025-06-15T23:32:11.106Z,venta
Muebles Avenida,Tienda de muebles de pino,,Necochea 2556,+54 2284 43-1775,Olavarría,Provincia de Buenos Aires,-36.8903177,-60.3220094,5.0,9,https://lh3.googleusercontent.com/gps-cs-s/AC9h4nqEOQJcWTSOeemMf6H-FcgQtE4mY-Byz6fpBEkR0osZLntlgfx6OMzhmLgRI6yhdq2lMF-ikALQ1WEbys_cLqnT5CyFR9WThj6hLQ_8J05uBUbpnKRZpKDEo44vkiy-LsBzTrRDSA=w408-h680-k-no,11.0,2,2025-06-15T23:32:11.106Z,venta
La Casa para El Embutido Triovac SRL,Taller de maquinaria,https://www.facebook.com/La-casa-para-el-embutido-2034003376833022/,Av. Domingo Faustino Sarmiento 2578,+54 2284 44-0630,Olavarría,Provincia de Buenos Aires,-36.8845121,-60.3142373,4.4,8,https://lh3.googleusercontent.com/p/AF1QipOd5eSfga2_85w_z4fpL78THh6xNj1ZXBt1ROS9=w426-h240-k-no,23.0,20,2025-06-15T23:32:11.106Z,venta
Mva Post Venta,,,,,Olavarría,Provincia de Buenos Aires,-36.9015771,-60.3223251,,5,https://streetviewpixels-pa.googleapis.com/v1/thumbnail?panoid=IlYfJV2kFzlT-1-WNZc5Xg&cb_client=search.gws-prod.gps&w=408&h=240&yaw=288.4212&pitch=0&thumbfov=100,1.0,0,2025-06-15T23:32:11.106Z,venta
La dinastía venta de alimentos,Mercado,,Av. Pringles 2735,,Olavarría,Provincia de Buenos Aires,-36.8981161,-60.3181325,5.0,4,https://lh3.googleusercontent.com/gps-cs-s/AC9h4nrvhbLNxug2GBylLhdwmMpLFrAxJkCNR4eal8ofPzXteb6_yMyGbFK6SQ-GF8EFUEipc1VhuXwEjWlyt29EEFExydQzQsUWWsFCyhjqnmW4GHDlzKATlfy7d3ru3xRaZv07ITlw=w426-h240-k-no,6.0,1,2025-06-15T23:32:11.106Z,venta
Remates Olavarría,Casa de subastas,,Av. Ituzaingó 2756,+54 2284 71-3414,Olavarría,Provincia de Buenos Aires,-36.8865174,-60.3332396,5.0,2,https://streetviewpixels-pa.googleapis.com/v1/thumbnail?panoid=CVsSn49NnnbGT5QG7jieZA&cb_client=search.gws-prod.gps&w=408&h=240&yaw=89.940216&pitch=0&thumbfov=100,1.0,1,2025-06-15T23:32:11.106Z,venta
Venta De Conejos,Comercio,,Rufino Fal 2140,,Olavarría,Provincia de Buenos Aires,-36.8802604,-60.3159389,2.0,1,https://streetviewpixels-pa.googleapis.com/v1/thumbnail?panoid=VibwhyOefF0GRsLYlsX_mw&cb_client=search.gws-prod.gps&w=408&h=240&yaw=214.96236&pitch=0&thumbfov=100,1.0,2,2025-06-15T23:32:11.106Z,venta
Vidal Amoblamientos Comerciales,Tienda de muebles de cocina,http://amoblamientosvidal.com.ar/,Av. de los Trabajadores 2902,+54 2284 43-0447,Olavarría,Provincia de Buenos Aires,-36.8826226,-60.306437,4.6,19,https://lh3.googleusercontent.com/gps-cs-s/AC9h4nqCRTvzJ-bEmlEAuAksuCqgQ5UZIuYMZ6MudIORhOBSykFyMWNnLwhGUNAV7ZDd1FZ9iUOy7FBjeOyS-gpxfTIJsavlXiv6t8EZ-JsyjtPPom5soi1CwNtBF1pwSbmzm65Shpq7=w408-h306-k-no,64.0,123,2025-06-15T23:32:12.266Z,venta online
tecno xiaomi,Tienda de reparación de teléfonos móviles,,Vicente López 3089,,Olavarría,Provincia de Buenos Aires,-36.8911743,-60.3210468,,7,https://streetviewpixels-pa.googleapis.com/v1/thumbnail?panoid=78kNilNHH1l-CxzzVxvV1Q&cb_client=search.gws-prod.gps&w=408&h=240&yaw=311.8632&pitch=0&thumbfov=100,1.0,0,2025-06-15T23:32:55.360Z,telefonia
SoluCel,Tienda de reparación de teléfonos móviles,,Cnel. Suárez 2860,+54 2284 23-4824,Olavarría,Provincia de Buenos Aires,-36.8957447,-60.323644,4.9,6,https://lh3.googleusercontent.com/gps-cs-s/AC9h4nrd6k2Wlwo8wT4Pw92e65Jan4ShKu4VdrAIC4tEOBVXiVMxoNnHJbE9Hqu_sF0OK3B3O1HG2YEkXGw0p6KkwyJe-hYIxI07Sw847PzyIuqMZR8GpchmljjwzQ7SVu_lnj4V1kY=w408-h544-k-no,12.0,14,2025-06-15T23:32:55.360Z,telefonia
Telefonia la Union Telefonica,Tienda de móviles,,Cnel. Suárez 2733,+54 2284 44-4794,Olavarría,Provincia de Buenos Aires,-36.8945381,-60.3244355,,5,https://lh3.googleusercontent.com/gps-cs-s/AC9h4npnQJSYXeXVZaNLgqRces_0zviI1m9Ya4ulCXFPxHDEKwzw5IDZqVO7oQpTGBea_SmctKPCV6Q5zwzVae0Cjn_yleDr3GNUNZqVLTOlBfwS-85RNTZHDOu63ozRivHLHSA9j6MUnA=w408-h408-k-no,5.0,0,2025-06-15T23:32:55.360Z,telefonia
Supercell Todo Tipo De Reparaciones,,,,,Olavarría,Provincia de Buenos Aires,-36.8878966,-60.3201295,,24,https://streetviewpixels-pa.googleapis.com/v1/thumbnail?panoid=GO13zWXnQHBYZJqqujSVtA&cb_client=search.gws-prod.gps&w=408&h=240&yaw=318.1452&pitch=0&thumbfov=100,1.0,0,2025-06-15T23:32:55.871Z,telefonia
Rep-Cel servicio técnico celulares especializado en Apple,Tienda de móviles,,Belgrano 2775,+54 2284 54-3914,Olavarría,Provincia de Buenos Aires,-36.8929126,-60.3216081,4.5,4,https://lh3.googleusercontent.com/p/AF1QipN-cyZalOvpz75SvTQvYlbKBhiZcd4PlcpinRCl=w408-h408-k-no,21.0,22,2025-06-15T23:32:55.360Z,telefonia
Touch Olavarria,,,Dorrego 2755,+54 2284 72-8875,Olavarría,Provincia de Buenos Aires,-36.8921553,-60.3209994,3.0,3,https://streetviewpixels-pa.googleapis.com/v1/thumbnail?panoid=-NgASkoUFOBQ4BNwe4oVjw&cb_client=search.gws-prod.gps&w=408&h=240&yaw=67.40639&pitch=0&thumbfov=100,1.0,4,2025-06-15T23:32:55.360Z,telefonia
Olaphone,Tienda de accesorios para móviles,https://www.facebook.com/olaphone.olavarria.9,Rivadavia 2912,+54 2284 61-4140,Olavarría,Provincia de Buenos Aires,-36.8931141,-60.3212861,3.3,1,https://lh3.googleusercontent.com/gps-cs-s/AC9h4nqQRz7HMhOY4xRzHn0Lyr3-POa-1zwUfl67X6KGhSyb9vIhBxCQJ4Tugj-wKYzt_B-lEndV-QwFw4AUDozJLLyCeVXoLy-YZEwKL0v-4qJ71fOyPKY_ErlXmCML8aLM0xGEve1Ulg=w408-h306-k-no,3.0,23,2025-06-15T23:32:55.359Z,telefonia
Alquilo Todo Olavarria,Servicio de alquiler de herramientas,https://www.alquilotodo.com.ar/donde-estamos/olavarria/,Av. del Valle 5150,+54 2284 45-0013,Olavarría,Provincia de Buenos Aires,-36.9137382,-60.3082899,4.4,20,https://lh3.googleusercontent.com/p/AF1QipP3PZmuT3joG20tXWW9RVIEEU1mE31z5T3_Cf26=w408-h287-k-no,120.0,124,2025-06-15T23:32:14.016Z,maquinaria
Tiempo de Aventura,Tienda de deportes,http://www.tiempodeaventura.store/,Gral. Paz 2911,+54 2284 35-1700,Olavarría,Provincia de Buenos Aires,-36.8951701,-60.3221469,4.5,17,https://lh3.googleusercontent.com/p/AF1QipPuy47dPxaXGEEvIOxzVWISvIqYXq3PfVw02mh0=w408-h272-k-no,13.0,132,2025-06-15T23:32:12.266Z,venta online
Kevingston,Tienda de ropa,http://www.kevingston.com/,Vicente López 3056,+54 2284 42-7647,Olavarría,Provincia de Buenos Aires,-36.8915662,-60.3209793,4.7,13,https://streetviewpixels-pa.googleapis.com/v1/thumbnail?panoid=A01Fj6gowgRcAwRYIG1Z2A&cb_client=search.gws-prod.gps&w=408&h=240&yaw=127.42893&pitch=0&thumbfov=100,1.0,126,2025-06-15T23:32:12.265Z,venta online
Pinino Ropa Blanca,Tienda de ropa,,Av. Pellegrini,,Olavarría,Provincia de Buenos Aires,-36.912451,-60.3158723,5.0,9,https://streetviewpixels-pa.googleapis.com/v1/thumbnail?panoid=iw1FDYiF8FxxzCs61Nl6HA&cb_client=search.gws-prod.gps&w=408&h=240&yaw=320.61667&pitch=0&thumbfov=100,1.0,1,2025-06-15T23:32:58.297Z,blanqueria
Regaleria Paris,Tienda de regalos,,Giovanelli 1742,,Olavarría,Provincia de Buenos Aires,-36.8979138,-60.3453322,,20,https://streetviewpixels-pa.googleapis.com/v1/thumbnail?panoid=_w1ewx51R4kxvq58itAUdQ&cb_client=search.gws-prod.gps&w=408&h=240&yaw=46.75368&pitch=0&thumbfov=100,1.0,0,2025-06-15T23:32:58.366Z,regaleria
Dash Deportes,Tienda de deportes,https://www.tiendadash.com.ar/,Rivadavia 4770,+54 2284 42-3880,Olavarría,Provincia de Buenos Aires,-36.8806323,-60.3039491,4.0,24,https://lh3.googleusercontent.com/gps-proxy/ALd4DhHIcnV25F2Zn2gKH3RJmFoNvb8tjrj5zzolRtOO51UFYIdh14I24N0LCbKb3g9tH1gmSqqlhdJeQTcHWymHdgDqxDCpUZGNLpMjyc9aRi9IqXV_c0RTm-3612v5NwXSrs7G9T-vmQa6C9FPiA7vqZsUMDukYY6vaYL8Dx93WK1K_uCJ35z39qZnGiqOKgtgTGpDUw=w408-h306-k-no,10.0,5,2025-06-15T23:32:12.903Z,tienda
Pintureria Floresta,Tienda de pinturas,,Amparo Castro 2084,+54 2284 68-5230,Olavarría,Provincia de Buenos Aires,-36.9039135,-60.3227513,5.0,17,https://lh3.googleusercontent.com/p/AF1QipMfKhezHBm7JVjPJmwIWI4bzmYR9-DX2ZnXYpuC=w408-h408-k-no,4.0,20,2025-06-15T23:32:58.626Z,tecnologia
Per Mia Casa,Tienda de artículos para el hogar,,San Martín 2653,,Olavarría,Provincia de Buenos Aires,-36.8926751,-60.3233878,4.8,32,https://lh3.googleusercontent.com/p/AF1QipNfTrQP5X-rSls0re9vfbzvcRe2h87taNPl3GcY=w408-h272-k-no,29.0,52,2025-06-15T23:32:59.410Z,regaleria
Moov,Fábrica de muebles,https://www.instagram.com/moov.olav/,San Martín 3185,+54 2284 22-7651,Olavarría,Provincia de Buenos Aires,-36.8962928,-60.3190995,5.0,20,https://lh3.googleusercontent.com/p/AF1QipNC3aJqYi886tPe1Wj18HTx_E1v3wrHLubFsVYh=w408-h272-k-no,5.0,1,2025-06-15T23:32:59.651Z,muebles
Demoliciones Olavarría S.A.,Tienda de materiales para la construcción,,Av. Pellegrini 2965,+54 2284 42-7629,Olavarría,Provincia de Buenos Aires,-36.904918,-60.306205,4.6,40,https://lh3.googleusercontent.com/gps-cs-s/AC9h4nqP72K0uC3eBODPHSvQIo_YF6evPGw3l6gQwfuiVxm_XhZgvTXi-oPltuX-r2Zp7og901AYgt_rMValRRK9HUwN-afg-3n52UKFntt3-udXu1J_YCq_-xxg8MeJG5G6g1EJf7c77A=w408-h544-k-no,36.0,47,2025-06-15T23:33:00.111Z,maquinaria
Pinoteka,Tienda de muebles de pino,,Av. Pringles 3301,+54 2284 51-1671,Olavarría,Provincia de Buenos Aires,-36.8943372,-60.3133499,3.0,17,https://lh3.googleusercontent.com/p/AF1QipNm9mVTSWci_UvYHXoi7idg9eQ0o-rbFoGPzmW9=w408-h544-k-no,8.0,5,2025-06-15T23:32:59.650Z,muebles
Casa Fernandino,Tienda de muebles de exterior,,Av. Domingo Faustino Sarmiento 2823,+54 2284 73-0265,Olavarría,Provincia de Buenos Aires,-36.8857939,-60.3119921,5.0,16,https://lh3.googleusercontent.com/p/AF1QipNnO4YgnqrHcyVsgeF8ceSBI3EsQf-ZFYlJj0KV=w408-h509-k-no,12.0,2,2025-06-15T23:32:59.650Z,muebles
Maras,Carpintero,,Laprida 4258,+54 9 2284 45-3172,Olavarría,Provincia de Buenos Aires,-36.8909813,-60.3016426,,39,https://lh3.googleusercontent.com/gps-proxy/ALd4DhF8agZWqq7Q7PXZ7NLyH7WGrWXbAsIpmvuFIslK7XJCVSXF8hWD6ddppqYJsMpO82BQQthMIfNVLWiqVt1iWanBWOnQIOTvbXZc9kzGXGNaZEm1ZN916AopKhy0oIzMxfTgxkWw7ug6Qe0UACX_3FH4RbzEx8r6wxXooDmdQxdeZ04-96Grq4eL8kbrQKLH98h1Eg=w408-h306-k-no,2.0,0,2025-06-15T23:33:00.964Z,muebles
Kilmes sillones,Tienda de muebles,,Alvaro Barros 2708,,Olavarría,Provincia de Buenos Aires,-36.8900833,-60.3189389,,37,https://streetviewpixels-pa.googleapis.com/v1/thumbnail?panoid=Crz7AR6BM9BKD7taTLm7rQ&cb_client=search.gws-prod.gps&w=408&h=240&yaw=220.758&pitch=0&thumbfov=100,1.0,0,2025-06-15T23:33:00.964Z,muebles
Puertas y Ventanas del Sur,Carpintería,,Av. Ituzaingó 4402,+54 2284 45-6347,Olavarría,Provincia de Buenos Aires,-36.8750129,-60.318544,4.2,36,https://lh3.googleusercontent.com/gps-proxy/ALd4DhForpZAEUNiHXMqmwDmbk9kp4A6lynY0x1h0j3wFxUkE3K_BbqWY_sJQakTCULdk-UKKXy7w9NMzZsJw_4RVrJJ6q_slbuFk53sy7twcj0TRhRLlSPR5AGDxoAWxrhAcaB5VZx_VXTH4E4TSNrmaNu-vyoAb6DkJDcaL5TOCQsYqYvOHfYw2t6RZJ4JUoxHQ5DdBjw=w408-h306-k-no,3.0,5,2025-06-15T23:33:00.964Z,muebles
Carpintería Olavarría,Carpintero,,Av. Ituzaingó,+54 2284 45-6016,Olavarría,Provincia de Buenos Aires,-36.8883076,-60.3359081,4.0,34,https://streetviewpixels-pa.googleapis.com/v1/thumbnail?panoid=-5-65sABQSTjK20ONV0Zrg&cb_client=search.gws-prod.gps&w=408&h=240&yaw=298.1169&pitch=0&thumbfov=100,2.0,1,2025-06-15T23:33:00.964Z,muebles
Amoblamientos Comerciales,Tienda de muebles,,Lavalle 2891,,Olavarría,Provincia de Buenos Aires,-36.8912335,-60.3241892,,31,https://streetviewpixels-pa.googleapis.com/v1/thumbnail?panoid=nu5K4llAxXX4vBr7M0bHfw&cb_client=search.gws-prod.gps&w=408&h=240&yaw=288.08585&pitch=0&thumbfov=100,1.0,0,2025-06-15T23:33:00.964Z,muebles
Muebles a medida en melamina,Tienda de muebles de cocina,,,+54 221 668-8993,Olavarría,Provincia de Buenos Aires,-36.887157,-60.3369556,5.0,29,https://lh3.googleusercontent.com/p/AF1QipNpLiW04WljogD7_oHZQ6c28HEjbB8LauTsjb0Q=w408-h544-k-no,50.0,1,2025-06-15T23:33:00.963Z,muebles
LeMoble / Muebles a Medida,Fábrica de muebles,,Jacinto Gamondi 2361,+54 2284 33-0032,Olavarría,Provincia de Buenos Aires,-36.8788762,-60.3450766,5.0,27,https://lh3.googleusercontent.com/p/AF1QipMzGQd9S258D2wezDu5x8aFEZ9WR2vjbOeZD4QN=w408-h408-k-no,7.0,3,2025-06-15T23:33:00.963Z,muebles
La septima Noticias,Empresa de medios de comunicación,https://www.laseptimanoticias.com/,Moreno 2359,+54 2284 64-2522,Olavarría,Provincia de Buenos Aires,-36.8972805,-60.3253408,5.0,31,https://lh3.googleusercontent.com/p/AF1QipPdDe0DF_PhYWlNyjQyWI2nRngZNP4v0KTrxkv9=w408-h408-k-no,5.0,22,2025-06-15T23:32:59.268Z,tecnologia
Azparren Climatizacion,Proveedor de equipos de calefacción,https://www.instagram.com/azparrenclimatizacion/,Saavedra 3062,+54 2284 42-1154,Olavarría,Provincia de Buenos Aires,-36.8975307,-60.3124322,4.2,49,https://lh3.googleusercontent.com/p/AF1QipN7ecYiUPVNTUGNERLqh0GxadpugtatXRPbUo17=w408-h261-k-no,6.0,12,2025-06-15T23:33:00.771Z,maquinaria
Carpinteria José,Carpintería,,Piedras,+54 2284 62-3329,Olavarría,Provincia de Buenos Aires,-36.8911546,-60.3411851,5.0,47,https://lh3.googleusercontent.com/p/AF1QipP5mj8LihScguX62v4U8UEZ5J62Efy7a5mBUAxZ=w408-h320-k-no,15.0,1,2025-06-15T23:33:02.099Z,muebles
Revestimientos Mi Frente,Contratista de revestimientos,,"LOL, Av. Colón 2845",+54 2284 48-1336,Olavarría,Provincia de Buenos Aires,-36.8899448,-60.3167827,4.3,46,https://lh3.googleusercontent.com/gps-proxy/ALd4DhHJFnwUpD6qzccXH_ISaKXfboo9HnhDEBzQfAN3A_IOH8qjAC1UyeZlBJpzZ9CFZ1kwkdC3gbaM1lA0Urrd55lECy_ME-y9n-A_0B7vd1j2Y2-gNdGulrV1ASI2Pno8jx953vA4fHWKtnM9N4QTO6wyaYr6blxBQQiQuOALzG9D7_zZnp4XkzyQJbgj1SfWozjc5rw=w408-h306-k-no,5.0,15,2025-06-15T23:33:02.099Z,muebles
Carpintería Ofimoble,Carpintero,https://www.facebook.com/om.ofimoble?mibextid=ZbWKwL,Estrada 2537,+54 2284 22-1111,Olavarría,Provincia de Buenos Aires,-36.8833373,-60.3134263,5.0,44,https://lh3.googleusercontent.com/p/AF1QipOz1IYcPqyIn9iKV41EDrirmVR--uv-iyy6b6Xt=w408-h408-k-no,109.0,2,2025-06-15T23:33:02.099Z,muebles
Todo Para el Tapicero,Tienda de telas,https://www.facebook.com/profile.php?id=100057456698737,Av. Colón 2510,+54 2284 43-0420,Olavarría,Provincia de Buenos Aires,-36.8880485,-60.3197975,4.7,43,https://lh3.googleusercontent.com/gps-cs-s/AC9h4nqB-oFz0ZEHkgor3PM_eco8F3C6BX5JnEbCsqTlDKLXmCvTfLLN0sUmaM1fOlmv_gynZfc2aX-Ko47r9xdX6RPRAPSOirLT1Tc_Zu83ecovWZ-aKtjbHTOpW2N9UCD7jYq98AaM=w426-h240-k-no,95.0,503,2025-06-15T23:33:02.099Z,muebles
Estudio Filippin,Oficinas de empresa,http://estudiofilippin.com.ar/,"7400, 9 de Julio 2258 Dto 4",+54 411645,Olavarría,Provincia de Buenos Aires,-36.9008528,-60.3226061,,20,https://streetviewpixels-pa.googleapis.com/v1/thumbnail?panoid=zcHBmyb9BJ9xXSCYV6STBA&cb_client=search.gws-prod.gps&w=408&h=240&yaw=137.6498&pitch=0&thumbfov=100,1.0,0,2025-06-15T23:32:58.626Z,tecnologia
PLANET BIKE,Tienda de bicicletas,http://www.planetbike.com.ar/,Vicente López 3190,+54 2284 38-2007,Olavarría,Provincia de Buenos Aires,-36.8905908,-60.3198897,5.0,18,https://lh3.googleusercontent.com/p/AF1QipP66PqcDYv4rLnsXumHfyiQqgHbMq3yReDIxDBx=w408-h306-k-no,35.0,8,2025-06-15T23:32:12.266Z,venta online
Aberturas Ardino Vidrios,Cristalero,https://www.guia-dorada.com.ar/guia/aviso-aberturas-ardino-vidrios-olavarria-aberturas-de-aluminio-en-olavarria-buenos-aires-21896.html,Roque Sáenz Peña 4895,+54 2284 62-1355,Olavarría,Provincia de Buenos Aires,-36.903141,-60.2989843,4.5,53,https://lh3.googleusercontent.com/p/AF1QipPMo5n4FAOxrj0zpBjbNy41Uu6FCmO9rKlTzfur=w408-h306-k-no,62.0,28,2025-06-15T23:33:00.771Z,maquinaria
La Casa de los Hierros SA,Proveedor de materiales de construcción,http://www.lacasadeloshierros.com.ar/,Av. del Valle 5098,+54 2284 45-1183,Olavarría,Provincia de Buenos Aires,-36.913336,-60.3088199,4.7,46,https://lh3.googleusercontent.com/p/AF1QipOq9qL59bgaO-j5Jq3Q_MGT2bKAPGaWIv1F2VBP=w408-h306-k-no,23.0,75,2025-06-15T23:33:00.770Z,maquinaria
PECMA (Planta Hormigón),Empresa constructora,,Los Jazmines 4204,+54 2284 50-1585,Olavarría,Provincia de Buenos Aires,-36.9096247,-60.2797801,,45,https://streetviewpixels-pa.googleapis.com/v1/thumbnail?panoid=EQvqy8Fc5QImX2AYT1LPrg&cb_client=search.gws-prod.gps&w=408&h=240&yaw=120.25144&pitch=0&thumbfov=100,2.0,0,2025-06-15T23:33:00.770Z,maquinaria
ALKOTZ SA,Empresa constructora,,Laprida 2750,+54 2284 42-8163,Olavarría,Provincia de Buenos Aires,-36.9008222,-60.3145667,5.0,44,https://lh3.googleusercontent.com/p/AF1QipPPqWSUaMF7jVfOcxWN-JCaIycO_filanXKxQc=w408-h270-k-no,23.0,7,2025-06-15T23:33:00.770Z,maquinaria
Vera Tropea,Tienda de materiales para la construcción,https://marmoleriaveratropea.com/,Av. Pellegrini 2667,+54 2284 26-9885,Olavarría,Provincia de Buenos Aires,-36.9067727,-60.3086247,4.8,51,https://lh3.googleusercontent.com/p/AF1QipN2zMvUj8v8z093wsWxSgrvqkR5dojjCE7yEmDt=w408-h509-k-no,21.0,21,2025-06-15T23:33:00.771Z,maquinaria
DC SOLUCIONES METALICAS PARA EL AGRO,,,Av. Colón 5755,+54 2284 52-3573,Olavarría,Provincia de Buenos Aires,-36.9094507,-60.293586,,42,https://streetviewpixels-pa.googleapis.com/v1/thumbnail?panoid=5fPvviKxHfeu2o7YeNDiug&cb_client=search.gws-prod.gps&w=408&h=240&yaw=219.05011&pitch=0&thumbfov=100,3.0,0,2025-06-15T23:33:00.770Z,maquinaria
Steel Montajes Industriales srl,,,Av. Circunvalacion 4535,+54 9 2284 65-6516,Olavarría,Provincia de Buenos Aires,-36.9045158,-60.2801896,,41,https://lh3.googleusercontent.com/p/AF1QipMdGCaG2NO3VGUJKc0UwcfSrDrhJoso__93aE93=w408-h306-k-no,5.0,0,2025-06-15T23:33:00.770Z,maquinaria
Florencio Muebles,Fábrica de muebles,https://www.instagram.com/florenciomuebles/,Av. del Valle 2525,+54 2284 42-4626,Olavarría,Provincia de Buenos Aires,-36.8958129,-60.3294848,3.4,15,https://lh3.googleusercontent.com/gps-cs-s/AC9h4nrgods7Xh1YSEx270nkXkGoUvrp2aGwh9XJTFcS9yTeSgNiq3H5aw2Fam7sGpmLXUaB6_4Hg3Eg7CTbzCAboqNbP2DCy74dRrBLBCWkJ8v5LmKpuQWsJem4Hh8VuQ_c8-ywmpK7=w426-h240-k-no,7.0,8,2025-06-15T23:32:59.650Z,muebles
La Impronta,Tienda de sofás,,Necochea 2859,+54 2284 48-7273,Olavarría,Provincia de Buenos Aires,-36.8921576,-60.3192762,5.0,14,https://streetviewpixels-pa.googleapis.com/v1/thumbnail?panoid=VuY9v9UCzEZ4kvR0htFMjQ&cb_client=search.gws-prod.gps&w=408&h=240&yaw=59.3799&pitch=0&thumbfov=100,1.0,3,2025-06-15T23:32:59.650Z,muebles
Refrigeración Julio,Supermercado de muebles,,Rivadavia 4401,+54 2284 42-3596,CVQ,Provincia de Buenos Aires,-36.8828941,-60.3089244,4.5,13,https://lh3.googleusercontent.com/p/AF1QipOGo-8T0aBLaaHHOxUuyrGMTLiaNhVt7yTZ3sM_=w408-h306-k-no,57.0,24,2025-06-15T23:32:59.650Z,muebles
Casa del Credito,Tienda de muebles,https://www.facebook.com/pages/Casa-del-Credito/101839566528760?ref=ts&fref=ts,Av. Colón 2850,+54 2284 44-6548,Olavarría,Provincia de Buenos Aires,-36.8903039,-60.3170167,4.3,12,https://lh3.googleusercontent.com/gps-cs-s/AC9h4nptN1zTF26-FYSrvoLKvNjRn4c2zO6t5BBQTvf2ivrKqk9jiCFQ12OA9wKHDLZdg2Eprv3j1N-pMbgXbwbPsirncSnf4WtoL98eKALWQdvpvaYaajeYeNvETv4TqRM_QFz7p6wlug=w408-h544-k-no,4.0,39,2025-06-15T23:32:59.650Z,muebles
Muebles Feigelson - Clásico - Moderno -,Tienda de muebles,,Bolívar 3276,+54 2284 42-7273,Olavarría,Provincia de Buenos Aires,-36.8997225,-60.3219015,4.5,11,https://lh3.googleusercontent.com/gps-cs-s/AC9h4npO-eipg3GfZB-9y8myuiz_5-zUTW_ZtQWfyRp9lqTH5ostnHyw8uDQRLz7f23t2JVEA-lm9Jsp21EUGqmpjQV0BAN6q0lE9tw6JVd8QSta3MhBkhIfc6PkezlDSOG5q5kDiLyF=w408-h306-k-no,5.0,73,2025-06-15T23:32:59.650Z,muebles
Belton Hogar,Tienda de artículos para el hogar,,Necochea 2732,+54 2284 42-1511,Olavarría,Provincia de Buenos Aires,-36.8914795,-60.3205802,4.2,10,https://lh3.googleusercontent.com/gps-proxy/ALd4DhGu95aK5U3dnF_sY6YqsO_UAKflLaBJn9tQ9fwiAJck-fw8qh3JiNBd33LruSdNa-4galakXf2Y5PFDxMbbk0XmK7SLrHQrQShA_myUG0SjvHGZJCjJWl0NHM7m50n5qWuzTGfZpMB97sNs6SvL0GGuBy5ZRNgKEayk8ulnSgb_WAE4h0MF2GdgW9fLukdq7qDUXw=w408-h306-k-no,4.0,33,2025-06-15T23:32:59.650Z,muebles
Victorio mobiliarios de cocina,Tienda de muebles de cocina,,Alsina 2615,+54 2284 59-2189,Olavarría,Provincia de Buenos Aires,-36.8936157,-60.3256141,4.6,9,https://lh3.googleusercontent.com/gps-proxy/ALd4DhGDs6V42UMn9L7DtwXiFeIpPXKnRFlVJ2pCQx5U4cT4HU58RUpsET6UY8UGrg_NDUnDq7OGufo-9dABRKVgJnEbKgkt2LJ1bhzbSM5y6kEZ6LjrdHiW82cUyLiz-Bd-L_D-H1CFptL-uPAxFns97t8RjKI05BG2pYB3fPpTadqJBdGPrJC1bDt583jqJs1YWyRlI7U=w408-h306-k-no,6.0,7,2025-06-15T23:32:59.650Z,muebles
Valenziana Olavarría,Tienda de muebles,https://instagram.com/valenziana.olavarria,Av. Colón 2850,+54 2284 30-8403,Olavarría,Provincia de Buenos Aires,-36.8903526,-60.3170839,5.0,7,https://lh3.googleusercontent.com/p/AF1QipNE9ehnj5pV8a2M0TarlbwedmNd7IcGpHSJPGcS=w630-h240-k-no,2.0,2,2025-06-15T23:32:59.650Z,muebles
Casa Silvia (Muebles y Colchones),Tienda de muebles,,Rivadavia 2539,+54 2284 44-3500,Olavarría,Provincia de Buenos Aires,-36.895459,-60.3246166,4.4,6,https://lh3.googleusercontent.com/gps-cs-s/AC9h4npBvmuz3HWvLaUyby3U_0dqe8cQfUHx-2yMmDw1GiUBqNCoVtoOKo2vyIoznwM6Q7rcz8R-kYEsjhSljaH87KhjGCHRQnk01ruUwlOv1XIJU-34R2r1x6T5ZGoT41GmmgMfKqAC=w426-h240-k-no,47.0,297,2025-06-15T23:32:59.649Z,muebles
Mueblería Wooden Planks,Tienda de muebles,http://instagram.com/woodenplanksok,Necochea 2651,+54 9 2284 21-8000,Olavarría,Provincia de Buenos Aires,-36.8907783,-60.3210347,5.0,5,https://lh3.googleusercontent.com/p/AF1QipPIBqHBjBqbrJZG0vIf4YAm2C8R9penYnxSdmSS=w426-h240-k-no,7.0,3,2025-06-15T23:32:59.649Z,muebles
La Muebleria Olavarria,Tienda de muebles,,"Pueblo Nuevo, Cnel. Suárez 2192",+54 2284 26-9612,Olavarría,Provincia de Buenos Aires,-36.8910495,-60.3292999,4.5,2,https://lh3.googleusercontent.com/gps-proxy/ALd4DhE2ESteBA8eUV6jxmipWQIMvVoB7La7MH1qI3UtNJdvc3HUAi-HAaRF-ieyziflh4lgQxo90OTOsVO7fsHBfEUglMOFudEqM6gdP0jEx2wnF4ROcZf0i21IYfPg7MKdbThPmfx5WkxoSs_yBLTK6Sk7wXqH5IRFhGwOpXRGLbBuCRStJfUBIsJK2e7p2mQrU1e3a2A=w408-h306-k-no,16.0,17,2025-06-15T23:32:59.649Z,muebles
MUEBLES CONFORT,Tienda de muebles,,Av. Pringles 3501,,Olavarría,Provincia de Buenos Aires,-36.8929987,-60.3115715,4.3,1,https://lh3.googleusercontent.com/gps-proxy/ALd4DhGwd31rBsjkFktdJk67yhOoESTT29dJ6SWt0tKXl6cRs7QIHnrTjFx0VDUptWdnzo43AexsaN7jUMqGL-yOwbByO62mdoJ7GxA_pTsppyaoo7jcYFdyrm1tOL50ELff1kC-HxH_jLC6_Y8Hp8PnxYjWkrrVzzUCZkKHzcd8BkLjys2elEJZE313LPX8XfGFLYKyxQ=w408-h306-k-no,35.0,26,2025-06-15T23:32:59.649Z,muebles
Tornería Olavarría,Taller de maquinaria,,Av. Pellegrini 2975,+54 9 2284 35-3271,Olavarría,Provincia de Buenos Aires,-36.9048375,-60.3061277,5.0,19,https://streetviewpixels-pa.googleapis.com/v1/thumbnail?panoid=bLe_9yjpZg2kRXJdjRqtaw&cb_client=search.gws-prod.gps&w=408&h=240&yaw=293.36212&pitch=0&thumbfov=100,1.0,1,2025-06-15T23:32:59.381Z,maquinaria
Casa Elizaga venta y reparación de máquinas de coser,Servicio de reparación de máquinas de coser,,Antonio Pelegrino 3626,+54 2284 41-0726,Olavarría,Provincia de Buenos Aires,-36.9039833,-60.3212378,4.8,17,https://lh3.googleusercontent.com/p/AF1QipNyIgL44kPZuFlRbuolWTRnINC5LmImyWITc0Al=w408-h906-k-no,13.0,50,2025-06-15T23:32:59.381Z,maquinaria
Amapola productos de diseño,Tienda de artículos para el hogar,https://www.decoamapola.com.ar/,Lavalle 2845,+54 2284 58-5652,Olavarría,Provincia de Buenos Aires,-36.8913339,-60.3246316,5.0,41,https://lh3.googleusercontent.com/p/AF1QipMIwdxXlO73neJ5V3SwDx_yq8dA0MkgIU5kz54S=w408-h544-k-no,5.0,10,2025-06-15T23:33:02.099Z,muebles
Minexo servicios mineros,Oficina de la Administración,http://www.minexo.com.ar/,Av. Circunvalacion 3667,+54 9 2284 67-4676,Olavarría,Provincia de Buenos Aires,-36.9109521,-60.2867783,5.0,43,https://streetviewpixels-pa.googleapis.com/v1/thumbnail?panoid=tk4YqOksBLduwfdW3a4mtA&cb_client=search.gws-prod.gps&w=408&h=240&yaw=137.38725&pitch=0&thumbfov=100,1.0,1,2025-06-15T23:33:00.770Z,maquinaria
Casa del Crédito,Tienda de muebles,https://casadelcredito.com.ar/,España 3024,+54 2284 44-4555,Olavarría,Provincia de Buenos Aires,-36.894502,-60.3181047,4.8,19,https://lh3.googleusercontent.com/p/AF1QipPSm46xpB8JxuMXwkndpGagTYclVxbKN3G_SMXG=w408-h725-k-no,35.0,16,2025-06-15T23:32:59.651Z,muebles
Kiosco Bachu,Kiosco,,Bolívar 1599-1699,+54 2284 41-1319,Olavarría,Provincia de Buenos Aires,-36.8884849,-60.3356056,4.7,18,https://streetviewpixels-pa.googleapis.com/v1/thumbnail?panoid=sH49gl-ozg0JqmVr679pKA&cb_client=search.gws-prod.gps&w=408&h=240&yaw=220.21056&pitch=0&thumbfov=100,3.0,115,2025-06-15T23:32:58.366Z,regaleria
Antojitos Olavarría,Tienda de artículos para el hogar,,Cnel. Suárez 2724,+54 2284 67-4745,Olavarría,Provincia de Buenos Aires,-36.8947329,-60.3247408,5.0,17,https://lh3.googleusercontent.com/p/AF1QipM9cV2-ZARilnyMsAmrWtB5vNn3z3J7uuVXgS6h=w520-h240-k-no,421.0,5,2025-06-15T23:32:58.366Z,regaleria
Kiosco Avenida,Kiosco,,,,Olavarría,Provincia de Buenos Aires,-36.89416,-60.302834,5.0,16,https://lh3.googleusercontent.com/gps-proxy/ALd4DhGNJnCRHlfI7-mKkQt3ITpDruZ7mTFvl1hy0Dl9QJ2ONh5ppFSq3ZLl-YKdGYq0mn6gec4kEGqDqG6YeorUX-NfOQDjVoo4AWC1ZQKKxgEZZXBzAHKfbh8r14vb-QDuPo9TVZZCkcmexYs6DcDE_GO30drzN1nDdLXIT7YU-gsf1fL4ffTsNVwXak2czfHyFoIj-Q=w408-h306-k-no,2.0,2,2025-06-15T23:32:58.366Z,regaleria
Creencias,Tienda de regalos,,Rivadavia 2473,+54 2284 41-4900,Olavarría,Provincia de Buenos Aires,-36.8959369,-60.3253089,5.0,15,https://lh3.googleusercontent.com/gps-proxy/ALd4DhERsQYfqalj4KtxqZTlUJllCw4nHN7TTVrVDv54hqSj0CLQfR8-BNM-qHXM4dUZVAPZMqimzcpsCZvUDD28vbqTCQzfDk3qozrp88t28xCzb8GLmjNyGQGrVW64on3ZGIb6f92CRy4bb9NPVgCJ2nT_jeTJeLrZINnKh7fP1d10Q-VzAanSMCbyOK3ZFjMnXLsOdg=w408-h306-k-no,11.0,4,2025-06-15T23:32:58.366Z,regaleria
Papelera Ciuffo,Fábrica de papel,https://www.instagram.com/papeleraciuffo?igsh=MWZ0enQwODR3MzVnbw==,Av. Pringles 3540,+54 2284 44-2330,Olavarría,Provincia de Buenos Aires,-36.8930665,-60.3108873,4.6,14,https://lh3.googleusercontent.com/gps-proxy/ALd4DhFTOKRfD7UwfZNxAx2Anohd5fCN-58mmTx8qBQSy2Rqt4Iqafti6cMznqwzLqCmQBi-5ZobMsjgOjQ5dwrbiMgUdt5vw6hkULUPVMgQh-Wk5P6b0bCYfMEllECIcM7J3hZy1iUAeOKoNVk12D77yycIS5piA2z7AogL8FZvTV7pDD1KkBlYSceqCjqnfydKTACicYs=w408-h306-k-no,13.0,501,2025-06-15T23:32:58.366Z,regaleria
Distribuidora Del Centro,,,Av. Colón 2865,,Olavarría,Provincia de Buenos Aires,-36.8901299,-60.3166782,,13,https://streetviewpixels-pa.googleapis.com/v1/thumbnail?panoid=335dvzHLDOSAQUQJKkw31g&cb_client=search.gws-prod.gps&w=408&h=240&yaw=49.738647&pitch=0&thumbfov=100,1.0,0,2025-06-15T23:32:58.366Z,regaleria
Frenos y Tren Delantero Salazar E Hijos,Taller de reparación de automóviles,https://www.guia-dorada.com.ar/guia/aviso-taller-de-frenos-tren-delantero-salazar-e-hijos-en-olavarria-buenos-aires-8564.html,Ramón Rendon 4548,+54 9 2284 53-7366,Olavarría,Provincia de Buenos Aires,-36.9155055,-60.3204805,4.8,47,https://lh3.googleusercontent.com/p/AF1QipMGTKgJXTHOveH6IgYvrxwhUrmTscS5rxD9X1bC=w408-h306-k-no,77.0,58,2025-06-15T23:33:00.770Z,maquinaria
Servicom Climatización,Empresa de climatización,http://www.servicomclima.com.ar/,Av. Urquiza 1436,+54 2284 45-2126,Olavarría,Provincia de Buenos Aires,-36.9109808,-60.3239617,4.8,50,https://lh3.googleusercontent.com/p/AF1QipPslWsBhves6TT7f5jHFruHO3Cs_5Sb5FKM7gZR=w408-h544-k-no,7.0,10,2025-06-15T23:33:00.771Z,maquinaria
Potish,Marroquinería,https://m.facebook.com/Potish-305462893142853/,Necochea 2818,+54 2284 42-0689,Olavarría,Provincia de Buenos Aires,-36.8921852,-60.3197164,5.0,11,https://lh3.googleusercontent.com/gps-cs-s/AC9h4nrI-1--746rCwRIu64Ha5N3M2Ynw_kuDEstx7T0kkGi_CzSdfdPb5QcRkDeP8zWluamebEZSeVD9lX5MbViUvLOT45Fi2mis5gnhqA00AnwV9c06vr1L_xVOQ8iyxWy40FxkBTG=w426-h240-k-no,25.0,2,2025-06-15T23:32:58.366Z,regaleria
Librería y Juguetería Grafitty,Librería,https://www.facebook.com/pages/Libreria-y-Jugueteria-GRAFITTY/228480893835529?fref=ts,Av. Pringles 4118,+54 2284 41-5466,Olavarría,Provincia de Buenos Aires,-36.889153,-60.306035,4.6,10,https://lh3.googleusercontent.com/p/AF1QipNWu__9xbXEABPgg3jKan9-vY2oyNdqVfOTpxix=w408-h408-k-no,48.0,493,2025-06-15T23:32:58.366Z,regaleria
Pablo Coniglio Inmobiliaria,Agencia inmobiliaria,http://www.olavaprop.com/agents/pabloconiglio/,Independencia 3147,+54 2284 41-9080,Olavarría,Provincia de Buenos Aires,-36.8854956,-60.3270871,4.7,55,https://lh3.googleusercontent.com/p/AF1QipMj3zuJjCUT0E7cHtDIXTaDHOaKERR1MYWUl0UO=w426-h240-k-no,5.0,21,2025-06-15T23:32:13.568Z,venta
Zoom Olavarria,,,Vicente López 2956 B7400,+54 9 11 5133-6505,Olavarría,Provincia de Buenos Aires,-36.8922228,-60.3218637,4.4,9,https://lh3.googleusercontent.com/p/AF1QipMnoddmMblb-ouhDS3pVGEYjA5vyvt9_4gbrts7=w408-h544-k-no,17.0,30,2025-06-15T23:32:58.366Z,regaleria
Kiosco Junver,Kiosco,https://www.facebook.com/ayelen.nair.9,Rivadavia 4182,+54 2284 50-5252,Olavarría,Provincia de Buenos Aires,-36.8847789,-60.3105875,4.7,7,https://lh3.googleusercontent.com/gps-proxy/ALd4DhFl8LMyZ9iAtUzXE8cGnDN2CjvVBGoChV6VfjoZXTIU18Qc4eHvr3MmhrMqT2bClLL-hi3xbIPV8p6wbvOebBaGMGDS7ABtQX7V13w3yvO874F6zqt4o8fhFL3CjktExg-e7lH8eAg53ZpZK5SaYq2UiXeFgV--mKgI95qwpix-80N2lpL0ZQvHT_1j2Py9ekFb25g=w408-h306-k-no,5.0,27,2025-06-15T23:32:58.366Z,regaleria
REGALERIA Y JUGUETERIA P & A,,,Av. Ituzaingó 4019,,Olavarría,Provincia de Buenos Aires,-36.8774045,-60.3220126,,6,https://streetviewpixels-pa.googleapis.com/v1/thumbnail?panoid=MuNsMndwSYasnzAJM6_cqA&cb_client=search.gws-prod.gps&w=408&h=240&yaw=345.99194&pitch=0&thumbfov=100,1.0,0,2025-06-15T23:32:58.366Z,regaleria
Bazar Regaleria,,,Vicente López 3306,,Olavarría,Provincia de Buenos Aires,-36.8898265,-60.3187746,,5,https://streetviewpixels-pa.googleapis.com/v1/thumbnail?panoid=FjtT0LavV3TOgSyPslbJlw&cb_client=search.gws-prod.gps&w=408&h=240&yaw=140.68965&pitch=0&thumbfov=100,1.0,0,2025-06-15T23:32:58.365Z,regaleria
Regaleria Luna,Tienda de regalos,,"Collinet 3165, Olavarr a, Buenos Aires",+54 2284 42-4520,Olavarría,Provincia de Buenos Aires,-36.8840205,-60.3090375,,4,https://streetviewpixels-pa.googleapis.com/v1/thumbnail?panoid=TITP7iRT3SqtSKelRwcWfw&cb_client=search.gws-prod.gps&w=408&h=240&yaw=47.900837&pitch=0&thumbfov=100,1.0,0,2025-06-15T23:32:58.365Z,regaleria
Regalaría Con Amor,Tienda de regalos,http://instagram.com/regaleriaconamor/,Belgrano Centro,,Olavarría,Provincia de Buenos Aires,-36.8924013,-60.3227417,5.0,3,https://lh3.googleusercontent.com/gps-cs-s/AC9h4npCKctcZWl0cLlw9YjOGKizAAks7WaSPngNi0jRH8oTf1KApyLEiIWDa0uLkavhmoivctR_t5iX6NNMdaNA8wBW1m59Wx2_rIxf6P0n_mx-PSOqsFSiXAjKp63McfeL-ms6ksqT=w408-h544-k-no,2.0,7,2025-06-15T23:32:58.365Z,regaleria
Ominim Sorpresería,Tienda de regalos,,Vicente López 3120,+54 2284 62-5944,Olavarría,Provincia de Buenos Aires,-36.8911742,-60.320375,4.3,2,https://lh3.googleusercontent.com/gps-cs-s/AC9h4no4SpFR_ayvQK4f4mRlFSdTh6X2G-Lm1_japOF5MGrkXDtNSOwDiAeuqybhRZ5Gap6nYexWKjTZu798G-YfMIs49JUZvEFAx3t40_BQxELpV_2S_ZhOwVCc5gek5U9VSN1nFX8I=w408-h596-k-no,6.0,92,2025-06-15T23:32:58.365Z,regaleria
Lepico Blanco Textil De Once,Tienda de ropa,,Collinet,,Olavarría,Provincia de Buenos Aires,-36.8944189,-60.3435733,,8,https://streetviewpixels-pa.googleapis.com/v1/thumbnail?panoid=Kyv22zuYWIpWbKCtuJaBQQ&cb_client=search.gws-prod.gps&w=408&h=240&yaw=227.9222&pitch=0&thumbfov=100,1.0,0,2025-06-15T23:32:58.297Z,blanqueria
Aquiles Paseo de Compras,Tienda de regalos,,Vicente López 3028,+54 2284 41-4105,Olavarría,Provincia de Buenos Aires,-36.8917091,-60.3212152,4.8,1,https://lh3.googleusercontent.com/gps-cs-s/AC9h4noXCjwhhizV8MX85-WP9U3EPeg9a0m0WyIOTalOIM7ov2hYrRh7G6la8aaNx6vYCfCbmHPSW0G27aQAWoy92k8mMnmyhfsdzoEeai0fduVI0RiS2OPekbZFVrkPRd1n6iTUkCa4Xg=w408-h306-k-no,23.0,61,2025-06-15T23:32:58.365Z,regaleria
"Muebles y Artesanías de Algarrobo y Ropa de Blanco ""El Cardenal""",Tienda de muebles,,Moreno 2658,+54 2284 42-7656,Olavarría,Provincia de Buenos Aires,-36.8955443,-60.3226236,4.9,7,https://lh3.googleusercontent.com/p/AF1QipPbonT3ISJCDAVUUYjg-k9uD5_fP1Y-K1d4-53k=w408-h340-k-no,325.0,52,2025-06-15T23:32:58.297Z,blanqueria
Pama Blanqueria,Tienda de ropa de hogar,,Av. Colón 4436,+54 2284 51-2064,Olavarría,Provincia de Buenos Aires,-36.9010173,-60.3038276,,6,https://streetviewpixels-pa.googleapis.com/v1/thumbnail?panoid=0Gt4Ysyz5FXcEGjA5U5yKA&cb_client=search.gws-prod.gps&w=408&h=240&yaw=242.23488&pitch=0&thumbfov=100,1.0,0,2025-06-15T23:32:58.297Z,blanqueria
Colchones y blanqueria,Colchonería,,"Avenida Ituzaingó 1483 y, España 2762",+54 2284 24-6016,Olavarría,Provincia de Buenos Aires,-36.8944103,-60.3436326,4.1,5,https://lh3.googleusercontent.com/gps-proxy/ALd4DhGIFf9zQFC7CcBusrVBX52I90GAIGKMUobHUUxYFuqydlwxw3h3WtoEA9HSYf8N1xcSERxZnf5dhd1-AnnQ9Ahm2RZGs_sQxkuokSEb1NDwxrcmRXDGMqXmnaE-U8OFlVM3inLOrYokEII6iz8rrx6yoL5KpUhZ9ux_e6EcdBtH1ml7U1pFp8E4RIbGG5mGQGwtXX0=w408-h306-k-no,14.0,73,2025-06-15T23:32:58.297Z,blanqueria
Blancoie,Tienda de ropa de cama,,9 de Julio 3044,+54 2284 47-8934,Olavarría,Provincia de Buenos Aires,-36.8955694,-60.3163606,4.5,4,https://lh3.googleusercontent.com/gps-cs-s/AC9h4npOwidawlbAjg7Y4kaAtbD_IGhqYDHJpYmjn3AlLcvhRc0rAf_hlApPnRL2ibLqVBbKljqkaexmPDEGOqDlvuHyM0-DCt4pvBfMcfH8PqH9KWCjZcWxMGfBYMJPEb6aIxspg9I3=w408-h544-k-no,11.0,2,2025-06-15T23:32:58.297Z,blanqueria
Naveiro Blanco Hogar,Tienda de ropa de cama,,Vicente López 2687,+54 2284 42-5599,Olavarría,Provincia de Buenos Aires,-36.893822,-60.3242695,5.0,2,https://streetviewpixels-pa.googleapis.com/v1/thumbnail?panoid=cLxgo2BC2e7Kl2RQvQ-xfA&cb_client=search.gws-prod.gps&w=408&h=240&yaw=312.60004&pitch=0&thumbfov=100,1.0,3,2025-06-15T23:32:58.297Z,blanqueria
Husqvarna Taller Cuni Gonzalez,Taller de maquinaria,https://www.guia-dorada.com.ar/guia/aviso-motosierras-venta-reparacion-repuestos-en-olavarria-buenos-aires-21102.html,Av. Pellegrini 2143,+54 9 2284 55-1488,Olavarría,Provincia de Buenos Aires,-36.9106557,-60.3128773,4.6,6,https://lh3.googleusercontent.com/p/AF1QipO7xZDWdNezNm9uUMeCWdsFVv_fGwibZtq7OFJc=w408-h306-k-no,36.0,26,2025-06-15T23:32:59.380Z,maquinaria
Tecnópolis Olavarría,Tienda de informática,https://tecnopolisolavarria.com/,San Martín 2821,+54 2284 41-1600,Olavarría,Provincia de Buenos Aires,-36.8940024,-60.3220037,4.5,4,https://lh3.googleusercontent.com/gps-cs-s/AC9h4nq8LKUnaDjUO22RC6q39zEhvilKOtMFEtdYsN6HGqISRtkuTN3zA1SK8pyaYhF5vYg22ipkfaqQeomLBhL0D8v6Py1YynxEqgE2qUMhdmBdYQzjFINHbQI3lOff8PB3HbJHfQA=w408-h395-k-no,6.0,42,2025-06-15T23:31:29.855Z,tecnologia
Box Store,Outlet,,Manuel Leal 1642,+54 2284 53-7166,Olavarría,Provincia de Buenos Aires,-36.912489,-60.3186452,,10,https://lh3.googleusercontent.com/p/AF1QipP960Uw_onJrttpnzqWdOke5DcRyIyG6C6x93pm=w408-h885-k-no,3.0,0,2025-06-15T23:33:13.549Z,telefonia
Agritronics S.A.,Oficinas de empresa,http://www.agritronics.com.ar/,,+54 2284 52-1177,Olavarría,Provincia de Buenos Aires,-36.9045255,-60.2744495,,48,,,0,2025-06-15T23:33:00.771Z,maquinaria
Ers comunicaciones store argentina,Distribuidor de equipos de telecomunicación,https://sites.google.com/view/erscomunicaciones/inicio,Vélez Sarsfield 3729,+54 11 5698-4448,Olavarría,Provincia de Buenos Aires,-36.903284,-60.318717,5.0,5,https://lh3.googleusercontent.com/p/AF1QipP_VKxknaJDeQtpGAmScys1Jnkmame3hHodVJHJ=w408-h274-k-no,222.0,3,2025-06-15T23:33:13.549Z,telefonia
Olavarría Comunicaciones,Tienda de móviles,,"Barrio Obrero, Juan Moya 2169",+54 2284 41-6904,Olavarría,Provincia de Buenos Aires,-36.9095809,-60.314029,4.3,4,https://streetviewpixels-pa.googleapis.com/v1/thumbnail?panoid=myj7L0bDm7J3dx2C3ViJlw&cb_client=search.gws-prod.gps&w=408&h=240&yaw=310.03168&pitch=0&thumbfov=100,2.0,19,2025-06-15T23:33:13.549Z,telefonia
Remolques Ajr Olavarría,Servicio de remolque,http://remolquesajr.com.ar/,Av. Colón 5124 Local Numero 3,+54 2284 63-3772,Olavarría,Provincia de Buenos Aires,-36.9056617,-60.2981684,5.0,15,https://lh3.googleusercontent.com/p/AF1QipPvUbVAH3H5PYSWGcLcYbH2PH20GheGyJNP9Axl=w408-h306-k-no,239.0,176,2025-06-15T23:32:59.381Z,maquinaria
Todo Rulemán,Tienda de repuestos para automóviles,http://www.todoruleman.com/,Av. del Valle 2952,+54 2284 41-3373,Olavarría,Provincia de Buenos Aires,-36.8989908,-60.3264301,4.6,20,https://lh3.googleusercontent.com/p/AF1QipOXklsqtI4WWg8qSfhtWlP5zkTTsiRe8c_-xlTs=w408-h318-k-no,100.0,175,2025-06-15T23:32:59.381Z,maquinaria
El Arriero Asador Criollo,Parrilla,https://m.facebook.com/arrieroasador.criollo.5,Av. del Valle 3405,+54 2284 41-3030,Olavarría,Provincia de Buenos Aires,-36.9020272,-60.3218611,4.6,6,https://lh3.googleusercontent.com/p/AF1QipNoTZmEyVJZT5N7rHyfUeQ8PsSb7K-wru_eahs=w408-h544-k-no,30.0,221,2025-06-15T23:33:14.959Z,venta
Vazzano Remates,Tienda de muebles,https://www.facebook.com/rematesvazzano,Av. Urquiza 1850,+54 2284 44-4646,Olavarría,Provincia de Buenos Aires,-36.9083707,-60.3202103,4.4,5,https://lh3.googleusercontent.com/p/AF1QipO6OXJsCgDHI1mN1OvJjrQdgZGtc05oSTVfnLGq=w408-h389-k-no,42.0,145,2025-06-15T23:33:14.959Z,venta
El Manu Materiales rurales,Establecimiento de venta de madera,,Au L. Fortabat 6427,+54 2284 30-3183,Olavarría,Provincia de Buenos Aires,-36.92202,-60.2974232,4.9,4,https://lh3.googleusercontent.com/p/AF1QipOwGte0YDxC4Iwmn-n4QyyZZSp-aFoS8jn-jacW=w408-h305-k-no,11.0,35,2025-06-15T23:33:14.959Z,venta
Detalles Salon de Eventos,Empresa de organización de eventos,,San Luis 1851,+54 2284 64-4816,Olavarría,Provincia de Buenos Aires,-36.9289913,-60.2954794,4.6,11,https://lh3.googleusercontent.com/p/AF1QipN9Tl08zgVP2CSmhWuEFYlMoykKO43nExohSMLg=w408-h544-k-no,97.0,31,2025-06-15T23:33:16.187Z,regaleria
RAPIPAGO INDUMENTARIA REGALERÍA KIOSCO,Tienda de ropa,,Av. Avellaneda 4636,+54 2284 53-2017,Olavarría,Provincia de Buenos Aires,-36.9184508,-60.3223199,,10,https://lh3.googleusercontent.com/p/AF1QipPMnmJFYykY_p95nG5mS0PWsJchSnSGbEgMKHx-=w408-h510-k-no,3.0,0,2025-06-15T23:33:16.187Z,regaleria
Regalería Kiosco,Tienda de alimentación,,"EIM, Laprida 1085",,Olavarría,Provincia de Buenos Aires,-36.9120561,-60.3287984,,8,https://streetviewpixels-pa.googleapis.com/v1/thumbnail?panoid=VjsLDaiWqFqi6rv9dWAA1Q&cb_client=search.gws-prod.gps&w=408&h=240&yaw=307.05518&pitch=0&thumbfov=100,1.0,0,2025-06-15T23:33:16.187Z,regaleria
cTAE - Centro de Tecnologías Ambientales y Energía,Oficinas de empresa,https://www.fio.unicen.edu.ar/vyt/ctae/,Av. del Valle 5737,+54 9 2284 67-0320 ext. 7282,Olavarría,Provincia de Buenos Aires,-36.9153975,-60.3013082,,10,https://streetviewpixels-pa.googleapis.com/v1/thumbnail?panoid=ED49IeGOWK9is_NUknyiog&cb_client=search.gws-prod.gps&w=408&h=240&yaw=145.85606&pitch=0&thumbfov=100,1.0,0,2025-06-15T23:32:58.626Z,tecnologia
Más muebles y cosas,Fábrica de muebles,,Juan Moya 2480,+54 2284 57-0929,Olavarría,Provincia de Buenos Aires,-36.9076308,-60.3109058,,40,https://lh3.googleusercontent.com/p/AF1QipOuQO9d2Jb5VGfqJsFjfm8ywM8_bWoBLHnLWWqK=w408-h306-k-no,257.0,0,2025-06-15T23:33:16.528Z,muebles
Detalles,Tienda de artículos para el hogar,https://detallesdeco.ar/,Vicente López 2612,+54 2284 42-3489,Olavarría,Provincia de Buenos Aires,-36.8944679,-60.324553,4.3,12,https://lh3.googleusercontent.com/gps-cs-s/AC9h4nrUTFbqc8P8RfF0WjHSrRcSn--PHxPQWt_h8-PIOEwogj_FKcsYQ-41hBAhM8FMDH5l-xu04zyhUbJsDmGStWcu-jr7MdyZ6u6ZbJlCb999DY3Qj0PVkG8v7OuYY1uAxX1bZl3w=w408-h544-k-no,81.0,16,2025-06-15T23:32:58.366Z,regaleria
El cardenal Agustin,Tienda de muebles,,Buchardo 3045,+54 2281 56-8888,Olavarría,Provincia de Buenos Aires,-36.9020644,-60.3287121,3.0,39,https://streetviewpixels-pa.googleapis.com/v1/thumbnail?panoid=9RrVr2d_-o4VzGzQudVKqw&cb_client=search.gws-prod.gps&w=408&h=240&yaw=39.69092&pitch=0&thumbfov=100,1.0,1,2025-06-15T23:33:16.528Z,muebles
Venyve_deco,Tienda de regalos,,Av. Pellegrini 1954,+54 9 2284 54-8476,Olavarría,Provincia de Buenos Aires,-36.9115241,-60.3146958,,5,https://lh3.googleusercontent.com/p/AF1QipOLpweJkRuTjci6R5efaYRKKxboAUl0vgFn6kYg=w408-h544-k-no,4.0,0,2025-06-15T23:33:16.187Z,regaleria
Kiosco Ulises,Juguetería,https://m.facebook.com/pages/category/Toy-Store/Kiosco-Ulises-100793844615826/,Av. Urquiza 1500-1600,,Olavarría,Provincia de Buenos Aires,-36.9102453,-60.3231021,4.6,4,https://lh3.googleusercontent.com/gps-cs-s/AC9h4np7qnXplGVElgQ1RPynVW7TchuvSr-NFXTucaXetbD7TtUAD9LDi8T5c4dTe5agaqlS-QLngtVHDcT32UN0OD8lHw2DhsAbW-hBY3wMbxA3_P8MzJ3LRNfkVgdt5L-go_VdGlTkzA=w408-h306-k-no,143.0,68,2025-06-15T23:33:16.187Z,regaleria
Muebleria en algarrobo G & G,Tienda de bricolaje,,Av. Urquiza 2579-2600,+54 2284 42-1581,Olavarría,Provincia de Buenos Aires,-36.9032452,-60.3142658,3.6,18,https://streetviewpixels-pa.googleapis.com/v1/thumbnail?panoid=8_Ft8npLWa_I45LbbHN3eQ&cb_client=search.gws-prod.gps&w=408&h=240&yaw=331.55374&pitch=0&thumbfov=100,1.0,5,2025-06-15T23:33:15.335Z,muebles
Suc. Oscar Aita,Tienda de mobiliario de oficina,,"Olavarría Buenos Aires AR, Bolívar 2663",+54 2284 54-0581,KCI,Provincia de Buenos Aires,-36.8954781,-60.3267125,4.6,14,https://lh3.googleusercontent.com/gps-cs-s/AC9h4nr-T6P2BdnnPWVUa6o-g9nTmmu92HU9k7DbdeUgjK0H1I1iwR0Iw1YV7CKOtY8wAibF1LgfpB9k6Z1Whh0iQz9c_oc04hVR9l-NrWtUOef6jfzWAXaB0vKlPCFA6Js_ltW8Fz48FzSaWqeV=w408-h544-k-no,34.0,5,2025-06-15T23:33:15.335Z,muebles
Pinomar,Tienda de artículos para el hogar,,Av. Avellaneda 3885,+54 2284 42-5910,Olavarría,Provincia de Buenos Aires,-36.9130347,-60.3284948,4.6,15,https://lh3.googleusercontent.com/p/AF1QipMIY2UWdJlGTyiqFYe6K_2JbbKL4bk9vUUGSJ0q=w426-h240-k-no,13.0,41,2025-06-15T23:33:15.335Z,muebles
TODOPINO,Tienda de muebles de pino,,Av. Colón 4180,+54 2284 58-2258,Olavarría,Provincia de Buenos Aires,-36.8990797,-60.3059107,5.0,11,https://lh3.googleusercontent.com/p/AF1QipNQG1QTiQ4dX1OB41Qg8cD9EyoQvg4GDs5bIMSz=w408-h684-k-no,32.0,1,2025-06-15T23:33:15.335Z,muebles
Florida_muebles,Tienda de muebles,,Av. del Valle 3400,+54 2284 54-9505,Olavarría,Provincia de Buenos Aires,-36.9021551,-60.3224813,5.0,8,https://streetviewpixels-pa.googleapis.com/v1/thumbnail?panoid=MS-O2i9LnpyryLTOaRbP_Q&cb_client=search.gws-prod.gps&w=408&h=240&yaw=244.91513&pitch=0&thumbfov=100,1.0,1,2025-06-15T23:33:15.335Z,muebles
"""pino Olavarría""",Tienda de muebles,,Av. Pellegrini 2315,+54 2284 52-8426,Olavarría,Provincia de Buenos Aires,-36.9092911,-60.3111089,4.4,7,https://lh3.googleusercontent.com/gps-cs-s/AC9h4npTuNzsTdgNZSe2rVABCmvJfJ68f4jwaXij5FF6yvhGOSmpewUxRGKNsdS-mVRtHTplpuborMxClgjFm8X3UDtAt1nRQ1kAJaZrlG249mWAZdQlGLJS-5E7KzIw3REBg1FE6PpmxA=w408-h306-k-no,20.0,5,2025-06-15T23:33:15.335Z,muebles
EL ARTE DEL SILLON,Tienda de muebles,,Av. del Valle 3260,+54 2284 69-9299,Olavarría,Provincia de Buenos Aires,-36.9010244,-60.3239013,4.9,6,https://lh3.googleusercontent.com/p/AF1QipMbHlsF1ouYm6GlUnckKwd0uCN6qaTJ0pswkYQs=w408-h408-k-no,2.0,7,2025-06-15T23:33:15.335Z,muebles
Madero Muebles,Tienda de muebles,,,,Olavarría,Provincia de Buenos Aires,-36.9057963,-60.3168547,5.0,2,https://streetviewpixels-pa.googleapis.com/v1/thumbnail?panoid=ufI9-u0OcFQYrA6rJ73yLQ&cb_client=search.gws-prod.gps&w=408&h=240&yaw=114.181946&pitch=0&thumbfov=100,1.0,3,2025-06-15T23:33:15.334Z,muebles
Casa Bouciguez S.A,Tienda de materiales para la construcción,https://www.casabouciguez.com.ar/?ref=admin_header,Independencia 2350,+54 2284 33-2982,Olavarría,Provincia de Buenos Aires,-36.8907926,-60.3334815,4.5,45,https://lh3.googleusercontent.com/p/AF1QipPeKbxMDRFAeX-n-QjDW8ftZ3gu_xW8CTgeVy0c=w408-h272-k-no,65.0,470,2025-06-15T23:33:02.099Z,muebles
Carpintería Pellegrini,Tienda de muebles,,Av. Pellegrini 2026,+54 2284 71-7720,Olavarría,Provincia de Buenos Aires,-36.9111533,-60.3140589,4.7,46,https://lh3.googleusercontent.com/gps-cs-s/AC9h4nqb2b6ie88-uHR9MQ8NkdQ69YZ6PZ4TsHN1gnaFc3fn9xiZgczo1_43j_P3GeSjs_QXqmI9uLR1vSlXdKsNYFs2fq2HXbIfFcKgAADnSoRdffyC4KaPUj4SGtGxjD1BGfVP9lvx=w408-h544-k-no,7.0,7,2025-06-15T23:33:17.717Z,muebles
Tapicería EL TURCO,Tienda de muebles,,Av. Pueyrredón 3324,,Olavarría,Provincia de Buenos Aires,-36.9054441,-60.3282871,5.0,48,https://streetviewpixels-pa.googleapis.com/v1/thumbnail?panoid=dQkhWPn1yr2FyaK5dwkXzg&cb_client=search.gws-prod.gps&w=408&h=240&yaw=230.9067&pitch=0&thumbfov=100,1.0,7,2025-06-15T23:33:17.717Z,muebles
CyS Muebles de Pino,Tienda de muebles,,,+54 2284 58-4538,Olavarría,Provincia de Buenos Aires,-36.9123809,-60.2905698,,45,https://lh3.googleusercontent.com/p/AF1QipOPlHHyLsnIhHsT8gAQApsvBYqQSdi5aWo-4q9S=w408-h306-k-no,11.0,0,2025-06-15T23:33:17.717Z,muebles
Rodriguez Nestor Juan Muebles Para Oficina y Computacion,Tienda de informática,,Vélez Sarsfield 2656,+54 2284 44-0430,Olavarría,Provincia de Buenos Aires,-36.8961507,-60.3279098,4.4,42,https://streetviewpixels-pa.googleapis.com/v1/thumbnail?panoid=LYiy3W0VQyPl3RecN5iQXg&cb_client=search.gws-prod.gps&w=408&h=240&yaw=218.47092&pitch=0&thumbfov=100,1.0,19,2025-06-15T23:33:17.717Z,muebles
Pasquini Vial,Empresa constructora,,Av. Alberdi 3765,+54 2284 30-5733,Olavarría,Provincia de Buenos Aires,-36.8750439,-60.3292858,,28,https://streetviewpixels-pa.googleapis.com/v1/thumbnail?panoid=ksn5me9ujMkClGKkcQFvsA&cb_client=search.gws-prod.gps&w=408&h=240&yaw=318.56525&pitch=0&thumbfov=100,1.0,0,2025-06-15T23:33:18.728Z,maquinaria
El Coco Vazzano,Tienda de muebles de segunda mano,,"Villa Floresta, Amparo Castro 1580",+54 2284 41-4746,Olavarría,Provincia de Buenos Aires,-36.9069864,-60.3267632,4.0,41,https://lh3.googleusercontent.com/gps-proxy/ALd4DhH07DRnr5AjWVcpQk9cDmXpTO0V7l5DDVjyxIsIvsZLUsaVseHBwUHLORTTwDrroCQtJhiFvD38mS6jyO7pF6H-DKuwBjzjqVnibKbXNbqUgmv70OTih_MVtMAj0JBAYHHqupZuOOeCCs1DTzmZBIwYmlpjj_x_cX41p4-qxCCCO9oj8f1WJl554Hnv35-uRA-EfTc=w408-h306-k-no,2.0,3,2025-06-15T23:33:17.717Z,muebles
TANA RESPALDOS,Carpintería,https://tanarespaldos.empretienda.com.ar/,Aguilar 1044,,Olavarría,Provincia de Buenos Aires,-36.9109155,-60.3305667,1.0,38,https://streetviewpixels-pa.googleapis.com/v1/thumbnail?panoid=JTxO6r10ENsDJ1W8_mEWDw&cb_client=search.gws-prod.gps&w=408&h=240&yaw=319.24228&pitch=0&thumbfov=100,1.0,1,2025-06-15T23:33:16.528Z,muebles
Casa Silvia (PIO V),Tienda de artículos para el hogar,http://www.casasilvia.com/,Los Gladiolos 4135 PIO V,+54 810-222-2424,Olavarría,Provincia de Buenos Aires,-36.9075147,-60.2776469,4.5,44,https://lh3.googleusercontent.com/p/AF1QipOiG7ATaCrMxP8699Dtu6JEhnAvr9XMmwv6qt5g=w440-h240-k-no,36.0,51,2025-06-15T23:33:17.717Z,muebles
Tienda Flex Planta Industrial,Tienda de artículos para el hogar,http://www.tiendaflex.com.ar/,Pablo Fassina 6890,+54 11 3242-5430,Olavarría,Provincia de Buenos Aires,-36.9087281,-60.2755389,5.0,43,https://lh3.googleusercontent.com/gps-cs-s/AC9h4nqdPyV5Bpx6rqOJ5Xk9eieD3fJetkJsJEPPUy8Yt1bek346y_nRcRpjyN0OViO-r70ytxixua5XIX2xlFVxmnx59Op9Irx0KpR6tANFYUoKgZqd9-SEjpu7iIWL4RY4LfGOzZs=w408-h725-k-no,11.0,3,2025-06-15T23:33:17.717Z,muebles
Lumi,Tienda de muebles de cocina,http://www.lumiamoblamientos.com.ar/,"Complejo ""AREA 226"" Galpón 3, Local 1",+54 2284 41-8001,Olavarría,Provincia de Buenos Aires,-36.8973512,-60.2850084,4.7,19,https://lh3.googleusercontent.com/gps-proxy/ALd4DhH_NgfnAnAbMNuPB7--SoqEweXLzN6794Gc57s4TORLRAs7TlxI40vlwRCWK_WzxwLOfuoHWGKeHkXGvrVkpajUiTiiitM9bo2uaLPvuWBSxAPUd2Xf-HThlkbNs59EBa3_kwDvo-HS8_i1QRqmjI7SLnxRN34-a6bSqpAH7fUNdq1DDNxlqZJCaKM4IDrFLFp4dr4=w408-h306-k-no,4.0,3,2025-06-15T23:33:15.335Z,muebles
La Casa del Soñador,Colchonería,http://xn--blancodelsoador-8qb.com.ar/,España 2760,+54 2284 24-6016,Olavarría,Provincia de Buenos Aires,-36.8961553,-60.3201605,4.6,3,https://lh3.googleusercontent.com/gps-cs-s/AC9h4noVyc82UuOgwdEHlMa2f2KRO5ZXdBaG9og5OBLzt_XEItGV_P5O1Rnm4MZX8egLx56AGGwOXxLrX7FyuaQfUiJ0lTCX8xTumdhJLeKCRv4RUnyZ6lPZAGxarWc85GBDr2IsjEM=w408-h544-k-no,16.0,39,2025-06-15T23:32:58.297Z,blanqueria
Nuevas Hogar Olavarría,Tienda de electrodomésticos,https://www.nuevashogar.com.ar/,Vicente López 2406,+54 2284 55-2230,Olavarría,Provincia de Buenos Aires,-36.8957343,-60.326208,4.4,37,https://lh3.googleusercontent.com/gps-cs-s/AC9h4nokBuFlKQTQKbpjPcLAUNCo8oidqcDJC_eVyRPmJWzHr30HwukuslkqzEIQDc0w3Sl3qNwp2iU3B5weBh_IzBaLF_qq6zwgAcd9eMIxU0kgzEAXjs04UJTYZRdxKEt_iMvhc6TYbQ=w408-h544-k-no,33.0,58,2025-06-15T23:33:16.528Z,muebles
AS Estufas Olavarría,Tienda de estufas de leña,,Av. Avellaneda 3043,+54 2284 41-1312,IDH,Provincia de Buenos Aires,-36.9073266,-60.3353933,4.6,4,https://lh3.googleusercontent.com/gps-proxy/ALd4DhFd4WRhGVsx7ssEfdz_WkFn8lesL0b-_FaM1CZSXlIThpBeHfGEAFhgBF1P8r10I537TWiuTv_JCJ3UFTJYLAE4It1jkaMciwnzqCnruoXt_0tC0rRoE5zCf5kDgFJG7OnikOT_yG0M6otgQvXnsbZv3-9LYJZQtqzr2SYA_Z73-FLUoAqQz3bZwVawVUHJIpW3qg=w408-h306-k-no,20.0,14,2025-06-15T23:33:23.983Z,venta online
Tu Silla,Tienda de muebles,https://tiendatusilla.com.ar/,Av. Pellegrini 1051,+54 2284 61-4776,Olavarría,Provincia de Buenos Aires,-36.9174193,-60.3223778,4.4,5,https://lh3.googleusercontent.com/p/AF1QipNERQwrMDporyv6SMZ6rKsO16JT8gY34ykJJYhv=w408-h405-k-no,35.0,29,2025-06-15T23:33:15.335Z,muebles
Tienda Online Olavarria,,https://sites.google.com/view/tiendaonlineolavarria/click-ac%C3%A1,Antártida Argentina 606,+54 2284 68-2953,Olavarría,Provincia de Buenos Aires,-36.9216721,-60.3252263,,3,https://streetviewpixels-pa.googleapis.com/v1/thumbnail?panoid=-6h2QDHryQH3k3hm5fcGYQ&cb_client=search.gws-prod.gps&w=408&h=240&yaw=177.16779&pitch=0&thumbfov=100,1.0,0,2025-06-15T23:33:23.983Z,venta online
185 Motos-ATV,Concesionario de motos,http://www.facebook.com/185motos,Rivadavia 1940,+54 2284 41-6686,Olavarría,Provincia de Buenos Aires,-36.899603,-60.3294908,4.6,35,https://lh3.googleusercontent.com/gps-proxy/ALd4DhFo0exnWCL2VVo_RX-6BFsP6GOasOqUVLpKteQ6rCA9pHucnUhdK8y-sioAkHb5dRcarWP0CQdV05OzH7Q0PZ_TM9P1N3AyM9DB8GBDm5Pxu_ps3kqd1ci5AcV3yJhCkXfyQPQI6LCK5oyU77lSadmKeOEo6-E5lUZiNgM-d50Ni5_gx-YnHNWw-WeFntHFYRIbixs=w408-h306-k-no,4.0,33,2025-06-15T23:33:25.316Z,venta online
El Matungo Carnada y pesca,Tienda de artículos de pesca,,Av. Avellaneda 4031,+54 2284 71-2285,Olavarría,Provincia de Buenos Aires,-36.9143859,-60.3273932,4.7,34,https://lh3.googleusercontent.com/gps-cs-s/AC9h4nqfFsSL8V8QTfX96WV9vQFCuOqinMH2iPH88LgsZmJVt-FMetEFUqEktnVNKkCCL9VxLLtGEnkVEwlerE0sm_LjkRWjLyMONb1OfFroMpG4cUbWX7Kvt0_O9HNF8oHCHS7706oIMQ=w426-h240-k-no,15.0,88,2025-06-15T23:33:25.316Z,venta online
Lanas Electra,Mercería,,"Av. del Valle 4025, B7400JVE",,Olavarría,Provincia de Buenos Aires,-36.9060223,-60.3166875,4.8,32,https://lh3.googleusercontent.com/gps-cs-s/AC9h4nqcB6QKae4OQ_NctzVdt8-EquTdt--qZI08C_7lgmE-t8ZtriWtQLURBY22qobPwv7HRQBUHM29elep9FBj_erCYATIdenl2IGRUe8GJHEAppnnGIPXJtbpKhWJPeYl1LTn-lLw=w426-h240-k-no,6.0,30,2025-06-15T23:33:25.316Z,venta online
Sweet Ness S.a.,Comercio,,Av. Urquiza 1746,,Olavarría,Provincia de Buenos Aires,-36.9087059,-60.3212662,4.6,25,https://streetviewpixels-pa.googleapis.com/v1/thumbnail?panoid=KbbcDBZhb4DfzhhV_3D-lw&cb_client=search.gws-prod.gps&w=408&h=240&yaw=307.6568&pitch=0&thumbfov=100,1.0,10,2025-06-15T23:33:25.316Z,venta online
"Rent-all - Contenedores marítimos, bauleras y alquiler de hidrogrúa",Proveedor de maquinaria de construcción,http://www.capitanich.com/,Av. Alberdi 2299,+54 2284 23-7462,Olavarría,Provincia de Buenos Aires,-36.8849193,-60.341468,5.0,13,https://lh3.googleusercontent.com/p/AF1QipNUouaOFLhlFKuR27_5x-lYgVi2Bw8rNZSbUqTW=w532-h240-k-no,8.0,2,2025-06-15T23:33:18.235Z,maquinaria
Aires acondicionados Olavarría,,,,,Olavarría,Provincia de Buenos Aires,-36.8937167,-60.3233499,,34,https://streetviewpixels-pa.googleapis.com/v1/thumbnail?panoid=w3r34KPsG10L8AZso_otbw&cb_client=search.gws-prod.gps&w=408&h=240&yaw=131.25172&pitch=0&thumbfov=100,1.0,0,2025-06-15T23:33:28.937Z,maquinaria
Springwall,Tienda especializada en camas,http://www.springwall.com.ar/,España 2760,+54 2284 41-6041,Olavarría,Provincia de Buenos Aires,-36.8961559,-60.3201613,4.5,33,https://lh3.googleusercontent.com/gps-proxy/ALd4DhEcqPbDiTNdvbTuzN8NXJvrXoM6QL6y8qbmwVyCpa_SAlJ8UWcs5qrJ5cIAdgWt25J-xXQaIA7Gue9Y5FCGZfAmrsKOeQaCbjOKilgxyNvWOocvBefO6TCADqYW7KooZS1HUswF2y3Nif4ulaU5Gv3XWR6nSSQQuXqHbhl77r4oDYJwnZYEyXRMt_IQiMjCxOpimK4=w408-h306-k-no,10.0,36,2025-06-15T23:33:25.316Z,venta online
Electricidad Colores,Tienda de electricidad,,"Villa Floresta, Av. del Valle 3564",,Olavarría,Provincia de Buenos Aires,-36.9031486,-60.3211559,5.0,19,https://lh3.googleusercontent.com/gps-proxy/ALd4DhFBlnKundyHISYF3jSapSF_hg2Dg-Ww5MjakubZcua5mr7NQTs_sEh8szQ7sv1WndI7OVOXt9AEDb6apYzikRKsBkBBtkDst0IY3wm096G13_rHFZH7NI7EQFl7-Bt27ZtmV8tsBQnclT8cfD8fNOpe9kn3pDb_xmOmAAmuHXlEbzJ4X6osHdny6EOkmvT0EB9WRw=w408-h306-k-no,3.0,6,2025-06-15T23:33:34.429Z,venta online
Infracom Coopelectric,Proveedor de servicios de Internet,http://infracomcoopelectric.com.ar/,Belgrano 2800,+54 2284 41-9990,Olavarría,Provincia de Buenos Aires,-36.893397,-60.3215419,2.4,9,https://lh3.googleusercontent.com/p/AF1QipNSaBCqDLK2U3ImZL8R9atD3uJFFoSkXy-mbdF_=w426-h240-k-no,14.0,131,2025-06-15T23:33:13.549Z,telefonia
Finning Cat - Sucursal Olavarría,Proveedor de maquinaria de construcción,https://www.finning.com/es_AR/contact/branch-locator/sucursal-olavarria.html,Autopista Luciano Fortabat 6550 (7400,+54 2284 45-2552,CABA,CABA,-36.9229444,-60.2970047,4.5,7,https://lh3.googleusercontent.com/gps-cs-s/AC9h4nqaBOXgWF6uxtSk6KYPmek7OAKP3tpoZtK2g-Wedj8uLYfc3m5PPfPH2OhDsX0fpeCVScAIuJQZ0vEHsNFoRK1C9-BlUEQNOrltHqVJ9OGv2IT0ayOPOg7plmLT6e9ffsD15PMa=w408-h306-k-no,10.0,30,2025-06-15T23:32:59.380Z,maquinaria
