title,categoryName,website,street,phone,city,state,location/lat,location/lng,totalScore,rank,imageUrl,imagesCount,reviewsCount,scrapedAt,searchString
Lippo Anibal Jose - Alarmas Electricidad - Telefonia,Proveedor de sistemas de seguridad,,"AMT, Almte. Brown 924",+54 2297 44-2299,Rauch,Provincia de Buenos Aires,-36.7754558,-59.0826427,4.2,1,https://streetviewpixels-pa.googleapis.com/v1/thumbnail?panoid=bUbhacBRvCd3L4yrwRQQ2Q&cb_client=search.gws-prod.gps&w=408&h=240&yaw=113.724266&pitch=0&thumbfov=100,1.0,9,2025-06-15T22:40:08.097Z,telefonia
"Impacto Digital, Soluciones Informáticas y Digitales",,,Av. San Martín 419,+54 249 421-8587,Rauch,Provincia de Buenos Aires,-36.776353,-59.090975,4.8,10,https://lh3.googleusercontent.com/gps-cs-s/AC9h4nqXnFluDYACF33FzaudKcyCNENV8DgLNYo-bPSa9GgcqteptjpGw3rb2vqm7LeHUBFP9M2Rt1W0U7LGG8NTVNn74hQm--uwPiqInsjhj_7LpV8HjEy-ULOzxQHLOoOJh-ErnQItsg=w408-h305-k-no,204.0,5,2025-06-15T22:40:10.238Z,muebles
La Casa del Colchón,Colchonería,,,,Rauch,Provincia de Buenos Aires,-36.7804546,-59.0844999,,8,https://streetviewpixels-pa.googleapis.com/v1/thumbnail?panoid=CgAQDTDW_sM1IBqEEr0Fog&cb_client=search.gws-prod.gps&w=408&h=240&yaw=225.93054&pitch=0&thumbfov=100,1.0,0,2025-06-15T22:40:10.238Z,muebles
Carpintería NAM SH,Fábrica de muebles,http://www.carpinterianamsh.com/,"Eduardo Rodriguez S/N Esquina, Av. San Martín",+54 249 435-9919,Rauch,Provincia de Buenos Aires,-36.7803401,-59.0955693,,7,https://lh3.googleusercontent.com/p/AF1QipO653xJnhGyj3jOJZhFArJ62KfoLxnY_d-gjxxq=w408-h408-k-no,11.0,0,2025-06-15T22:40:10.238Z,muebles
ZZELLA HOGAR,Tienda de muebles,,Av. San Martín 555,,Rauch,Provincia de Buenos Aires,-36.7754341,-59.0898565,,6,https://streetviewpixels-pa.googleapis.com/v1/thumbnail?panoid=yNJ0Z5aMpErZsEIIgGxwFQ&cb_client=search.gws-prod.gps&w=408&h=240&yaw=306.13815&pitch=0&thumbfov=100,1.0,0,2025-06-15T22:40:10.238Z,muebles
MUEBLE MITRE,Tienda de muebles,,Letamendi 425,,Rauch,Provincia de Buenos Aires,-36.7772737,-59.089676,,4,https://streetviewpixels-pa.googleapis.com/v1/thumbnail?panoid=oSoY_oNEEMUT9JCnEA6BOA&cb_client=search.gws-prod.gps&w=408&h=240&yaw=348.12253&pitch=0&thumbfov=100,1.0,0,2025-06-15T22:40:10.238Z,muebles
Algarrobo Punta Diamante,Fábrica de muebles,,2 de Abril 61 7203,+54 249 456-0764,Rauch,Provincia de Buenos Aires,-36.7839178,-59.0985749,,3,https://lh3.googleusercontent.com/p/AF1QipPEsJ03kaTHEGP3Sg2PN7B79t4J8pmwkLQFAhyr=w519-h240-k-no,58.0,0,2025-06-15T22:40:10.238Z,muebles
Sillones Arbolito,Tienda de sofás,http://sillonesarbolito.com.ar/,"San Martin, 9 de Julio esquina",+54 249 448-0548,Rauch,Provincia de Buenos Aires,-36.7772698,-59.0921651,5.0,2,https://lh3.googleusercontent.com/p/AF1QipOff0fFAVZl-BkxLX3bpWD3MXX3ZzlUBkC9YSOe=w426-h240-k-no,47.0,11,2025-06-15T22:40:10.238Z,muebles
LF Muebles Hogar,Tienda de artículos para el hogar,,Av. Belgrano 600-648,+54 249 450-5544,Rauch,Provincia de Buenos Aires,-36.7799871,-59.0812366,5.0,1,https://streetviewpixels-pa.googleapis.com/v1/thumbnail?panoid=T15CJSMRHJigDKZp6KKwZA&cb_client=search.gws-prod.gps&w=408&h=240&yaw=235.46631&pitch=0&thumbfov=100,1.0,1,2025-06-15T22:40:10.238Z,muebles
LF ABERTURAS,Fábrica de muebles,https://lfaverturas.com.ar/,Av. Pres. Juan Domingo Perón 381,+54 249 450-5544,Rauch,Provincia de Buenos Aires,-36.7710933,-59.0930434,,9,https://lh3.googleusercontent.com/p/AF1QipOMUahVREVZ9qOxp6OOH2qliRfuvy3XnZF6pyN2=w408-h408-k-no,26.0,0,2025-06-15T22:40:10.238Z,muebles
One Market 24 horas,Supermercado,,,+54 249 464-1605,Rauch,Provincia de Buenos Aires,-36.7782408,-59.0836502,4.4,20,https://streetviewpixels-pa.googleapis.com/v1/thumbnail?panoid=8qOAmKRoYG_Po3TjyvWCTQ&cb_client=search.gws-prod.gps&w=408&h=240&yaw=216.60553&pitch=0&thumbfov=100,1.0,71,2025-06-15T22:40:24.617Z,comercio
Giatti - Fabrica de Pastas,Comercio,,Av. San Martín 346,+54 2297 44-2526,BPQ,Provincia de Buenos Aires,-36.7770646,-59.0914036,4.7,19,https://streetviewpixels-pa.googleapis.com/v1/thumbnail?panoid=JmYRWtgfpTdt7ueov35plA&cb_client=search.gws-prod.gps&w=408&h=240&yaw=122.32245&pitch=0&thumbfov=100,1.0,7,2025-06-15T22:40:24.617Z,comercio
Amar Asociacion Mutual Jub Y Pens,Comercio,,Av. San Martín 360,+54 2297 44-2470,BPQ,Provincia de Buenos Aires,-36.776961,-59.0912775,5.0,18,https://lh3.googleusercontent.com/gps-cs-s/AC9h4npQYAnU5mk2u0e8x3jFo5N-eDfnh8oRGgbkMM82azqCm6cIThohkGZi_eSD_gBRgCDbBdCqeaTj5sng90P2yedbn38gtvyk-SqIhRghw6R5A8nudIYGnvSHFqZ6qdeHDcq5hmc-Iw=w408-h306-k-no,4.0,4,2025-06-15T22:40:24.617Z,comercio
Open 24,Tienda general,,Av. San Martín 331,,Rauch,Provincia de Buenos Aires,-36.7773857,-59.0921592,4.5,17,https://streetviewpixels-pa.googleapis.com/v1/thumbnail?panoid=Ip5G3RAKdRyiNhja5uYUzA&cb_client=search.gws-prod.gps&w=408&h=240&yaw=273.44275&pitch=0&thumbfov=100,1.0,6,2025-06-15T22:40:24.617Z,comercio
Minimercado C Y G,Tienda de alimentación,,Av. Yrigoyen 376,+54 2297 44-3535,Rauch,Provincia de Buenos Aires,-36.7753325,-59.0979019,4.5,16,https://streetviewpixels-pa.googleapis.com/v1/thumbnail?panoid=_4yXjmdPoH1ci3-6UkNxOA&cb_client=search.gws-prod.gps&w=408&h=240&yaw=46.722263&pitch=0&thumbfov=100,1.0,14,2025-06-15T22:40:24.617Z,comercio
Hendel Rauch,Tienda de electrodomésticos,https://www.hendel.com/,Av. San Martín 476,+54 11 6091-7532,BPR,Provincia de Buenos Aires,-36.7761898,-59.090301,4.5,5,https://lh3.googleusercontent.com/gps-cs-s/AC9h4nojX7Zmd66A7gFkSotH539PuXXDRvN1r9vlMbD1_ZdGz55JlUgw7eUD-gQoUTgRZK-ck-epdBcRho52aerh93WiNEPm1muKTw20TW6SnOMR2Fvk71kCvGOzEM6BRsaCIc8FHV5paA=w408-h544-k-no,14.0,87,2025-06-15T22:40:10.238Z,muebles
"Distribuidora Los Teros, venta mayorista y minorista de bebidas",Tienda de bebidas alcohólicas,,Castelli 41,,Rauch,Provincia de Buenos Aires,-36.7783329,-59.0922144,5.0,15,https://lh3.googleusercontent.com/p/AF1QipNQ9TBe5JbTP6yg0dHxFce25TMBcmscKU4HJW54=w408-h544-k-no,31.0,14,2025-06-15T22:40:24.617Z,comercio
Campos Julian - Contenedores,Comercio,,Av. Belgrano 573,+54 2297 44-2714,Rauch,Provincia de Buenos Aires,-36.7796401,-59.081616,4.8,14,https://lh3.googleusercontent.com/gps-cs-s/AC9h4nqzTYZRl7tdqVis9uORelLVh3q3BnbDaPA6yOy-2vr4FXYf0aUajKSWyBeYZJ3_b4rmrY9f_E2trC1W9rPyx_J3glskVSMEExTKqGtbZHVF0kN5uEaOVkVwsQsaLRNBCMS0MKgjIg=w408-h306-k-no,3.0,4,2025-06-15T22:40:24.617Z,comercio
Daniel Carregado,Comercio,,Aveleyra 338,+54 2297 44-3275,Rauch,Provincia de Buenos Aires,-36.7752517,-59.0938719,4.3,13,https://streetviewpixels-pa.googleapis.com/v1/thumbnail?panoid=EdeUvhX6jv9JenJ-B0_z8g&cb_client=search.gws-prod.gps&w=408&h=240&yaw=128.39288&pitch=0&thumbfov=100,1.0,3,2025-06-15T22:40:24.617Z,comercio
despesa y anexo las acacias y Üma ropa informal,Comercio,https://m.facebook.com/despensalasacacias/,7203,,Rauch,Provincia de Buenos Aires,-36.7731278,-59.0971487,5.0,12,https://streetviewpixels-pa.googleapis.com/v1/thumbnail?panoid=GBYvI9SPNhnndc1TtGojoA&cb_client=search.gws-prod.gps&w=408&h=240&yaw=22.227795&pitch=0&thumbfov=100,1.0,4,2025-06-15T22:40:24.617Z,comercio
Palmieri Julio E Hijos,Comercio,,Garralda 260,+54 2297 44-2345,Rauch,Provincia de Buenos Aires,-36.7767339,-59.093429,4.0,11,https://streetviewpixels-pa.googleapis.com/v1/thumbnail?panoid=rFxVQT15Tn_4hF5XqLcwCg&cb_client=search.gws-prod.gps&w=408&h=240&yaw=117.05493&pitch=0&thumbfov=100,1.0,1,2025-06-15T22:40:24.616Z,comercio
Visual Center,Comercio,,Letamendi 417,,Rauch,Provincia de Buenos Aires,-36.7773161,-59.0898046,,10,https://streetviewpixels-pa.googleapis.com/v1/thumbnail?panoid=oSoY_oNEEMUT9JCnEA6BOA&cb_client=search.gws-prod.gps&w=408&h=240&yaw=292.58057&pitch=0&thumbfov=100,1.0,0,2025-06-15T22:40:24.616Z,comercio
Celiberti Enrique Luis,Comercio,,Av. San Martín 338,+54 2297 44-0415,BPQ,Provincia de Buenos Aires,-36.7771237,-59.0914758,4.8,9,https://streetviewpixels-pa.googleapis.com/v1/thumbnail?panoid=WcRcCTy6FmZka8ACpJCMOg&cb_client=search.gws-prod.gps&w=408&h=240&yaw=116.25002&pitch=0&thumbfov=100,1.0,12,2025-06-15T22:40:24.616Z,comercio
Kiosco Lo Del Negro,Tienda de artículos para el hogar,,Av. San Martín 326,,BPQ,Provincia de Buenos Aires,-36.7772125,-59.0915838,4.7,8,https://streetviewpixels-pa.googleapis.com/v1/thumbnail?panoid=UgRNMkENbZ_zaDHZeOZDPw&cb_client=search.gws-prod.gps&w=408&h=240&yaw=139.65396&pitch=0&thumbfov=100,1.0,3,2025-06-15T22:40:24.616Z,comercio
MEGACOMPRAS Rauch,Comercio,,Cnel. Suárez 155,,Rauch,Provincia de Buenos Aires,-36.7772504,-59.0882878,,6,https://lh3.googleusercontent.com/gps-cs-s/AC9h4no3tXntdMQiKuoEPOgf6ly9BU7MUt85St68uzCwZJ2R7hAJUcaak_5m-gVMJfe_WYJDV13nHnWufC8xYdLke9Pz2QxfxFTUqQsccaXG0ayIrcFMXK6vKD-yW_6e56CZ9wyjYFc=w408-h306-k-no,2.0,0,2025-06-15T22:40:24.616Z,comercio
Provenzano Luis,Comercio,,"ACA, Alberti 13",+54 2297 44-2173,Rauch,Provincia de Buenos Aires,-36.7767082,-59.0908077,,7,https://streetviewpixels-pa.googleapis.com/v1/thumbnail?panoid=3IWeGuIyp_P7MQa7yWaxOA&cb_client=search.gws-prod.gps&w=408&h=240&yaw=27.285376&pitch=0&thumbfov=100,1.0,0,2025-06-15T22:40:24.616Z,comercio
El Viejo Almacén,Comercio,,,+54 2297 44-2351,Rauch,Provincia de Buenos Aires,-36.7770906,-59.0885116,4.5,5,https://streetviewpixels-pa.googleapis.com/v1/thumbnail?panoid=h49PUrmrDeSsD9ycaKYi_w&cb_client=search.gws-prod.gps&w=408&h=240&yaw=71.76222&pitch=0&thumbfov=100,1.0,2,2025-06-15T22:40:24.616Z,comercio
Forrajería Cholín,Comercio,,Av. Matheu 440,,Rauch,Provincia de Buenos Aires,-36.7830048,-59.0887596,5.0,3,https://streetviewpixels-pa.googleapis.com/v1/thumbnail?panoid=7dQWtNJWSskodQjh4t8Wog&cb_client=search.gws-prod.gps&w=408&h=240&yaw=215.91989&pitch=0&thumbfov=100,1.0,10,2025-06-15T22:40:24.616Z,comercio
Miguel A Siervo,Comercio,,"ABB, 9 de Julio 62",+54 2297 44-0451,Rauch,Provincia de Buenos Aires,-36.7767021,-59.0926493,5.0,4,https://streetviewpixels-pa.googleapis.com/v1/thumbnail?panoid=Gf08FzRRG00Ziir6a1s30w&cb_client=search.gws-prod.gps&w=408&h=240&yaw=67.19287&pitch=0&thumbfov=100,1.0,1,2025-06-15T22:40:24.616Z,comercio
Ibargoyen Mario Riune Martin Sebastian,Comercio,,"Av H Yrigoyen 446, Rauch, Buenos Aires",+54 2297 44-0379,Rauch,Buenos Aires Sur,-36.7832489,-59.0999985,5.0,2,,,1,2025-06-15T22:40:24.616Z,comercio
Almacén 'Lo Maty',Tienda general,,Juan Silva 327,,Rauch,Provincia de Buenos Aires,-36.7830896,-59.0911519,4.8,1,https://lh3.googleusercontent.com/p/AF1QipMRvSd51mQuCe71zdgOa872Su1zHYIiOlrrx6bp=w426-h240-k-no,38.0,4,2025-06-15T22:40:24.616Z,comercio
Electricidad Landaburu,Taller mecánico,,"Paso 400-498, B7203BGJ",+54 2297 44-2754,Rauch,Provincia de Buenos Aires,-36.774511,-59.0790579,4.8,11,,,30,2025-06-15T22:40:29.825Z,repuestos
Lo De Martin,Tienda de repuestos para automóviles,,,,Rauch,Provincia de Buenos Aires,-36.7721181,-59.0857797,,10,https://streetviewpixels-pa.googleapis.com/v1/thumbnail?panoid=c6Ljr5QUoRm2AreGHRb4xQ&cb_client=search.gws-prod.gps&w=408&h=240&yaw=207.60515&pitch=0&thumbfov=100,1.0,0,2025-06-15T22:40:29.825Z,repuestos
REPUESTOS ALFA,Tienda de repuestos para automóviles,,Av. San Martín,,Rauch,Provincia de Buenos Aires,-36.7725131,-59.0858216,,9,https://streetviewpixels-pa.googleapis.com/v1/thumbnail?panoid=C2rU8ITLyHYkMNatW3X3ww&cb_client=search.gws-prod.gps&w=408&h=240&yaw=119.50373&pitch=0&thumbfov=100,1.0,0,2025-06-15T22:40:29.825Z,repuestos
Jd Repuestos,Tienda de repuestos para automóviles,,Avellaneda,,Rauch,Provincia de Buenos Aires,-36.7678781,-59.0939502,,8,https://streetviewpixels-pa.googleapis.com/v1/thumbnail?panoid=B7E8zxQUaLKBmVFSXD8y8A&cb_client=search.gws-prod.gps&w=408&h=240&yaw=147.29881&pitch=0&thumbfov=100,1.0,0,2025-06-15T22:40:29.825Z,repuestos
Dante Repuestos,Tienda de repuestos para automóviles,,,,Rauch,Provincia de Buenos Aires,-36.779114,-59.0825532,,7,https://streetviewpixels-pa.googleapis.com/v1/thumbnail?panoid=sC0nZo7aHZOXdQYTRfXIrg&cb_client=search.gws-prod.gps&w=408&h=240&yaw=112.54492&pitch=0&thumbfov=100,1.0,0,2025-06-15T22:40:29.825Z,repuestos
Agrorepuestos DAZ,Tienda de repuestos para automóviles,,RP30 y acceso a,+54 249 447-5280,Rauch,Provincia de Buenos Aires,-36.7636433,-59.0884086,5.0,6,https://lh3.googleusercontent.com/gps-cs-s/AC9h4npilYqbVQRIR_uv4xnLcJ-KbSqvHSKXsCwhOCOwoJjuQobGGLofoJvdDYR40rFMeMmOBhgYyESWBGI6me7cF8Dfd9gXLIH-P6M7p9q_XNDAwhayoUGeS4J42_QA13tMw00i_EkA=w408-h544-k-no,4.0,1,2025-06-15T22:40:29.825Z,repuestos
Gonzalez Carlos,Tienda de repuestos para automóviles,,Av. San Martín 999,+54 2297 44-2936,BPJ,Provincia de Buenos Aires,-36.7721069,-59.0856124,5.0,5,https://streetviewpixels-pa.googleapis.com/v1/thumbnail?panoid=-K8nupH2BlIkHqKn9IyQIA&cb_client=search.gws-prod.gps&w=408&h=240&yaw=294.19257&pitch=0&thumbfov=100,1.0,4,2025-06-15T22:40:29.825Z,repuestos
PONTIGGIA HNOS,,,Alberti 32,,Rauch,Provincia de Buenos Aires,-36.7770375,-59.090817,4.0,4,https://streetviewpixels-pa.googleapis.com/v1/thumbnail?panoid=ZVk635ncWjrQWZM0BDPdjQ&cb_client=search.gws-prod.gps&w=408&h=240&yaw=216.70537&pitch=0&thumbfov=100,1.0,1,2025-06-15T22:40:29.825Z,repuestos
Repuestos jd,Comercio,,Av. Alvear 834,+54 249 400-2781,Buenos Aires,Provincia de Buenos Aires,-36.7677616,-59.0941234,4.9,3,https://lh3.googleusercontent.com/p/AF1QipMI71Rpnm1OfJzZW-oC0v-B1_rer-k-XGup2VyI=w426-h240-k-no,4.0,12,2025-06-15T22:40:29.825Z,repuestos
Pontiggia Repuestos,Taller de reparación de automóviles,,"Aveleyra 530, B7203AGL",,Rauch,Provincia de Buenos Aires,-36.7737096,-59.0922974,4.8,2,https://streetviewpixels-pa.googleapis.com/v1/thumbnail?panoid=0KJ0yc4Aa5MUxCi-nyrHlg&cb_client=search.gws-prod.gps&w=408&h=240&yaw=332.61667&pitch=0&thumbfov=100,1.0,5,2025-06-15T22:40:29.825Z,repuestos
LONKING - Megagro,Proveedor de maquinaria de construcción,http://megagrosrl.com.ar/#!/-pagina-principal/,RP30 y acceso a,+54 249 435-9847,Rauch,Provincia de Buenos Aires,-36.7630918,-59.0888991,,2,https://lh3.googleusercontent.com/p/AF1QipPO3FdsxSHqk0XXXUCS0B1tgkl5UCZBqkb1qnRU=w426-h240-k-no,39.0,0,2025-06-15T22:40:28.798Z,maquinaria
Shell,Gasolinera,https://find.shell.com/ar/fuel/10129342-rosa-juana-crocci-de-giliberti/es_AR,"Avenida General Paz, Ruta Prov Nro 30",+54 2297 44-2752,Rauch,Provincia de Buenos Aires,-36.7764663,-59.0765117,4.2,2,https://lh3.googleusercontent.com/gps-cs-s/AC9h4nrxK-fq3Akid4F9HY9eLLcL3ozcfgbp17MvHJ_7_CjL4sBu300EiTKEyma_PHUeYvfDNhdPyaV89ACnbehOmsP52FbEKLImjyV-Aflezkn2z1VJ6mIfbWt8ZO9j8iGNlAWnFI_51w=w408-h725-k-no,58.0,364,2025-06-15T22:40:28.658Z,tienda
Minimercado camile,Tienda de alimentación,,Paulino Petriz,,Rauch,Provincia de Buenos Aires,-36.7803854,-59.086672,,1,https://streetviewpixels-pa.googleapis.com/v1/thumbnail?panoid=8ONA1rGGBHXRlx9tiGzBmw&cb_client=search.gws-prod.gps&w=408&h=240&yaw=295.1892&pitch=0&thumbfov=100,1.0,0,2025-06-15T22:40:28.658Z,tienda
Don vito(venta de bebidas),Centro comercial,,Bartolomé Mitre 54,+54 249 401-7254,BCB,Provincia de Buenos Aires,-36.773044,-59.0879508,5.0,2,https://lh3.googleusercontent.com/p/AF1QipMBLo4mW1Qyk6SLgQ8yDs00Eoljce2k7F6AjxWj=w493-h240-k-no,11.0,11,2025-06-15T22:40:37.663Z,venta
Pixel,Tienda de reparación de teléfonos móviles,,Letamendi 594,+54 221 610-8440,Rauch,Provincia de Buenos Aires,-36.776108,-59.08809,,4,https://streetviewpixels-pa.googleapis.com/v1/thumbnail?panoid=omPoWv0p6Eyl2YHBkPxENw&cb_client=search.gws-prod.gps&w=408&h=240&yaw=224.34274&pitch=0&thumbfov=100,2.0,0,2025-06-15T22:40:39.414Z,telefonia
Terra Herramientas,Tienda de herramientas,http://www.terraherramientas.com.ar/,Colectora Alvear 1150,+54 249 402-0504,AEX,Provincia de Buenos Aires,-36.7650016,-59.0916388,3.1,1,https://lh3.googleusercontent.com/p/AF1QipP0mmz2MlKmPQr5YjNB-HU5KNzu-OHQB8R3qncY=w408-h544-k-no,19.0,7,2025-06-15T22:40:28.798Z,maquinaria
Mundo Celular (Agencia Claro),Tienda de móviles,,"CASTELLI, Moreno Y",+54 249 432-8809,Rauch,Provincia de Buenos Aires,-36.7799446,-59.0905672,4.7,1,https://lh3.googleusercontent.com/p/AF1QipO8R3JoLPLp91kFCj1Wc5H6hSPxAgWhpn4_3WOE=w408-h725-k-no,149.0,24,2025-06-15T22:40:39.413Z,telefonia
Repuestos Rauch,Tienda de repuestos para automóviles,https://repuestosrauch.com.ar/,Av. Matheu 299,+54 249 466-2133,Rauch,Provincia de Buenos Aires,-36.7816408,-59.0905385,4.6,3,https://lh3.googleusercontent.com/gps-cs-s/AC9h4npBCb5_zwehk1EtjASAWhOhqceTlhh-RK5nTVhJ3azomd5-Eb9dH44ABhjvapKsfQXe6ndC6UIZRN2tY60Z-UVPqfwYX7k66zBir8icCZTIt6_Y7BW4PGk0D0cEMfrPIP87yOAj4g=w408-h306-k-no,5.0,38,2025-06-15T22:40:28.658Z,tienda
Remis Plaza,Comercio,,Lavalle 721,+54 249 447-6368,Rauch,Provincia de Buenos Aires,-36.7732353,-59.0893059,3.8,20,https://streetviewpixels-pa.googleapis.com/v1/thumbnail?panoid=sbY_XwOKJv1xygI6DpaiHw&cb_client=search.gws-prod.gps&w=408&h=240&yaw=299.10574&pitch=0&thumbfov=100,1.0,4,2025-06-15T22:40:43.050Z,comercio
Autoservicio La Suerte,Supermercado,,Alem 590 598,+54 249 431-7611,Rauch,Provincia de Buenos Aires,-36.7703616,-59.0969038,4.4,19,https://lh3.googleusercontent.com/gps-cs-s/AC9h4nqDNj2rW3Pg0ZnyvgMFqoccdgKMM1PdXaL1I-37PTFUpptnpY_Virj43SfHgi7LLc_SPcQ31Eerhg4HHU6gTFAZERgeJoDdm_CdyAKoYHBjqAmXYe7yesUx6ESnl63fINWdZMIcug=w408-h725-k-no,32.0,29,2025-06-15T22:40:43.050Z,comercio
Silos San Cayetano,Fábrica,https://silossancayetano.com.ar/,"Parque Industrial, RP30",+54 2297 44-2129,Rauch,Provincia de Buenos Aires,-36.7829704,-59.0651283,5.0,10,https://lh3.googleusercontent.com/gps-cs-s/AC9h4nqSbIzggV8sTLLgK5lmViDXPTj8tjwkHmrfWS5YW_EzuJk-9ksvd_TNTirURMJW3ESb6HL5jlPdMPq-NCQxKLqe7-DJQ-uiEOFE55r13njTdUFwyLbkirAFQwTBn2Coyyv3AMI=w427-h240-k-no,29.0,5,2025-06-15T22:40:28.799Z,maquinaria
Primera parada,Comercio,,Brandsen 1792,,Rauch,Provincia de Buenos Aires,-36.7717438,-59.0897408,,18,,,0,2025-06-15T22:40:43.050Z,comercio
Dualde Automotores,Comercio,,"BMW, Rondeau 2019",,Rauch,Provincia de Buenos Aires,-36.7736494,-59.0776384,3.7,17,https://streetviewpixels-pa.googleapis.com/v1/thumbnail?panoid=1TSMmFJn5-zWEKc_FbBmSA&cb_client=search.gws-prod.gps&w=408&h=240&yaw=44.32281&pitch=0&thumbfov=100,1.0,3,2025-06-15T22:40:43.050Z,comercio
Mercado Guillenea,Supermercado,,"B7203BEI BEI Rauch Buenos Aires AR, Olavarría 401-499",,Rauch,Provincia de Buenos Aires,-36.7772782,-59.082597,3.9,15,https://lh3.googleusercontent.com/gps-cs-s/AC9h4npxtK23_mrvsKPZBBaDtP8W6ZWRVqDc8vMIqRIa2fwZI-jzmmfues90ZbpMcxv1E9HwbVzhGMSn-7TRk_2F-vZEAg5DKKq76QeYICUMr-yYPuoc1Yj8t95buIjeTgo1sw25ygda=w408-h544-k-no,21.0,54,2025-06-15T22:40:43.050Z,comercio
Club Comercio Rauch,,,Av. San Martín 439,,Rauch,Provincia de Buenos Aires,-36.776132,-59.0906475,,13,https://streetviewpixels-pa.googleapis.com/v1/thumbnail?panoid=e9QkvY4OU-M59CMW-K-Wuw&cb_client=search.gws-prod.gps&w=408&h=240&yaw=281.912&pitch=0&thumbfov=100,1.0,0,2025-06-15T22:40:43.050Z,comercio
Arturo E Dualde,Comercio,,Av. San Martín 1060,+54 2297 44-0384,Rauch,Provincia de Buenos Aires,-36.7716727,-59.0850317,4.5,3,https://lh3.googleusercontent.com/gps-cs-s/AC9h4nqwCU8x35B6jrbFx0Ri67AAgUcBZwey3SeH-etwdb-8Kf1dfd11lYwg3fGaGWT4Q8ACfWQu_guQbrDDZaflGd9nBfYplF_I-JunAFrzDMieefRwWgJrip37_FbbAWXGTujrsE4vnA=w408-h725-k-no,3.0,2,2025-06-15T22:40:43.049Z,comercio
minimerca YABBESET,Tienda de alimentación,,,,Rauch,Provincia de Buenos Aires,-36.7778107,-59.0785332,,37,https://streetviewpixels-pa.googleapis.com/v1/thumbnail?panoid=nISbCaue5rWylfvOqo282w&cb_client=search.gws-prod.gps&w=408&h=240&yaw=153.0823&pitch=0&thumbfov=100,1.0,0,2025-06-15T22:40:43.738Z,comercio
Minimercado Tu Ahorro,Tienda general,,Alem 590,,Rauch,Provincia de Buenos Aires,-36.7699042,-59.0975225,,32,https://lh3.googleusercontent.com/gps-cs-s/AC9h4nrl-gGdrK1cWBlNFblAWsQnYBaECYYreZvW4F2ZQQ8rx5SQKJaO0-jqk4LjWPmV266IayxgdTxakhvBbqfcj-LYIqB3fmFYuDNTQTRx5jHqdYiNhHkXrJ7FNKkfXNFPJBc7Mdyy=w426-h240-k-no,10.0,0,2025-06-15T22:40:43.737Z,comercio
Juguetería Sapo Pepe,Comercio,,Garralda 448,+54 2297 44-0079,ASJ,Provincia de Buenos Aires,-36.7754326,-59.0916185,4.7,64,https://lh3.googleusercontent.com/gps-cs-s/AC9h4nryKlfC9iz03NObOi8ZI4g3DgldPiIDV89XDmxbtpEnhvEarOjkT1gd0P7OJ-8wLAYxggeF59orrl803pbGRhMkyphvfQ8gv5yzbXCW6cutbcGMVj2MMTVk2_jS1kVstDfgJLbF=w408-h306-k-no,4.0,7,2025-06-15T22:40:45.219Z,comercio
La Esquina,Tienda de alimentación,,Garralda 582,,Rauch,Provincia de Buenos Aires,-36.7743939,-59.0905481,,63,https://streetviewpixels-pa.googleapis.com/v1/thumbnail?panoid=ken2ob53xaCwmPV_rDopkA&cb_client=search.gws-prod.gps&w=408&h=240&yaw=160.72977&pitch=0&thumbfov=100,1.0,0,2025-06-15T22:40:45.219Z,comercio
"""La Safita"" artículos de limpieza y bazar.",Tienda de artículos para el hogar,,Av. Matheu 296,,BBP,Provincia de Buenos Aires,-36.7815648,-59.0906236,4.9,61,https://lh3.googleusercontent.com/gps-cs-s/AC9h4no_3CG4YzXy5-eO1PNr-s8oenIuQ40U80DzMe3pozrI_sUcBPtssUJcEUn2qI5DJX8qBbsapU1aX9_VWknvw0IpxiR4sg2uNGo2o8e0Fl1VJ6bzhTgvZb_sv2vtqIF6XwBwNPgL=w408-h306-k-no,12.0,7,2025-06-15T22:40:45.219Z,comercio
Ferreteria TATO,Ferretería,,"B7203BIR, Av. Pres. Juan Domingo Perón 410",+54 249 466-2890,Rauch,Provincia de Buenos Aires,-36.7704742,-59.0930384,4.6,12,https://streetviewpixels-pa.googleapis.com/v1/thumbnail?panoid=UxS5SOTqML71LW3pTDldMQ&cb_client=search.gws-prod.gps&w=408&h=240&yaw=46.977833&pitch=0&thumbfov=100,1.0,62,2025-06-15T22:40:44.917Z,repuestos
MinimercadoHG,Tienda general,https://www.instagram.com/minimercadohg?igsh=cWExcW9oZGhpYXc1,Av. Gral. Paz 350,+54 249 433-2251,Rauch,Provincia de Buenos Aires,-36.7826955,-59.0844884,,59,https://streetviewpixels-pa.googleapis.com/v1/thumbnail?panoid=BdJD3H_5-1BzKhrRJi-0nw&cb_client=search.gws-prod.gps&w=408&h=240&yaw=119.88067&pitch=0&thumbfov=100,2.0,0,2025-06-15T22:40:44.465Z,comercio
SUPERMERCADO AL COSTO,Tienda de alimentación,,Av. Pres. Juan Domingo Perón 357,,BID,Provincia de Buenos Aires,-36.7713388,-59.0926854,,58,https://streetviewpixels-pa.googleapis.com/v1/thumbnail?panoid=JpcGNRJLxQkoDWQbAixkrg&cb_client=search.gws-prod.gps&w=408&h=240&yaw=216.79271&pitch=0&thumbfov=100,1.0,0,2025-06-15T22:40:44.465Z,comercio
Elfrances - Ramos generales,Tienda general,http://elfrances---ramos-generales.webnode.com/,Lavalle 1019,+54 249 432-6535,Rauch,Provincia de Buenos Aires,-36.7709537,-59.0866879,,62,https://lh3.googleusercontent.com/p/AF1QipPbQBevzm75eM_LIqalhpgvqQxjeFTvcCiqr8dn=w408-h408-k-no,2.0,0,2025-06-15T22:40:45.219Z,comercio
Curvas,Tienda de ropa,,Las Heras 438,,Rauch,Provincia de Buenos Aires,-36.7717876,-59.0964116,5.0,57,https://lh3.googleusercontent.com/gps-cs-s/AC9h4nrR_ZoVJtVEGvcio4iVqga7WJ20pfXmS9J8nJSKGHHIwk6sHBM-5RKDi_QupESfYjA7mW9oqhnWaWaTFqLNaIrpBfDktWTs_o_VfBW9FMRQiVaIuv2yD52v6IfWipsRsOJ_A120=w408-h544-k-no,2.0,8,2025-06-15T22:40:44.465Z,comercio
Lo De Pini Autoservicio - Minimercado,Tienda de alimentación,,,,Rauch,Provincia de Buenos Aires,-36.773032,-59.0990525,,56,https://streetviewpixels-pa.googleapis.com/v1/thumbnail?panoid=U3AB65UYOofHhdQmtHTvZw&cb_client=search.gws-prod.gps&w=408&h=240&yaw=149.85896&pitch=0&thumbfov=100,1.0,0,2025-06-15T22:40:44.465Z,comercio
Centro Empleados De Comercio De Rauch Osecac,,,Av. San Martín 452,,Rauch,Provincia de Buenos Aires,-36.7763708,-59.0905304,,55,https://streetviewpixels-pa.googleapis.com/v1/thumbnail?panoid=TSSi6P9RN7--d2bIZvan8w&cb_client=search.gws-prod.gps&w=408&h=240&yaw=134.25223&pitch=0&thumbfov=100,1.0,0,2025-06-15T22:40:44.465Z,comercio
Pollería & despensa Arcoiris,Tienda de aves de corral,,Quintana 67,+54 249 420-7828,Rauch,Provincia de Buenos Aires,-36.769961,-59.0845317,5.0,54,https://lh3.googleusercontent.com/gps-cs-s/AC9h4nqF9Qx8T7jDnkN_HVH8bxByrAwEevV8H6G_vbo1k23Eg-MCdV7TgEVEWrQaofIbO789t6epy0kRvhlNTDuwACexff7t1lkEdb8wWCtEvQ7Z4QFVn6_Xg3IYubDn_-ESYisQgYyr=w408-h243-k-no,8.0,1,2025-06-15T22:40:44.465Z,comercio
Rotisería Lucy,Supermercado,,Alem 330,+54 2297 44-3254,Rauch,Provincia de Buenos Aires,-36.7727096,-59.093996,4.4,52,https://lh3.googleusercontent.com/gps-cs-s/AC9h4npZC80wtGA3J_NUmBLH-GXCU-_RiHeoGVf0QwxEPR84B7_lS3fT6RZMHRoXXZhEZ2NPZJoynP07MBx3cGWmvk2_QTwyj4ncLUqDdRE93WQ_sVk-r6VFANVglYhqtUOZF5vDjEfz=w426-h240-k-no,7.0,80,2025-06-15T22:40:44.465Z,comercio
DISTRIBUIDORA JE,Papelería,https://www.instagram.com/je_distribuidorapapelera?igsh=MWtseTJ0OWd1OTl5bg==,"Alberti, Almte. Brown y",+54 249 457-5928,Rauch,Provincia de Buenos Aires,-36.774911,-59.089796,5.0,51,https://lh3.googleusercontent.com/p/AF1QipOwm6HsMPM9b0RjIBnmu-gqlAee2731LWx6026g=w408-h408-k-no,38.0,3,2025-06-15T22:40:44.465Z,comercio
MINIMERCADO MIGUEL,Tienda de alimentación,,,,Rauch,Provincia de Buenos Aires,-36.7717934,-59.0918148,,50,https://streetviewpixels-pa.googleapis.com/v1/thumbnail?panoid=tZTe6kKKZ9FIXlLvTcdmuQ&cb_client=search.gws-prod.gps&w=408&h=240&yaw=148.82542&pitch=0&thumbfov=100,1.0,0,2025-06-15T22:40:44.465Z,comercio
La Granja de Los Mellis,Tienda general,,Av. San Martín 895,,Rauch,Provincia de Buenos Aires,-36.772852,-59.086725,,49,https://streetviewpixels-pa.googleapis.com/v1/thumbnail?panoid=60OHXyUkwCXm_-9tfP7Slw&cb_client=search.gws-prod.gps&w=408&h=240&yaw=321.01495&pitch=0&thumbfov=100,1.0,0,2025-06-15T22:40:44.465Z,comercio
Cooperativa Eléctrica de Egaña Ltda.,Comercio,,Cnel. Suárez 602,+54 9 249 447-6449,Rauch,Provincia de Buenos Aires,-36.7815614,-59.0832216,3.0,48,https://streetviewpixels-pa.googleapis.com/v1/thumbnail?panoid=RSSRdCKtdhcj56ko1ajhgA&cb_client=search.gws-prod.gps&w=408&h=240&yaw=208.99625&pitch=0&thumbfov=100,1.0,2,2025-06-15T22:40:44.465Z,comercio
One24,Kiosco,,"Pellegini, Marcelo Torcuato de Alvear y",,Rauch,Provincia de Buenos Aires,-36.7666226,-59.0924306,4.8,47,https://streetviewpixels-pa.googleapis.com/v1/thumbnail?panoid=T_q5oJv2OXwwjDoniwhXDw&cb_client=search.gws-prod.gps&w=408&h=240&yaw=133.50668&pitch=0&thumbfov=100,1.0,6,2025-06-15T22:40:44.465Z,comercio
Super Chino Nuevo,Tienda de alimentación,,"300-398, B7203BIQ, Av. Pres. Juan Domingo Perón",,Rauch,Provincia de Buenos Aires,-36.7711254,-59.0924871,3.8,46,https://lh3.googleusercontent.com/gps-cs-s/AC9h4nrEm_-7YCLof-NG6JIue4Kj_FwjCoH62ekiYhnDvi5FyTjiF5efMaAMRPjqSxWKx2OUovzJ2ZOBbAqjkbGnwmf8p2JsBcnLWd-vflMxnebkTEOTv-C_qjxDGpnsigjnctehzKpG=w408-h839-k-no,3.0,93,2025-06-15T22:40:44.464Z,comercio
Almacén El Paisa,Tienda de alimentación,,"Pellegrini 99 51, B7203BHA",,Rauch,Provincia de Buenos Aires,-36.7713151,-59.0865023,4.3,43,https://lh3.googleusercontent.com/gps-cs-s/AC9h4nojW6m6tTnpfDooze1bKX8cUrJs5mpNqnBjixD01cHqMtQ3NX6bAGtg7ycrvI6_t9dOzzlUWQS0CSR2buBzHDVoYlq4LuDlV-MY-hz7X7MGDthH2HVQETDm0o8U7UFMCuueTCc=w408-h544-k-no,2.0,10,2025-06-15T22:40:44.464Z,comercio
Camara Comercial Industrial Y de Servicios de Rauch,Cámara de comercio,http://camaracomerciorauch.com.ar/,Av. San Martín 193,+54 2297 44-2610,Rauch,Provincia de Buenos Aires,-36.7779446,-59.093083,4.7,6,https://lh3.googleusercontent.com/p/AF1QipOPdvtHH6EsqNUs_2qSNZh1XQ1C1eaRpxiw6yoQ=w408-h271-k-no,20.0,28,2025-06-15T22:40:43.049Z,comercio
SUMATRA,Tienda de ropa,,Av. San Martín 419,,Rauch,Provincia de Buenos Aires,-36.776353,-59.090975,,3,https://streetviewpixels-pa.googleapis.com/v1/thumbnail?panoid=cT0YYae8r4s1E_bq_lxGYg&cb_client=search.gws-prod.gps&w=408&h=240&yaw=311.0709&pitch=0&thumbfov=100,1.0,0,2025-06-15T22:40:50.046Z,tienda
Taller poffer,Taller de maquinaria,,,+54 249 456-3552,,,-36.7746716,-59.0901985,,14,https://lh3.googleusercontent.com/p/AF1QipPzD1qOrRrEc6fdorzG97MNdwjrrOq521lJtX41=w408-h306-k-no,1.0,0,2025-06-15T22:40:49.882Z,maquinaria
Anso-Payo Pulverizaciones,Taller de maquinaria,,,+54 249 450-9494,,,-36.7746716,-59.0901985,,8,,,0,2025-06-15T22:40:49.881Z,maquinaria
Minimercado Indiana,Supermercado,,Alberti 294,,ACF,Provincia de Buenos Aires,-36.7792266,-59.0875248,4.8,37,https://streetviewpixels-pa.googleapis.com/v1/thumbnail?panoid=-lh3867tg23vgA9a8F5sRQ&cb_client=search.gws-prod.gps&w=408&h=240&yaw=57.56837&pitch=0&thumbfov=100,1.0,4,2025-06-15T22:40:51.185Z,tienda
Organdí - Confección y Venta de Prendas y Telas,Tienda de telas,https://instagram.com/organdisederiarauch?igshid=YmMyMTA2M2Y=,Avellaneda 174,+54 9 249 421-6105,Rauch,Provincia de Buenos Aires,-36.7711581,-59.0884617,4.8,23,https://lh3.googleusercontent.com/p/AF1QipMTIr6lKAdOnyaIrcF8aNjySCyQgsJ_JxVjwQ6o=w408-h544-k-no,6.0,8,2025-06-15T22:40:51.935Z,venta
Los caseritos,Tienda de alimentación,,Eduardo Rodríguez 253,+54 249 434-1113,Rauch,Provincia de Buenos Aires,-36.7757524,-59.1013832,4.0,35,https://lh3.googleusercontent.com/gps-cs-s/AC9h4nrLcwk8QLi_DnXGAMLMD6_fjiGhi2q7HxI2ZIPDaAW-Xr_Yi48e-ONuTa2qkUfdaChvQTnpcmAHYItmhgrCOaAh1VSwMhjwElfPZAJpWHh_glnbVBRFxkrBxubVlu0-A2Z-cJvAfA=w546-h240-k-no,76.0,1,2025-06-15T22:40:51.185Z,tienda
Minimercado Por Centavo,Tienda de alimentación,,Letamendi 367,,Rauch,Provincia de Buenos Aires,-36.7776957,-59.0901759,,34,https://lh3.googleusercontent.com/gps-cs-s/AC9h4nr9OZMiZoeJkktu4nIIUNmTzkFCqpnUbYC01W0UihiLN5sr-FjXmiCZAu6G_FiNGVVRT6ojCj9LzudEl4vTcc5zQL72meVHKuLAkn2tTW_oBrvbBqEwrpjRKAb6ypoPXtpdJEK_5g=w408-h408-k-no,2.0,0,2025-06-15T22:40:51.185Z,tienda
Despensa Lo de Isabel,Tienda de alimentación,,Solidaridad 58,,Rauch,Provincia de Buenos Aires,-36.7697122,-59.0978572,,60,https://streetviewpixels-pa.googleapis.com/v1/thumbnail?panoid=lb0brqsWoZum2zxUfzr8Lw&cb_client=search.gws-prod.gps&w=408&h=240&yaw=42.003937&pitch=0&thumbfov=100,1.0,0,2025-06-15T22:40:52.321Z,tienda
El Salteño,Carnicería,,"B7203AFD, Aristóbulo del Valle 100-146",,Rauch,Provincia de Buenos Aires,-36.774091,-59.0904994,4.8,59,https://streetviewpixels-pa.googleapis.com/v1/thumbnail?panoid=z5-NKx7de8bydvzLncBgow&cb_client=search.gws-prod.gps&w=408&h=240&yaw=0.77918667&pitch=0&thumbfov=100,1.0,16,2025-06-15T22:40:52.321Z,tienda
San Roque Pet Shop,Tienda de alimentación,,"B7203ABG, 9 de Julio 357",,Rauch,Provincia de Buenos Aires,-36.7740193,-59.0960487,4.7,58,https://streetviewpixels-pa.googleapis.com/v1/thumbnail?panoid=KZeXxtQ9A5okm01WpMK9Bw&cb_client=search.gws-prod.gps&w=408&h=240&yaw=74.81198&pitch=0&thumbfov=100,1.0,43,2025-06-15T22:40:52.321Z,tienda
Despensa Avenida,Tienda de alimentación,,Av. San Martín,,Rauch,Provincia de Buenos Aires,-36.7707922,-59.0841968,,57,https://streetviewpixels-pa.googleapis.com/v1/thumbnail?panoid=WDubub4J8hq61CPYFfCMcw&cb_client=search.gws-prod.gps&w=408&h=240&yaw=306.2403&pitch=0&thumbfov=100,1.0,0,2025-06-15T22:40:52.321Z,tienda
Alega,Tienda de alimentación,,25 de Mayo,,Rauch,Provincia de Buenos Aires,-36.7773501,-59.093952,,55,https://streetviewpixels-pa.googleapis.com/v1/thumbnail?panoid=iNrQdl_KoGVoIrPXDRd6cA&cb_client=search.gws-prod.gps&w=408&h=240&yaw=208.90424&pitch=0&thumbfov=100,1.0,0,2025-06-15T22:40:52.320Z,tienda
Claro Agente Oficial,Proveedor de servicios de telecomunicaciones,http://www.claro.com.ar/,CASTELLI JUAN JOSE 198,+54 800-123-0611,Rauch,Provincia de Buenos Aires,-36.7800323,-59.0903963,5.0,2,https://lh3.googleusercontent.com/gps-cs-s/AC9h4nrus9cH9dUgxMNk4kByGNMsOGtdzHLgI541YW_SwaEuQDcxuPo-M_Kwg0CDXwpwUeFYiU-Z4kd1ooHhJDfGbLxpjnziErR61rmfaXFj6riFhaBPID1I5CY7UxwlFV5NM_TAp8iIsKzp9NKn=w408-h725-k-no,10.0,72,2025-06-15T22:40:39.414Z,telefonia
Minimercado S&M,Tienda de alimentación,,Pueyrredón 316,,Rauch,Provincia de Buenos Aires,-36.7757889,-59.0826393,,56,https://streetviewpixels-pa.googleapis.com/v1/thumbnail?panoid=SUldH35pT-lYc8k-e1l-aw&cb_client=search.gws-prod.gps&w=408&h=240&yaw=61.15333&pitch=0&thumbfov=100,1.0,0,2025-06-15T22:40:52.320Z,tienda
ATREVIDAS,Tienda de ropa,,Alberti 120,,Rauch,Provincia de Buenos Aires,-36.7777983,-59.0897241,,78,https://streetviewpixels-pa.googleapis.com/v1/thumbnail?panoid=joe3CN19WQ489uTxntOYrA&cb_client=search.gws-prod.gps&w=408&h=240&yaw=231.27626&pitch=0&thumbfov=100,1.0,0,2025-06-15T22:40:53.509Z,tienda
LINA LAN,Tienda de ropa,,Cnel. Suárez 54,,Rauch,Provincia de Buenos Aires,-36.7763534,-59.0897475,,79,https://streetviewpixels-pa.googleapis.com/v1/thumbnail?panoid=vDLhdoVMqoMrG3OylU0igQ&cb_client=search.gws-prod.gps&w=408&h=240&yaw=209.23857&pitch=0&thumbfov=100,1.0,0,2025-06-15T22:40:53.510Z,tienda
Tiza Jeans,Tienda de ropa,,"AQA, Cnel. Suárez 35 Sur",+54 2297 44-0511,Rauch,Provincia de Buenos Aires,-36.7760996,-59.089624,5.0,77,https://streetviewpixels-pa.googleapis.com/v1/thumbnail?panoid=WipglpIXD5E1n-uPoAAk9g&cb_client=search.gws-prod.gps&w=408&h=240&yaw=53.734184&pitch=0&thumbfov=100,1.0,2,2025-06-15T22:40:53.509Z,tienda
Sil & D Frutas Verduras,Tienda de alimentación,,,,Rauch,Provincia de Buenos Aires,-36.7772574,-59.0940271,,76,https://streetviewpixels-pa.googleapis.com/v1/thumbnail?panoid=7qznppOxBqAPXDnxtaC0aQ&cb_client=search.gws-prod.gps&w=408&h=240&yaw=149.40356&pitch=0&thumbfov=100,1.0,0,2025-06-15T22:40:53.509Z,tienda
Panaderia Lo de Recio Horno A Le a,Panadería,,Aveleyra 127,+54 2297 44-2274,Rauch,Provincia de Buenos Aires,-36.7790446,-59.0938012,4.3,75,https://lh3.googleusercontent.com/gps-cs-s/AC9h4nrnPbtnWzVecycKCM125zjj1OnmSs1rOa611ZNkNr3BoNEb6UikRiebXfLn7_JS0URrKw7WWITOzepcvBm1eRxfaA-JucVmY5_j29wwi40CzZiB_-_D_7zNXho2vO2zSxOX0bI3Lg=w408-h378-k-no,21.0,55,2025-06-15T22:40:53.509Z,tienda
Yo Lo Vi Primero,Tienda de ropa,https://www.instagram.com/yoloviprimero_?igsh=MXRueDUzMTgwMHp3bw%3D%3D&utm_source=qr,Bolívar 6,,Rauch,Provincia de Buenos Aires,-36.7754361,-59.0890733,4.5,74,https://streetviewpixels-pa.googleapis.com/v1/thumbnail?panoid=Fmip-yVbaH6W2yZ0WZ2f-g&cb_client=search.gws-prod.gps&w=408&h=240&yaw=244.47545&pitch=0&thumbfov=100,1.0,2,2025-06-15T22:40:53.509Z,tienda
"Rotiseria ""La Nueva Don Cipriano""",Tienda de alimentación,,"B7203AQH, Cnel. Suárez 386",+54 9 249 433-8066,AQH,Provincia de Buenos Aires,-36.7793853,-59.0855784,4.7,73,https://lh3.googleusercontent.com/gps-cs-s/AC9h4nrFi51rFWaUaf7B7cnq8eu5xi4hGwQNnXIj4CUSiQq6cElcgyw57DYNxwR-AtFf2iFWx54N16Twqssij5Bz2SemctLrnai79CLTE5_oIghgDVktydZlto-cPMhRj9cR_DrgeGim=w408-h741-k-no,57.0,37,2025-06-15T22:40:53.509Z,tienda
"Don Francisco ""La Frutería""",Tienda de alimentación,,Av. Belgrano 500-598,,Rauch,Provincia de Buenos Aires,-36.7793136,-59.0820409,4.6,72,https://streetviewpixels-pa.googleapis.com/v1/thumbnail?panoid=wkeCFcp89oj8UwtmPyuu4A&cb_client=search.gws-prod.gps&w=408&h=240&yaw=89.13235&pitch=0&thumbfov=100,2.0,21,2025-06-15T22:40:53.509Z,tienda
Aceites del Langueyú,Tienda de alimentación,,,,Rauch,Provincia de Buenos Aires,-36.7813912,-59.0626302,4.0,70,https://lh3.googleusercontent.com/gps-cs-s/AC9h4nr2as0clZSx4EwCOLqOhrGe6E1EyXN_epUAxbJs0d0lrgDsUjHw_vxIQnxHksqFN0-zGeS5zy5c-XrBe9q6Ev45uk2KeUGjrfsCkYItDBJEPVoWnkUCGzLBZpvSnKJr3HOzWDiPpQ=w408-h725-k-no,3.0,9,2025-06-15T22:40:53.509Z,tienda
Tiempo Libre,Tienda de ropa de deportes,,Garralda 443,,Rauch,Provincia de Buenos Aires,-36.7752447,-59.0919673,4.5,71,https://lh3.googleusercontent.com/gps-cs-s/AC9h4npD-2apJJYzChydXu_MAmdHPfk6unW4talHB7v4ChCnHPK2XmdiNwAW9xQShwjzS3okumY9J5nbE5h_vvw2ct8QSW14z8guyg1MdCilXpGIKnidUMAUF14w-t0IzrlLlgcv-4CG3Q=w408-h725-k-no,11.0,8,2025-06-15T22:40:53.509Z,tienda
Mercat Rauch,Tienda de vinos,https://www.instagram.com/mercatrauch/,"Moreno, Bolívar y",+54 249 431-4555,Rauch,Provincia de Buenos Aires,-36.7770101,-59.0870855,4.9,68,https://lh3.googleusercontent.com/p/AF1QipPVQAy3nJnjqkfW46mBC494W_le2jXM0iy6YWa3=w408-h725-k-no,1089.0,29,2025-06-15T22:40:53.509Z,tienda
María Antonieta Regalos,Tienda de regalos,,"Av. San Martín 583, B7203ACA",,Rauch,Provincia de Buenos Aires,-36.7751681,-59.0895182,,65,https://streetviewpixels-pa.googleapis.com/v1/thumbnail?panoid=-6MdycHNApGzKnJtFIh2TQ&cb_client=search.gws-prod.gps&w=408&h=240&yaw=312.96707&pitch=0&thumbfov=100,1.0,0,2025-06-15T22:40:53.509Z,tienda
New Life,Tienda de ropa,,Av. San Martín 428,,Rauch,Provincia de Buenos Aires,-36.7766036,-59.0905973,,67,https://streetviewpixels-pa.googleapis.com/v1/thumbnail?panoid=PeqfXPhew_LAG4an_9kZ1A&cb_client=search.gws-prod.gps&w=408&h=240&yaw=141.1252&pitch=0&thumbfov=100,1.0,0,2025-06-15T22:40:53.509Z,tienda
"""Las Canarias""",Tienda de ropa,,Eduardo Rodríguez 455,+54 249 402-8802,Rauch,Provincia de Buenos Aires,-36.7761875,-59.1009302,5.0,64,https://lh3.googleusercontent.com/p/AF1QipMSQJxOdo0-jrXgQJHFHvr9Dxd650BTNs65Iczb=w426-h240-k-no,23.0,7,2025-06-15T22:40:53.509Z,tienda
In Situ,Tienda de ropa,,"AQA, Cnel. Suárez 77",+54 2297 44-0609,Rauch,Provincia de Buenos Aires,-36.7764886,-59.089131,,62,https://streetviewpixels-pa.googleapis.com/v1/thumbnail?panoid=5cBxTGgREGnCSItuYRRy4A&cb_client=search.gws-prod.gps&w=408&h=240&yaw=70.60146&pitch=0&thumbfov=100,3.0,0,2025-06-15T22:40:53.509Z,tienda
Imaginarte,Tienda de regalos,,Av. Pres. Juan Domingo Perón 380,,Rauch,Provincia de Buenos Aires,-36.7706839,-59.0926655,,63,https://streetviewpixels-pa.googleapis.com/v1/thumbnail?panoid=-tx4uPfVAxVdE_DvH0lTLQ&cb_client=search.gws-prod.gps&w=408&h=240&yaw=32.570824&pitch=0&thumbfov=100,1.0,0,2025-06-15T22:40:53.509Z,tienda
Mini Mercado El Haragán,Tienda de alimentación,,,,Rauch,Provincia de Buenos Aires,-36.7813174,-59.0852601,,61,https://streetviewpixels-pa.googleapis.com/v1/thumbnail?panoid=tjLKNqhxYjIvJiR4-AA42A&cb_client=search.gws-prod.gps&w=408&h=240&yaw=108.36749&pitch=0&thumbfov=100,1.0,0,2025-06-15T22:40:53.509Z,tienda
BRILLOS,Tienda de artículos para el hogar,,Garralda 556,,Rauch,Provincia de Buenos Aires,-36.7746114,-59.0907903,4.5,93,https://streetviewpixels-pa.googleapis.com/v1/thumbnail?panoid=GKHXmSl-9_7rQj4WLy2q0w&cb_client=search.gws-prod.gps&w=408&h=240&yaw=141.65654&pitch=0&thumbfov=100,1.0,2,2025-06-15T22:40:54.615Z,tienda
Amarula rauch,Tienda de ropa,,Cnel. Suárez 299-201,,AQE,Provincia de Buenos Aires,-36.7780877,-59.08722,,87,https://streetviewpixels-pa.googleapis.com/v1/thumbnail?panoid=Qxud4oQKvlorITC4TEjtMA&cb_client=search.gws-prod.gps&w=408&h=240&yaw=344.55923&pitch=0&thumbfov=100,1.0,0,2025-06-15T22:40:54.614Z,tienda
Perfumeria Santa Rosa,Tienda de ropa,,Av. San Martín 341,+54 2297 44-3696,Rauch,Provincia de Buenos Aires,-36.7768972,-59.0917087,,89,https://streetviewpixels-pa.googleapis.com/v1/thumbnail?panoid=3hZdJwzUq_nD9Cq68AoExQ&cb_client=search.gws-prod.gps&w=408&h=240&yaw=318.82248&pitch=0&thumbfov=100,1.0,0,2025-06-15T22:40:54.614Z,tienda
El Safa,Carnicería,,Av. Matheu 74 B7203BBN,+54 249 457-8111,Rauch,Provincia de Buenos Aires,-36.7795559,-59.0931153,4.9,86,https://lh3.googleusercontent.com/p/AF1QipM59aSmqODRXnBDBqE0IybBjt1C4fDWJ33VP-ZP=w408-h306-k-no,82.0,28,2025-06-15T22:40:54.614Z,tienda
Frutas Don Jorge,Tienda de alimentación,,Av. Pres. Juan Domingo Perón,,Rauch,Provincia de Buenos Aires,-36.7722847,-59.0907585,,85,https://streetviewpixels-pa.googleapis.com/v1/thumbnail?panoid=OZPvM_Ix_c9g83kwrGSdYw&cb_client=search.gws-prod.gps&w=408&h=240&yaw=20.799625&pitch=0&thumbfov=100,1.0,0,2025-06-15T22:40:54.614Z,tienda
"Vineria ""El Tonel""",Tienda de vinos,http://instagram.com/eltonelvineria,"Avenida Perón, Balcarce y",+54 249 447-7356,Rauch,Provincia de Buenos Aires,-36.7705612,-59.0929643,4.6,84,https://lh3.googleusercontent.com/gps-cs-s/AC9h4npU1vD5C0C7IgUfkcQIfw00r7PyOCMAStvdBri-SsMLW4aRuRsWGJh5-XKTDu3MehpqRC6pzlfdM7IPxK0Cy_Nr09_s1efmpqCU0vtvD2kUwebUCuo9f-2E_dY0HuptChrHZ4H6Lg=w408-h306-k-no,180.0,75,2025-06-15T22:40:54.614Z,tienda
Mercadito Natural,Tienda de alimentos naturales,,Av. San Martín 574,,Rauch,Provincia de Buenos Aires,-36.7755003,-59.0892895,,83,https://streetviewpixels-pa.googleapis.com/v1/thumbnail?panoid=ZA0C4HnrYyJpHrgAYqPNPw&cb_client=search.gws-prod.gps&w=408&h=240&yaw=140.73701&pitch=0&thumbfov=100,1.0,0,2025-06-15T22:40:54.614Z,tienda
Upa Mamá,Tienda de ropa para bebés,,"Bolívar 299-201, B7203AKG",+54 2297 44-3878,AKG,Provincia de Buenos Aires,-36.7770228,-59.0870803,5.0,82,https://lh3.googleusercontent.com/gps-cs-s/AC9h4nrpS0Gi4or1FNCPL87l4D4K5oYGY0TEaYrsjGWMaLdSRHMWru-V9vk80lsBYuBp_6y3Z8qPm4g9W5CBaKrA1Updrz1AOWP1EIkknOLQcAAtrhmAtEEq1iJwFD9pdvV3nZs8VcOS=w412-h240-k-no,3.0,1,2025-06-15T22:40:54.614Z,tienda
Golopolis,Supermercado,,Av. San Martín 83,,Rauch,Provincia de Buenos Aires,-36.7790397,-59.0942454,4.5,50,https://lh3.googleusercontent.com/gps-cs-s/AC9h4noT7FBUDxqT75TzTsmj1CE2cW20-ZpOw4CW1N1DIYkHADyZFNmJs3-UnX_oDWyBRmTt9GkvU8EkfGS_3I-zM94JygQ7vMjKdTubhiLYbaj-BqcmQARkqzoDmCvoAI0_2ogn3OxlOg=w408-h862-k-no,6.0,186,2025-06-15T22:40:52.320Z,tienda
D-CHOC,Tienda de alimentación,,Bartolomé Mitre 248,+54 249 450-4352,Rauch,Provincia de Buenos Aires,-36.7712303,-59.0902427,5.0,54,https://lh3.googleusercontent.com/gps-cs-s/AC9h4nrYpqMTVNOdtR1aXfc_9UM69GANokf7ZxMu6Rkkp7vSs4ZgE0hdijL8IjjEaHg4mpYrH64tjhwosMWEBFpVGqc_EMg7SQ5Hr-A0caoPU06qCUe8XraLXewTmodY5yVtmyhu-rQ=w408-h544-k-no,7.0,7,2025-06-15T22:40:52.320Z,tienda
BENDITA ERES,Tienda de ropa,,Letamendi 440,,Rauch,Provincia de Buenos Aires,-36.7773043,-59.0893963,,51,https://streetviewpixels-pa.googleapis.com/v1/thumbnail?panoid=6LJxLktKZ4Lya6clYGt5Cw&cb_client=search.gws-prod.gps&w=408&h=240&yaw=158.19731&pitch=0&thumbfov=100,1.0,0,2025-06-15T22:40:52.320Z,tienda
Deco Art,Tienda de regalos,,Cnel. Suárez 602,,Rauch,Provincia de Buenos Aires,-36.7815534,-59.0833525,5.0,49,https://lh3.googleusercontent.com/p/AF1QipN1sKt-bnrjpOhjpwDOPtez2NVAgp7CVOwsc9Jy=w426-h240-k-no,2.0,1,2025-06-15T22:40:52.320Z,tienda
Los Chavales,Tienda de ropa,,Alberti 134,+54 2297 44-0721,ACD,Provincia de Buenos Aires,-36.7778227,-59.0893957,4.8,46,https://streetviewpixels-pa.googleapis.com/v1/thumbnail?panoid=SPqTODHISukpRspZWfIdZw&cb_client=search.gws-prod.gps&w=408&h=240&yaw=47.010563&pitch=0&thumbfov=100,1.0,13,2025-06-15T22:40:52.320Z,tienda
Estilo,Tienda de ropa,,"ASI, Garralda 401",+54 2297 44-3726,Rauch,Provincia de Buenos Aires,-36.7756429,-59.0922679,5.0,45,https://streetviewpixels-pa.googleapis.com/v1/thumbnail?panoid=0IOCR1SR1FaOf3nN1bMHng&cb_client=search.gws-prod.gps&w=408&h=240&yaw=359.19394&pitch=0&thumbfov=100,1.0,1,2025-06-15T22:40:52.320Z,tienda
Sabores y Placeres,Tienda de fiambres,,Cnel. Suárez 71,+54 9 249 448-3420,Rauch,Provincia de Buenos Aires,-36.7764384,-59.0891366,4.6,43,https://lh3.googleusercontent.com/p/AF1QipPWl_Jq_PDD1J1sRgeEjF5OSLTfN2cDFkSBYaRg=w408-h306-k-no,69.0,59,2025-06-15T22:40:52.320Z,tienda
despensa El Amanecer,Tienda de alimentación,,,,Rauch,Provincia de Buenos Aires,-36.7703334,-59.0904795,3.0,42,https://streetviewpixels-pa.googleapis.com/v1/thumbnail?panoid=zU0dKiQEiLv2PdoCHgSixw&cb_client=search.gws-prod.gps&w=408&h=240&yaw=301.8618&pitch=0&thumbfov=100,1.0,1,2025-06-15T22:40:52.320Z,tienda
Minimercado Tu Ahorro,Supermercado,,Rondeau 37 A,,Rauch,Provincia de Buenos Aires,-36.7838047,-59.0885761,4.4,41,https://lh3.googleusercontent.com/gps-cs-s/AC9h4no_LDtNXMXBUGVr-oA-naIyG_ngLnKq7bq0WTfz01Avi5NVtcLmfBIb1qAn3Yj2fcSwYsyE5Q_Lnz7E6O2hay6IhzbWp15-hFNKlmZqxCKdqSdtNIsv_VXyMrkqf691JChspd8r=w408-h306-k-no,16.0,21,2025-06-15T22:40:52.320Z,tienda
Casa Moda,Tienda de accesorios de moda,,Domingo Faustino Sarmiento 50,+54 9 2268 51-9913,Rauch,Provincia de Buenos Aires,-36.7760684,-59.0916189,4.5,32,https://lh3.googleusercontent.com/gps-cs-s/AC9h4no1BtUfZ2dVbR7cGnHsQO3BcevY1yCOTVWXeX09XBPXbYyhp9jry3EjGxZ0IvHwVsM5VsyNxvPlG-kcAPFg445MFqijQd_pr2Ah9-HmCxqmmF4P0sQiSA03hPLEL0lOu6sjM3ATSg=w408-h725-k-no,3.0,6,2025-06-15T22:40:51.185Z,tienda
Despensa Mi Mamà Es Mi Angel,Tienda de alimentación,,"B7203AYO, Las Heras 701-799",+54 249 431-0515,Rauch,Provincia de Buenos Aires,-36.7691611,-59.0935167,3.7,30,https://lh3.googleusercontent.com/gps-cs-s/AC9h4nqq9M7vQkk0rqiTdSri5OtH62cYPasIxoFeNu5QqU4jaQDV7lZ5C__RresS-Wulwb4SQeoKXRXq5IQC5Dcl3u4QAkNq1v5M9c0yJcTwqz9Zh2iBCCJ2wXwbVjym1oW09TbzyDAW=w408-h306-k-no,4.0,3,2025-06-15T22:40:51.185Z,tienda
Expert Mundo Hogar,Tienda de muebles,,Av. Pres. Juan Domingo Perón 369,+54 2297 44-0512,BID,Provincia de Buenos Aires,-36.7711076,-59.092721,,18,https://streetviewpixels-pa.googleapis.com/v1/thumbnail?panoid=pw0_qNDnryimKP5-GB7NHg&cb_client=search.gws-prod.gps&w=408&h=240&yaw=208.82828&pitch=0&thumbfov=100,1.0,0,2025-06-15T22:40:57.165Z,muebles
Supermercados DIA,Supermercado,https://diaonline.supermercadosdia.com.ar/,Cnel. Suárez 150,,Rauch,Provincia de Buenos Aires,-36.7772341,-59.0883114,4.1,27,https://lh3.googleusercontent.com/p/AF1QipMgfbEp-Bz81-IghvCz39ozqiO_ULKXMaL8TLY6=w408-h306-k-no,47.0,373,2025-06-15T22:40:51.185Z,tienda
Casa Sampietro,Tienda de electrodomésticos,https://sampietroweb.com/,Av. San Martín 390,+54 2297 44-3812,BPQ,Provincia de Buenos Aires,-36.776697,-59.0910613,4.7,53,https://streetviewpixels-pa.googleapis.com/v1/thumbnail?panoid=-6zfmVdoJ22QcU2JKNuY7g&cb_client=search.gws-prod.gps&w=408&h=240&yaw=84.02131&pitch=0&thumbfov=100,1.0,11,2025-06-15T22:40:44.465Z,comercio
Arribere Ugarte Y Cia SRL,Comercio,http://www.arribereugarte.com.ar/,"ADA, Alem 21",+54 2297 44-2051,Rauch,Provincia de Buenos Aires,-36.7755872,-59.0904059,4.3,60,https://lh3.googleusercontent.com/p/AF1QipOKdReb0T4d6ZXfTy8abRAqC-r6uKwCeJkKs70Y=w408-h306-k-no,5.0,3,2025-06-15T22:40:44.465Z,comercio
Maderera El Castor,Establecimiento de venta de madera,,"Dardo Rocha, Las Heras esq",+54 11 5146-1353,Rauch,Provincia de Buenos Aires,-36.7652624,-59.0886062,,6,https://lh3.googleusercontent.com/p/AF1QipMAr-XI5PJQ7JVEtvSmKBj6ISUnkHfcjNfKB1jN=w408-h724-k-no,14.0,0,2025-06-15T22:41:04.772Z,venta
acsa comunicaciones,Tienda de móviles,,Cnel. Suárez 57,+54 249 401-3000,Rauch,Provincia de Buenos Aires,-36.7762959,-59.089319,5.0,3,https://lh3.googleusercontent.com/p/AF1QipMIO1DOL7Flw6MNJXNR1Rjl6_-yAVSHE792VA8-=w408-h544-k-no,8.0,1,2025-06-15T22:41:10.963Z,telefonia
Octavio Comunicaciones,Centro comercial,,"ASI, Garralda 467",,Rauch,Provincia de Buenos Aires,-36.7750902,-59.09171,4.5,2,https://lh3.googleusercontent.com/gps-cs-s/AC9h4nrMczte80gHXUMqc4QnU9O66B74YkYACDCrvFVze3XPJ0BlCBqGvi6EGVGfMIgw5DBEq3rB3aSP6jyRlP6VJE6jtuHxlpJx8-bd5r0n4YUnjY3gNja4ev0-8HL2cuob9YlZ1bILXg=w408-h680-k-no,4.0,36,2025-06-15T22:41:10.963Z,telefonia
