title,categoryName,website,street,phone,city,state,location/lat,location/lng,totalScore,rank,imageUrl,imagesCount,reviewsCount,scrapedAt,searchString
"Despensa y anexo belen ""lo de jhonny""",Comercio,,Barrio Flucho Casa 23,+54 9 249 448-5829,Rauch,Provincia de Buenos Aires,-36.7809488,-59.0787255,5.0,1,https://lh3.googleusercontent.com/p/AF1QipN4p-lhS9O4aIyZYxcbKosrUPUrRD6O36ewvgdt=w408-h306-k-no,33.0,9,2025-05-19T00:05:29.686Z,Comercio
El Viejo Almacén,Comercio,,,+54 2297 44-2351,Rauch,Provincia de Buenos Aires,-36.7770906,-59.0885116,4.5,2,https://streetviewpixels-pa.googleapis.com/v1/thumbnail?panoid=h49PUrmrDeSsD9ycaKYi_w&cb_client=search.gws-prod.gps&w=408&h=240&yaw=71.76222&pitch=0&thumbfov=100,1.0,2,2025-05-19T00:05:29.688Z,Comercio
Campos Julian - Contenedores,Comercio,,Av. Belgrano 573,+54 2297 44-2714,Rauch,Provincia de Buenos Aires,-36.7796401,-59.081616,4.8,3,https://lh3.googleusercontent.com/gps-cs-s/AC9h4nrD2UHnJl03ZL61XMJtn-W8yA95RiYQDo07GagEsuI8GCN63jx7-5pC4cmVmT5n_Jvfgs7eWnsuJRD9X0Q7yh_H854nrSJHSkDEyLOS0TDlkIX8Y6szIPf-k2hKLcg_5Ap-MvLr_g=w408-h306-k-no,3.0,4,2025-05-19T00:05:29.688Z,Comercio
Arturo E Dualde,Comercio,,Av. San Martín 1060,+54 2297 44-0384,Rauch,Provincia de Buenos Aires,-36.7716727,-59.0850317,4.5,4,https://lh3.googleusercontent.com/gps-cs-s/AC9h4npgoh57cMpBRuM7swHXXd7NX0eWs3UrOFVllGhH9xHnZv00tD28Pq1rX44DkuNkTgH3NDTx12a7Wctedn_dHrSoHMV-LRZsNTLigcI1T0qkSkFAVAdVf5eJEHjgD0apv86mMEGc1g=w408-h725-k-no,3.0,2,2025-05-19T00:05:29.688Z,Comercio
Miguel A Siervo,Comercio,,"ABB, 9 de Julio 62",+54 2297 44-0451,Rauch,Provincia de Buenos Aires,-36.7767021,-59.0926493,5.0,5,https://streetviewpixels-pa.googleapis.com/v1/thumbnail?panoid=Gf08FzRRG00Ziir6a1s30w&cb_client=search.gws-prod.gps&w=408&h=240&yaw=70.55017&pitch=0&thumbfov=100,1.0,1,2025-05-19T00:05:29.691Z,Comercio
Forrajería Cholín,Comercio,,Av. Matheu 440,,Rauch,Provincia de Buenos Aires,-36.7830048,-59.0887596,5.0,6,https://streetviewpixels-pa.googleapis.com/v1/thumbnail?panoid=7dQWtNJWSskodQjh4t8Wog&cb_client=search.gws-prod.gps&w=408&h=240&yaw=215.91989&pitch=0&thumbfov=100,1.0,10,2025-05-19T00:05:29.691Z,Comercio
minimerca YABBESET,Tienda de alimentación,,,,Rauch,Provincia de Buenos Aires,-36.7778107,-59.0785332,,7,https://streetviewpixels-pa.googleapis.com/v1/thumbnail?panoid=nISbCaue5rWylfvOqo282w&cb_client=search.gws-prod.gps&w=408&h=240&yaw=151.41756&pitch=0&thumbfov=100,1.0,0,2025-05-19T00:05:29.691Z,Comercio
Aceites del Langueyú,Tienda de alimentación,,,,Rauch,Provincia de Buenos Aires,-36.7813912,-59.0626302,4.0,8,https://lh3.googleusercontent.com/gps-cs-s/AC9h4nprBlRhES1efetGesYuhHWhhD2evWR6qfXztJdlba8dWpZi0XjrTu520BtpElmwQQu4dMgEKM2STc0DOZ6EMiDLHU020j2lL0KtykUBwdl8xrZFxy5NoeUnUfIVIlnUhLezgRK-IA=w408-h725-k-no,3.0,9,2025-05-19T00:05:29.691Z,Comercio
Dualde Automotores,Comercio,,"BMW, Rondeau 2019",,Rauch,Provincia de Buenos Aires,-36.7736494,-59.0776384,3.7,9,https://streetviewpixels-pa.googleapis.com/v1/thumbnail?panoid=1TSMmFJn5-zWEKc_FbBmSA&cb_client=search.gws-prod.gps&w=408&h=240&yaw=44.32281&pitch=0&thumbfov=100,1.0,3,2025-05-19T00:05:29.692Z,Comercio
Mercado Guillenea,Supermercado,,"B7203BEI BEI Rauch Buenos Aires AR, Olavarría 401-499",,Rauch,Provincia de Buenos Aires,-36.7772782,-59.082597,3.9,10,https://lh3.googleusercontent.com/gps-cs-s/AC9h4nrSyu5Yes6QHv31GSx76sTaes_EwXLeMxdWgSDRDHTshEZkI7Truai1AGlV9tURCUoVufOh7zbT13YpOCdimOVXWpqaDduAWTWYdMvNQrEOsoOM_hiBJjyt7kHmVPTCRJ5AI2uf=w408-h544-k-no,21.0,54,2025-05-19T00:05:29.692Z,Comercio
Camara Comercial Industrial Y de Servicios de Rauch,Cámara de comercio,http://camaracomerciorauch.com.ar/,Av. San Martín 193,+54 2297 44-2610,Rauch,Provincia de Buenos Aires,-36.7779446,-59.093083,4.7,11,https://lh3.googleusercontent.com/p/AF1QipOPdvtHH6EsqNUs_2qSNZh1XQ1C1eaRpxiw6yoQ=w408-h271-k-no,20.0,28,2025-05-19T00:05:29.692Z,Comercio
Cooperativa Eléctrica de Egaña Ltda.,Comercio,,Cnel. Suárez 602,+54 9 249 447-6449,Rauch,Provincia de Buenos Aires,-36.7815614,-59.0832216,3.0,12,https://streetviewpixels-pa.googleapis.com/v1/thumbnail?panoid=8siQyHQQFn3859Eu6DZkmg&cb_client=search.gws-prod.gps&w=408&h=240&yaw=229.66852&pitch=0&thumbfov=100,1.0,2,2025-05-19T00:05:29.692Z,Comercio
Shell,Gasolinera,https://find.shell.com/ar/fuel/10129342-rosa-juana-crocci-de-giliberti/es_AR,Avenida General Paz Ruta Prov Nro 30,+54 2297 44-2752,Rauch,Provincia de Buenos Aires,-36.7764663,-59.0765117,4.2,13,https://lh3.googleusercontent.com/gps-cs-s/AC9h4nrfSKf81yQSEhIWoVV9sWiAg7OlvsU-QAecX7WDDY1doNGNj189nHc9KP-GJKe0CQQlAJEGOTu5n3m68QRqa0ww7pf7N5tXF5Gf1nmviIrFzYgrJ8mqYUK-RimzQW21H8QWfxUZ8A=w408-h306-k-no,58.0,364,2025-05-19T00:05:29.692Z,Comercio
Hugo C Ciolfi,Comercio,,"AJR, Av. Belgrano 454",+54 2297 44-3691,Rauch,Provincia de Buenos Aires,-36.7786636,-59.0831513,,14,https://streetviewpixels-pa.googleapis.com/v1/thumbnail?panoid=ChPpJHNjEW2q8WefOVnMdw&cb_client=search.gws-prod.gps&w=408&h=240&yaw=238.95787&pitch=0&thumbfov=100,1.0,0,2025-05-19T00:05:29.693Z,Comercio
Club Comercio Rauch,,,Av. San Martín 439,,Rauch,Provincia de Buenos Aires,-36.776132,-59.0906475,,15,https://streetviewpixels-pa.googleapis.com/v1/thumbnail?panoid=e9QkvY4OU-M59CMW-K-Wuw&cb_client=search.gws-prod.gps&w=408&h=240&yaw=281.912&pitch=0&thumbfov=100,1.0,0,2025-05-19T00:05:29.693Z,Comercio
One Market 24 horas,Supermercado,,,+54 249 464-1605,Rauch,Provincia de Buenos Aires,-36.7782408,-59.0836502,4.4,16,https://streetviewpixels-pa.googleapis.com/v1/thumbnail?panoid=8qOAmKRoYG_Po3TjyvWCTQ&cb_client=search.gws-prod.gps&w=408&h=240&yaw=216.60553&pitch=0&thumbfov=100,1.0,71,2025-05-19T00:05:29.693Z,Comercio
Palmieri Julio E Hijos,Comercio,,Garralda 260,+54 2297 44-2345,Rauch,Provincia de Buenos Aires,-36.7767339,-59.093429,4.0,17,https://streetviewpixels-pa.googleapis.com/v1/thumbnail?panoid=rFxVQT15Tn_4hF5XqLcwCg&cb_client=search.gws-prod.gps&w=408&h=240&yaw=117.05493&pitch=0&thumbfov=100,1.0,1,2025-05-19T00:05:29.693Z,Comercio
Erro seguridad,Comercio,https://www.facebook.com/mariajose.erro.10?mibextid=ZbWKwL,Av. Belgrano 269,,Rauch,Provincia de Buenos Aires,-36.7768871,-59.0849474,,18,https://streetviewpixels-pa.googleapis.com/v1/thumbnail?panoid=udpA6qpaH21P1vig6_Buwg&cb_client=search.gws-prod.gps&w=408&h=240&yaw=40.721825&pitch=0&thumbfov=100,1.0,0,2025-05-19T00:05:29.693Z,Comercio
Celiberti Enrique Luis,Comercio,,Av. San Martín 338,+54 2297 44-0415,BPQ,Provincia de Buenos Aires,-36.7771237,-59.0914758,4.8,19,https://streetviewpixels-pa.googleapis.com/v1/thumbnail?panoid=WcRcCTy6FmZka8ACpJCMOg&cb_client=search.gws-prod.gps&w=408&h=240&yaw=116.25002&pitch=0&thumbfov=100,1.0,12,2025-05-19T00:05:29.693Z,Comercio
Provenzano Luis,Comercio,,"ACA, Alberti 13",+54 2297 44-2173,Rauch,Provincia de Buenos Aires,-36.7767082,-59.0908077,,20,https://streetviewpixels-pa.googleapis.com/v1/thumbnail?panoid=3IWeGuIyp_P7MQa7yWaxOA&cb_client=search.gws-prod.gps&w=408&h=240&yaw=27.285376&pitch=0&thumbfov=100,1.0,0,2025-05-19T00:05:29.693Z,Comercio
Almacén 'Lo Maty',Tienda general,,Juan Silva 327,,Rauch,Provincia de Buenos Aires,-36.7830896,-59.0911519,4.8,2,https://lh3.googleusercontent.com/p/AF1QipMRvSd51mQuCe71zdgOa872Su1zHYIiOlrrx6bp=w426-h240-k-no,38.0,4,2025-05-19T00:05:30.204Z,Comercio
Ibargoyen Mario Riune Martin Sebastian,Comercio,,"Av H Yrigoyen 446, Rauch, Buenos Aires",+54 2297 44-0379,Rauch,Buenos Aires Sur,-36.7832489,-59.0999985,5.0,7,,,1,2025-05-19T00:05:30.211Z,Comercio
Minimercado Tu Ahorro,Supermercado,,Rondeau 37 A,,Rauch,Provincia de Buenos Aires,-36.7838047,-59.0885761,4.4,10,https://lh3.googleusercontent.com/gps-cs-s/AC9h4npBR7TCjR9aNsdsR7MLeNFjTJDJdJEjswZHRecjQP7jm70vvFNkg-KoD33-kgHWMb-EAhhgQgHR6GBC-lUUTVoJPriU93T4hvQrWUwePHHe_JX3iAH9ipFR_2f3YeAY4qu8kw2X=w408-h306-k-no,16.0,21,2025-05-19T00:05:30.211Z,Comercio
Kiosco Lo Del Negro,Tienda de artículos para el hogar,,Av. San Martín 326,,BPQ,Provincia de Buenos Aires,-36.7772125,-59.0915838,4.7,13,https://streetviewpixels-pa.googleapis.com/v1/thumbnail?panoid=UgRNMkENbZ_zaDHZeOZDPw&cb_client=search.gws-prod.gps&w=408&h=240&yaw=139.65396&pitch=0&thumbfov=100,1.0,3,2025-05-19T00:05:30.212Z,Comercio
Daniel Carregado,Comercio,,Aveleyra 338,+54 2297 44-3275,Rauch,Provincia de Buenos Aires,-36.7752517,-59.0938719,4.3,15,https://streetviewpixels-pa.googleapis.com/v1/thumbnail?panoid=EdeUvhX6jv9JenJ-B0_z8g&cb_client=search.gws-prod.gps&w=408&h=240&yaw=128.39288&pitch=0&thumbfov=100,1.0,3,2025-05-19T00:05:30.212Z,Comercio
"Distribuidora Los Teros, venta mayorista y minorista de bebidas",Tienda de bebidas alcohólicas,,Castelli 41,,Rauch,Provincia de Buenos Aires,-36.7783329,-59.0922144,5.0,17,https://lh3.googleusercontent.com/p/AF1QipNQ9TBe5JbTP6yg0dHxFce25TMBcmscKU4HJW54=w408-h544-k-no,31.0,14,2025-05-19T00:05:30.212Z,Comercio
Minimercado Indiana,Supermercado,,Alberti 294,,ACF,Provincia de Buenos Aires,-36.7792266,-59.0875248,4.8,18,https://streetviewpixels-pa.googleapis.com/v1/thumbnail?panoid=-lh3867tg23vgA9a8F5sRQ&cb_client=search.gws-prod.gps&w=408&h=240&yaw=57.56837&pitch=0&thumbfov=100,1.0,4,2025-05-19T00:05:30.212Z,Comercio
MinimercadoHG,Tienda general,https://www.instagram.com/minimercadohg?igsh=cWExcW9oZGhpYXc1,Av. Gral. Paz 350,+54 249 433-2251,Rauch,Provincia de Buenos Aires,-36.7826955,-59.0844884,,19,https://streetviewpixels-pa.googleapis.com/v1/thumbnail?panoid=BdJD3H_5-1BzKhrRJi-0nw&cb_client=search.gws-prod.gps&w=408&h=240&yaw=119.88067&pitch=0&thumbfov=100,2.0,0,2025-05-19T00:05:30.212Z,Comercio
Minimercado Por Centavo,Tienda de alimentación,,Letamendi 367,,Rauch,Provincia de Buenos Aires,-36.7776957,-59.0901759,,20,https://lh3.googleusercontent.com/gps-cs-s/AC9h4nqBY5Bv657AEv0wte3Ya4tvN0ZeP4fXWf9qe25ExwcgcgRS8bezA2Cg_M71HHSZtIUVWfInC4QTIeN49wKD885FJjmpgheXAmys8csM24mRpxy5AY2dvUgDxkiDlENKv5yqOawe5w=w408-h408-k-no,2.0,0,2025-05-19T00:05:30.212Z,Comercio
Tecno engorde Raúch s.r.l.,Tienda de alimentos para animales,,Parque industrial,+54 9 249 448-4851,Rauch,Provincia de Buenos Aires,-36.7834717,-59.0646028,4.8,22,https://lh3.googleusercontent.com/gps-cs-s/AC9h4noZaN_SfJ_qM_0jxxbwWAXHRppwQTUud3jf2t9vQwTfbLz9ZuIN41MOOdadAohmciDLwKqFODm37hFW1OX0uIt-4EHcZBrZ4iz0D17JpIpHbeXzA85IXHn-9IRfMPpH6dcLhxJfAg=w408-h550-k-no,114.0,14,2025-05-19T00:05:30.826Z,Comercio
Giatti - Fabrica de Pastas,Comercio,,Av. San Martín 346,+54 2297 44-2526,BPQ,Provincia de Buenos Aires,-36.7770646,-59.0914036,4.7,15,https://streetviewpixels-pa.googleapis.com/v1/thumbnail?panoid=JmYRWtgfpTdt7ueov35plA&cb_client=search.gws-prod.gps&w=408&h=240&yaw=122.32245&pitch=0&thumbfov=100,1.0,7,2025-05-19T00:05:32.459Z,Comercio
Minimercado C Y G,Tienda de alimentación,,Av. Yrigoyen 376,+54 2297 44-3535,Rauch,Provincia de Buenos Aires,-36.7753325,-59.0979019,4.5,4,https://streetviewpixels-pa.googleapis.com/v1/thumbnail?panoid=_4yXjmdPoH1ci3-6UkNxOA&cb_client=search.gws-prod.gps&w=408&h=240&yaw=46.722263&pitch=0&thumbfov=100,1.0,14,2025-05-19T00:05:35.283Z,Comercio
despesa y anexo las acacias y Üma ropa informal,Comercio,https://m.facebook.com/despensalasacacias/,7203,,Rauch,Provincia de Buenos Aires,-36.7731278,-59.0971487,5.0,6,https://streetviewpixels-pa.googleapis.com/v1/thumbnail?panoid=GBYvI9SPNhnndc1TtGojoA&cb_client=search.gws-prod.gps&w=408&h=240&yaw=22.227795&pitch=0&thumbfov=100,1.0,4,2025-05-19T00:05:35.284Z,Comercio
Minimercado Tu Ahorro,Tienda general,,Alem 590,,Rauch,Provincia de Buenos Aires,-36.7699042,-59.0975225,,11,https://lh3.googleusercontent.com/gps-cs-s/AC9h4noSjkIlhNaHrtUnJR60nqwBXwZ8ai-glKHMjGrh7CbdRFshC7R-EkWK3ufGheAgLewmHGs7lzNuS9Xsh2Jzz-rtzmcevazmK0A-xfTQ-7QyjUKO6FkqdsWo0wV7rzLxnsfdL87F=w426-h240-k-no,10.0,0,2025-05-19T00:05:35.284Z,Comercio
Repuestos jd,Comercio,,Av. Alvear 834,+54 249 400-2781,Buenos Aires,Provincia de Buenos Aires,-36.7677616,-59.0941234,4.9,12,https://lh3.googleusercontent.com/p/AF1QipMI71Rpnm1OfJzZW-oC0v-B1_rer-k-XGup2VyI=w426-h240-k-no,4.0,12,2025-05-19T00:05:35.284Z,Comercio
Los caseritos,Tienda de alimentación,,Eduardo Rodríguez 253,+54 249 434-1113,Rauch,Provincia de Buenos Aires,-36.7757524,-59.1013832,4.0,15,https://lh3.googleusercontent.com/gps-cs-s/AC9h4noT3xwK3S1_bgOACIKMblRYKgvviZbaThnS-fz8r2-l60XPkWkv-NE0He2kS6EcHL0jUoxWOiGNa7gmVZf0NezTETrIJBferNvrV9_psAIby7kW7UwOx9BbkCR3LjEKtRbecAF0vw=w546-h240-k-no,76.0,1,2025-05-19T00:05:35.366Z,Comercio
Autoservicio La Suerte,Supermercado,,Alem 590 598,+54 249 431-7611,Rauch,Provincia de Buenos Aires,-36.7703616,-59.0969038,4.4,16,https://lh3.googleusercontent.com/gps-cs-s/AC9h4noSbS-iScW12P_kVP971GW7smnAnqX6zpNXqDSxJMRj4NHeqg0PsaboVs9KNkJIBDZp_VnnY1MR2OyWpzWJtDh33-MjBCAncLEiqwqWj7PjYytper_lMIirXywJve0UVx0rhcF4xA=w408-h725-k-no,32.0,29,2025-05-19T00:05:35.366Z,Comercio
"""Las Canarias""",Tienda de ropa,,Eduardo Rodríguez 455,+54 249 402-8802,Rauch,Provincia de Buenos Aires,-36.7761875,-59.1009302,5.0,17,https://lh3.googleusercontent.com/p/AF1QipMSQJxOdo0-jrXgQJHFHvr9Dxd650BTNs65Iczb=w426-h240-k-no,23.0,7,2025-05-19T00:05:35.367Z,Comercio
Lo De Pini Autoservicio - Minimercado,Tienda de alimentación,,,,Rauch,Provincia de Buenos Aires,-36.773032,-59.0990525,,19,https://streetviewpixels-pa.googleapis.com/v1/thumbnail?panoid=U3AB65UYOofHhdQmtHTvZw&cb_client=search.gws-prod.gps&w=408&h=240&yaw=149.85896&pitch=0&thumbfov=100,1.0,0,2025-05-19T00:05:35.367Z,Comercio
Almacén El Paisa,Tienda de alimentación,,"Pellegrini 99-51, B7203BHA",,Rauch,Provincia de Buenos Aires,-36.7713151,-59.0865023,4.3,18,https://lh3.googleusercontent.com/gps-cs-s/AC9h4np9SZigrSUUPUizHpeQr_w6HvMPDMnbMV2G5ou5rrNMrgGo4YKb21WZ6zk6sgqHCXMybQguHpeG18_qEo6AlOhHgb2YlWjpmOhNq3baUuBDHQx8G4Yc7Ngraj9rjsxb7CWerxA=w408-h544-k-no,2.0,10,2025-05-19T00:05:37.970Z,Comercio
Pollería & despensa Arcoiris,Tienda de aves de corral,,Quintana 67,+54 249 420-7828,Rauch,Provincia de Buenos Aires,-36.769961,-59.0845317,5.0,4,https://lh3.googleusercontent.com/gps-cs-s/AC9h4np7H1QsQ-g_oZ9jKKSoXieqTdMOofAUl0yEGiRqK1onlFGorYFKkKlkAFAACYAMrFUXWdHUQZTfY8wpzYRd2cs77QFgpIBoOJ2PX6xl5_PYGdm6TyQlFZ4wY5kZVApmsnpiyB5O=w408-h243-k-no,8.0,1,2025-05-19T00:05:38.771Z,Comercio
La Granja de Los Mellis,Tienda general,,Av. San Martín 895,,Rauch,Provincia de Buenos Aires,-36.772852,-59.086725,,10,https://streetviewpixels-pa.googleapis.com/v1/thumbnail?panoid=60OHXyUkwCXm_-9tfP7Slw&cb_client=search.gws-prod.gps&w=408&h=240&yaw=321.01495&pitch=0&thumbfov=100,1.0,0,2025-05-19T00:05:38.771Z,Comercio
Maxi kiosco del centro,Kiosco,,Av. San Martín 592,,Rauch,Provincia de Buenos Aires,-36.7752919,-59.0892411,4.3,13,https://lh3.googleusercontent.com/p/AF1QipP7beZUacF-e7DRnvC1s_DGaU_gfIrj5vQvs35I=w408-h306-k-no,9.0,3,2025-05-19T00:05:38.771Z,Comercio
Remis Plaza,Comercio,,Lavalle 721,+54 249 447-6368,Rauch,Provincia de Buenos Aires,-36.7732353,-59.0893059,3.8,14,https://streetviewpixels-pa.googleapis.com/v1/thumbnail?panoid=kB2TtGLpq3YjFzHc6Sl4zg&cb_client=search.gws-prod.gps&w=408&h=240&yaw=342.1516&pitch=0&thumbfov=100,1.0,4,2025-05-19T00:05:38.771Z,Comercio
Despensa Avenida,Tienda de alimentación,,Av. San Martín,,Rauch,Provincia de Buenos Aires,-36.7707922,-59.0841968,,19,https://streetviewpixels-pa.googleapis.com/v1/thumbnail?panoid=WDubub4J8hq61CPYFfCMcw&cb_client=search.gws-prod.gps&w=408&h=240&yaw=306.2403&pitch=0&thumbfov=100,1.0,0,2025-05-19T00:05:38.771Z,Comercio
Elfrances - Ramos generales,Tienda general,http://elfrances---ramos-generales.webnode.com/,Lavalle 1019,+54 249 432-6535,Rauch,Provincia de Buenos Aires,-36.7709537,-59.0866879,,20,https://lh3.googleusercontent.com/p/AF1QipPbQBevzm75eM_LIqalhpgvqQxjeFTvcCiqr8dn=w408-h408-k-no,2.0,0,2025-05-19T00:05:38.771Z,Comercio
Corralón Artigas,Tienda de materiales para la construcción,,"Ruta 30, Brandsen",+54 249 447-6986,Rauch,Provincia de Buenos Aires,-36.767624,-59.085224,4.3,23,https://lh3.googleusercontent.com/p/AF1QipOUSJB0zuXhcJP5x37Nutim8_8nuI1f747pThIE=w408-h306-k-no,62.0,15,2025-05-19T00:05:39.551Z,Comercio
Manjares Pampeanos,Quesería,https://instagram.com/manjares.pampeanos?utm_medium=copy_link,7203,+54 249 450-8768,Rauch,Provincia de Buenos Aires,-36.7851533,-59.0625926,4.9,8,https://lh3.googleusercontent.com/gps-cs-s/AC9h4np_bh0MR0gIsHpfMUNRMgqUHfYR5sUwffQBn4i7gH44LN_Ov-82lrcMj2M6nA3-H4Tdj76mL9Z36CtsdZ-uJVyqiaheuoSvV45P2dbJZAwciRUP3KkILGCt8546TxSJqtPbxtin=w408-h306-k-no,71.0,101,2025-05-19T00:05:41.467Z,Comercio
Agronomía El Puente,Ingeniero agrónomo,,"Parque industrial, SIPLA 1",+54 249 448-6345,Rauch,Provincia de Buenos Aires,-36.783305,-59.0603471,5.0,20,https://lh3.googleusercontent.com/p/AF1QipPsj7IKRq255OPztKy6L9QtVhvEx_J7yyxhPkl1=w408-h306-k-no,8.0,2,2025-05-19T00:05:41.468Z,Comercio
Coop. Agrop. E Ind. de Rauch,Supermercado,,"ASE, Garralda 223",+54 2297 44-2511,Rauch,Provincia de Buenos Aires,-36.7768834,-59.0939173,4.5,18,https://lh3.googleusercontent.com/gps-cs-s/AC9h4nq32XmfgF0jR1snDlq1WnZD_lLvi9KgW64qTHvi2Z-eDZ32bL8xiM0n05WlUgEqsSmt6AkorFSu1Hho0fu2Y8sn9oZYjlHk6eY1RJZD9lW8qEatFPCAaH4J0cxCLqNjG1ey1Y4=w408-h544-k-no,16.0,282,2025-05-19T00:05:43.779Z,Comercio
Amar Asociacion Mutual Jub Y Pens,Comercio,,Av. San Martín 360,+54 2297 44-2470,BPQ,Provincia de Buenos Aires,-36.776961,-59.0912775,5.0,20,https://lh3.googleusercontent.com/gps-cs-s/AC9h4npfdJbbh9iIGy5doqg5z8DvYBJ2MDoGnl6nb6M04JrQohks1cINxT-fhX_jGiBfQUZI9U-mUIDfQ4cRsnByb8FSXsiAPxYA_U0cvTH1rHt2j8ig8aY2i_TyfaEt7lAlbu3bSf7cUg=w408-h306-k-no,4.0,4,2025-05-19T00:05:43.779Z,Comercio
One24,Kiosco,,"Pellegini, Marcelo Torcuato de Alvear y",,Rauch,Provincia de Buenos Aires,-36.7666226,-59.0924306,4.8,9,https://streetviewpixels-pa.googleapis.com/v1/thumbnail?panoid=T_q5oJv2OXwwjDoniwhXDw&cb_client=search.gws-prod.gps&w=408&h=240&yaw=133.50668&pitch=0&thumbfov=100,1.0,6,2025-05-19T00:05:47.168Z,Comercio
despensa El Amanecer,Tienda de alimentación,,,,Rauch,Provincia de Buenos Aires,-36.7703334,-59.0904795,3.0,13,https://streetviewpixels-pa.googleapis.com/v1/thumbnail?panoid=zU0dKiQEiLv2PdoCHgSixw&cb_client=search.gws-prod.gps&w=408&h=240&yaw=301.8618&pitch=0&thumbfov=100,1.0,1,2025-05-19T00:05:47.168Z,Comercio
carniceria La Alegria,Comercio,,"BIC, B7203BIC, Av. Pres. Juan Domingo Perón 201-299",+54 249 448-4260,Rauch,Provincia de Buenos Aires,-36.7718838,-59.0917224,4.5,15,https://lh3.googleusercontent.com/p/AF1QipO6Ipu15SLlF1z0aiy_umv6gUDL5eZ4yIHI50kk=w408-h544-k-no,65.0,17,2025-05-19T00:05:47.169Z,Comercio
MINIMERCADO MIGUEL,Tienda de alimentación,,,,Rauch,Provincia de Buenos Aires,-36.7717934,-59.0918148,,16,https://streetviewpixels-pa.googleapis.com/v1/thumbnail?panoid=tZTe6kKKZ9FIXlLvTcdmuQ&cb_client=search.gws-prod.gps&w=408&h=240&yaw=148.82542&pitch=0&thumbfov=100,1.0,0,2025-05-19T00:05:47.169Z,Comercio
Rotisería Lucy,Supermercado,,Alem 330,+54 2297 44-3254,Rauch,Provincia de Buenos Aires,-36.7727096,-59.093996,4.4,17,https://lh3.googleusercontent.com/gps-cs-s/AC9h4nqB5fkgpBMznnQdBJSQGC6BJa4Y8JW4oEwDaClWhacnZEGj6jo6BcUcbML4IReJehXe2MjwTU45eqisi9pMko-Kj1T5R2zF9n3izzUQxIq8zsTfJ6HjgoMVEIEv8xN659_vtiVU=w426-h240-k-no,7.0,80,2025-05-19T00:05:47.169Z,Comercio
La Mere Michelle - Fábrica de Conservas,Fábrica de conservas,http://www.lameremichelle.com.ar/,Av H Yrigoyen 601,+54 2297 44-2547,Rauch,Provincia de Buenos Aires,-36.7732825,-59.1008382,4.7,26,https://lh3.googleusercontent.com/p/AF1QipPX0efyqVhDpY3gXO42_VEw1sn_vXjKC4LCkfRo=w426-h240-k-no,15.0,62,2025-05-19T00:05:47.779Z,Comercio
Doña Luisa,Pastelería,,Av. Alvear 278,+54 249 433-8898,Rauch,Provincia de Buenos Aires,-36.7719077,-59.0992258,5.0,27,https://lh3.googleusercontent.com/p/AF1QipNiHssKb9GB0JnkHGlbrD3G9glm1ryTW0LD3AVN=w408-h725-k-no,10.0,1,2025-05-19T00:05:47.779Z,Comercio
Despensa Mi Mamà Es Mi Angel,Tienda de alimentación,,"B7203AYO, Las Heras 701-799",+54 249 431-0515,Rauch,Provincia de Buenos Aires,-36.7691611,-59.0935167,5.0,26,https://lh3.googleusercontent.com/gps-cs-s/AC9h4nqXo4V_Nu9ZcBjcp7oJ3Q03OfCUhmiJnOUBqCEaEigfifoO9_W5NKzRuePIOsskui1DZFfHhj2CERH1RfyaxmnW4ZsaU9MWnKv0O_EHaFbRU2eBZsYhqKLNCdoMiXQIJVqeLTvj=w408-h306-k-no,4.0,2,2025-05-19T00:05:48.207Z,Comercio
Super Chino Nuevo,Tienda de alimentación,,"300-398, B7203BIQ, Av. Pres. Juan Domingo Perón",,Rauch,Provincia de Buenos Aires,-36.7711254,-59.0924871,3.8,27,https://lh3.googleusercontent.com/gps-cs-s/AC9h4no8EHQUu6y1HFjaZawT0bPB3jAR9JwzVU1WJhlmlWGl5nEbZPhucIQDmluaoxMT4UBT6f997GB0eBE11pciwVORlAob5dcIzMTUvblzvHdDQPcE0Keppivk5JRmSyaC6iqviymJ=w408-h839-k-no,3.0,93,2025-05-19T00:05:48.207Z,Comercio
"Vineria ""El Tonel""",Tienda de vinos,http://instagram.com/eltonelvineria,"Avenida Perón, Balcarce y",+54 249 447-7356,Rauch,Provincia de Buenos Aires,-36.7705612,-59.0929643,4.6,28,https://lh3.googleusercontent.com/p/AF1QipOknQm8aN_HAOqqEH7P44Gsz5309WJN-yTBHS35=w408-h725-k-no,114.0,75,2025-05-19T00:05:48.207Z,Comercio
Terra Herramientas,Tienda de herramientas,http://www.terraherramientas.com.ar/,Colectora Alvear 1150,+54 249 402-0504,AEX,Provincia de Buenos Aires,-36.7650016,-59.0916388,3.1,29,https://lh3.googleusercontent.com/p/AF1QipMjXFo8cM1wEwGxuQzyLqX6G_XQs4nXghc7GRMu=w408-h544-k-no,19.0,7,2025-05-19T00:05:48.207Z,Comercio
Organdí - Confección y Venta de Prendas y Telas,Tienda de telas,https://instagram.com/organdisederiarauch?igshid=YmMyMTA2M2Y=,Avellaneda 174,+54 9 249 421-6105,Rauch,Provincia de Buenos Aires,-36.7711581,-59.0884617,4.8,30,https://lh3.googleusercontent.com/p/AF1QipMTIr6lKAdOnyaIrcF8aNjySCyQgsJ_JxVjwQ6o=w408-h544-k-no,6.0,8,2025-05-19T00:05:48.207Z,Comercio
Ferreteria TATO,Ferretería,,"B7203BIR, Av. Pres. Juan Domingo Perón 410",+54 249 466-2890,Rauch,Provincia de Buenos Aires,-36.7704742,-59.0930384,4.6,31,https://streetviewpixels-pa.googleapis.com/v1/thumbnail?panoid=UxS5SOTqML71LW3pTDldMQ&cb_client=search.gws-prod.gps&w=408&h=240&yaw=46.977833&pitch=0&thumbfov=100,1.0,62,2025-05-19T00:05:48.207Z,Comercio
Jd Repuestos,Tienda de repuestos para automóviles,,Avellaneda,,Rauch,Provincia de Buenos Aires,-36.7678781,-59.0939502,,32,https://streetviewpixels-pa.googleapis.com/v1/thumbnail?panoid=B7E8zxQUaLKBmVFSXD8y8A&cb_client=search.gws-prod.gps&w=408&h=240&yaw=147.29881&pitch=0&thumbfov=100,1.0,0,2025-05-19T00:05:48.208Z,Comercio
Maderera El Castor,Establecimiento de venta de madera,,"Dardo Rocha, Las Heras esq",+54 11 5146-1353,Rauch,Provincia de Buenos Aires,-36.7652624,-59.0886062,,33,https://lh3.googleusercontent.com/p/AF1QipMAr-XI5PJQ7JVEtvSmKBj6ISUnkHfcjNfKB1jN=w408-h724-k-no,14.0,0,2025-05-19T00:05:48.208Z,Comercio
CARNICERIA EL RUANO,Carnicería,,Av. Pres. Juan Domingo Perón 395,,Rauch,Provincia de Buenos Aires,-36.7706065,-59.0933528,,34,https://streetviewpixels-pa.googleapis.com/v1/thumbnail?panoid=gEen_n81rKqmV66_anZLZA&cb_client=search.gws-prod.gps&w=408&h=240&yaw=218.09084&pitch=0&thumbfov=100,1.0,0,2025-05-19T00:05:48.208Z,Comercio
Automotores Artigas,Compraventa de automóviles,,,+54 249 432-5778,Rauch,Provincia de Buenos Aires,-36.7649155,-59.091475,,36,https://lh3.googleusercontent.com/p/AF1QipM7EoJSf1bc6CNJPwEIM-60Y9IYBHt3j1O8mTbu=w408-h306-k-no,5.0,0,2025-05-19T00:05:48.208Z,Comercio
Super PC Rauch,Tienda de informática,,Balcarce 1001,+54 249 435-8292,Rauch,Provincia de Buenos Aires,-36.7682494,-59.0901479,,37,https://streetviewpixels-pa.googleapis.com/v1/thumbnail?panoid=_xL4LKB-EG5hev3nw6bfgw&cb_client=search.gws-prod.gps&w=408&h=240&yaw=309.61942&pitch=0&thumbfov=100,1.0,0,2025-05-19T00:05:48.208Z,Comercio
Pet Shop Alem Forrajeria,Tienda de alimentos para animales,,,,,,-36.7746716,-59.0901985,4.0,38,https://lh3.googleusercontent.com/p/AF1QipPKpf9l9jY7aVUmb96XLrH3rjnJ58A4R02vC1FT=w425-h240-k-no,3.0,1,2025-05-19T00:05:48.208Z,Comercio
Panaderia Lo de Recio Horno A Le a,Panadería,,Aveleyra 127,+54 2297 44-2274,Rauch,Provincia de Buenos Aires,-36.7790446,-59.0938012,4.3,17,https://lh3.googleusercontent.com/gps-cs-s/AC9h4npPtb29Yb_Oycv2qnWaQsx-vbO0NN_TeJvaVdvj0eFCwrSlG45tKCjaJX1ZPWHfhq6Gb_U0rie-9kkzkPyePcMmQ6YT_L_06TGUeS34z4QcPdkE8OSzEDgIc8jzMcsSjsE7W0BwoQ=w408-h378-k-no,21.0,55,2025-05-19T00:05:52.073Z,Comercio
"""La Safita"" artículos de limpieza y bazar.",Tienda de artículos para el hogar,,Av. Matheu 296,,BBP,Provincia de Buenos Aires,-36.7815648,-59.0906236,4.9,18,https://lh3.googleusercontent.com/gps-cs-s/AC9h4noooXQpSnsoqQgEIQZKxEpez-xRPIULhBoDz7W1fPW95JuKNGjzHnBwvWMdc38m0k8fPcfqP9lDo-ySsQ0olcil3i_Ql0pK0AFQ0VEgRCr3pWzKoMh-vAqnemlxzEOlEVla4_NR=w408-h306-k-no,12.0,7,2025-05-19T00:05:52.073Z,Comercio
Los Chavales,Tienda de ropa,,Alberti 134,+54 2297 44-0721,ACD,Provincia de Buenos Aires,-36.7778227,-59.0893957,4.8,20,https://streetviewpixels-pa.googleapis.com/v1/thumbnail?panoid=SPqTODHISukpRspZWfIdZw&cb_client=search.gws-prod.gps&w=408&h=240&yaw=47.010563&pitch=0&thumbfov=100,1.0,13,2025-05-19T00:05:52.073Z,Comercio
MEGACOMPRAS Rauch,Comercio,,Cnel. Suárez 155,,Rauch,Provincia de Buenos Aires,-36.7772504,-59.0882878,,19,https://lh3.googleusercontent.com/gps-cs-s/AC9h4npwPZvTDEFrAm95Oc5NTSvoQ9Ujc7hyY41v7IBOuMV-PtjPXVi6xeSbLl_SPE6GcdwdwdpNoIkH1jEe8VHB4tXJnn0de5eduf9pkAzQr4sTscMtyI2UCxvJSXZm-cN_zlrSZhk=w408-h306-k-no,2.0,0,2025-05-19T00:05:52.969Z,Comercio
Mercat Rauch,Tienda de vinos,https://www.instagram.com/mercatrauch/,"Moreno, Bolívar y",+54 249 431-4555,Rauch,Provincia de Buenos Aires,-36.7770101,-59.0870855,4.9,20,https://lh3.googleusercontent.com/p/AF1QipN5frADN4PS54GQe35shorCCAAPFpRaZppC7MsD=w426-h240-k-no,1089.0,29,2025-05-19T00:05:52.970Z,Comercio
Minimercado S&M,Tienda de alimentación,,Pueyrredón 316,,Rauch,Provincia de Buenos Aires,-36.7757889,-59.0826393,,26,https://streetviewpixels-pa.googleapis.com/v1/thumbnail?panoid=SUldH35pT-lYc8k-e1l-aw&cb_client=search.gws-prod.gps&w=408&h=240&yaw=61.15333&pitch=0&thumbfov=100,1.0,0,2025-05-19T00:05:55.121Z,Comercio
Visual Center,Comercio,,Letamendi 417,,Rauch,Provincia de Buenos Aires,-36.7773161,-59.0898046,,35,https://streetviewpixels-pa.googleapis.com/v1/thumbnail?panoid=oSoY_oNEEMUT9JCnEA6BOA&cb_client=search.gws-prod.gps&w=408&h=240&yaw=292.58057&pitch=0&thumbfov=100,1.0,0,2025-05-19T00:05:55.568Z,Comercio
Open 24,Tienda general,,Av. San Martín 331,,Rauch,Provincia de Buenos Aires,-36.7773857,-59.0921592,4.5,39,https://streetviewpixels-pa.googleapis.com/v1/thumbnail?panoid=Ip5G3RAKdRyiNhja5uYUzA&cb_client=search.gws-prod.gps&w=408&h=240&yaw=273.44275&pitch=0&thumbfov=100,1.0,6,2025-05-19T00:05:55.568Z,Comercio
Buzzella Hogar,Comercio,,"ASH, Garralda 302",,Rauch,Provincia de Buenos Aires,-36.776359,-59.0927977,,41,https://streetviewpixels-pa.googleapis.com/v1/thumbnail?panoid=uP249xe1sCqGNiyKyK_Nkw&cb_client=search.gws-prod.gps&w=408&h=240&yaw=136.17285&pitch=0&thumbfov=100,1.0,0,2025-05-19T00:05:56.565Z,Comercio
DISTRIBUIDORA JE,Papelería,https://www.instagram.com/je_distribuidorapapelera?igsh=MWtseTJ0OWd1OTl5bg==,"Alberti, Almte. Brown y",+54 249 457-5928,Rauch,Provincia de Buenos Aires,-36.774911,-59.089796,5.0,45,https://lh3.googleusercontent.com/p/AF1QipOwm6HsMPM9b0RjIBnmu-gqlAee2731LWx6026g=w408-h408-k-no,38.0,3,2025-05-19T00:05:56.565Z,Comercio
Centro Empleados De Comercio De Rauch Osecac,,,Av. San Martín 452,,Rauch,Provincia de Buenos Aires,-36.7763708,-59.0905304,,46,https://streetviewpixels-pa.googleapis.com/v1/thumbnail?panoid=TSSi6P9RN7--d2bIZvan8w&cb_client=search.gws-prod.gps&w=408&h=240&yaw=134.25223&pitch=0&thumbfov=100,1.0,0,2025-05-19T00:05:56.565Z,Comercio
Arribere Ugarte Y Cia SRL,Comercio,http://www.arribereugarte.com.ar/,"ADA, Alem 21",+54 2297 44-2051,Rauch,Provincia de Buenos Aires,-36.7755872,-59.0904059,4.3,47,https://lh3.googleusercontent.com/p/AF1QipOKdReb0T4d6ZXfTy8abRAqC-r6uKwCeJkKs70Y=w408-h306-k-no,5.0,3,2025-05-19T00:05:56.565Z,Comercio
La Esquina,Tienda de alimentación,,Garralda 582,,Rauch,Provincia de Buenos Aires,-36.7743939,-59.0905481,,48,https://streetviewpixels-pa.googleapis.com/v1/thumbnail?panoid=ken2ob53xaCwmPV_rDopkA&cb_client=search.gws-prod.gps&w=408&h=240&yaw=161.02982&pitch=0&thumbfov=100,1.0,0,2025-05-19T00:05:56.565Z,Comercio
Juguetería Sapo Pepe,Comercio,,Garralda 448,+54 2297 44-0079,ASJ,Provincia de Buenos Aires,-36.7754326,-59.0916185,4.7,50,https://lh3.googleusercontent.com/gps-cs-s/AC9h4nrdxCZu_v67jQvEb9QKVvrLTSWn9GEM1SQosPEKvXX5MkqbHe9DylA2p1TAFLK74cG4WlBmTISQlMnAOXaBiHhVflgthfgL2dYmdq_KJUzWihPafakJIL_zUM1p7ptYwCnvN_NU=w408-h306-k-no,4.0,7,2025-05-19T00:05:56.565Z,Comercio
Hendel Rauch,Tienda de electrodomésticos,https://www.hendel.com/,Av. San Martín 476,+54 11 6091-7532,BPR,Provincia de Buenos Aires,-36.7761898,-59.090301,4.5,51,https://lh3.googleusercontent.com/gps-cs-s/AC9h4nr1zDW0viZw0Qag0zY0qhyaFj8XHbk_Ql-6-Yg1gKrcSvBIPgL-Qqn2o1KIB6h1vWxdrVGN1JEp_u2xevwP3L7Wona4lU-x7nFligPq31DJNUxh1kLmUnAVlaDmmUjbDszIjycTkA=w546-h240-k-no,14.0,87,2025-05-19T00:05:56.565Z,Comercio
Alega,Tienda de alimentación,,25 de Mayo,,Rauch,Provincia de Buenos Aires,-36.7773501,-59.093952,,53,https://streetviewpixels-pa.googleapis.com/v1/thumbnail?panoid=iNrQdl_KoGVoIrPXDRd6cA&cb_client=search.gws-prod.gps&w=408&h=240&yaw=208.90424&pitch=0&thumbfov=100,1.0,0,2025-05-19T00:05:56.565Z,Comercio
JM Limpieza,Tienda de artículos para el hogar,,Aristóbulo del Valle 155 7203,+54 249 435-4105,Rauch,Provincia de Buenos Aires,-36.7736551,-59.0910293,4.3,54,https://lh3.googleusercontent.com/p/AF1QipMfuf786OeK2indUemObDodP9qiZRd0H6jkCcpL=w480-h240-k-no,3.0,4,2025-05-19T00:05:56.565Z,Comercio
Amancay Laneria,Mercería,http://amancay12.mitiendanube.com/,Av. San Martín 448 B7203BPR,+54 2281 42-9070,Rauch,Provincia de Buenos Aires,-36.7763179,-59.090467,,55,https://lh3.googleusercontent.com/p/AF1QipOdFe84rF76LAtWu2yaMF9qb9OylPe5Q53uYBVj=w408-h544-k-no,114.0,0,2025-05-19T00:05:56.566Z,Comercio
Yo Lo Vi Primero,Tienda de ropa,https://www.instagram.com/yoloviprimero_?igsh=MXRueDUzMTgwMHp3bw%3D%3D&utm_source=qr,Bolívar 6,,Rauch,Provincia de Buenos Aires,-36.7754361,-59.0890733,4.5,57,https://streetviewpixels-pa.googleapis.com/v1/thumbnail?panoid=Fmip-yVbaH6W2yZ0WZ2f-g&cb_client=search.gws-prod.gps&w=408&h=240&yaw=244.47545&pitch=0&thumbfov=100,1.0,2,2025-05-19T00:05:56.566Z,Comercio
BRILLOS,Tienda de artículos para el hogar,,Garralda 556,,Rauch,Provincia de Buenos Aires,-36.7746114,-59.0907903,4.5,58,https://streetviewpixels-pa.googleapis.com/v1/thumbnail?panoid=GKHXmSl-9_7rQj4WLy2q0w&cb_client=search.gws-prod.gps&w=408&h=240&yaw=141.65654&pitch=0&thumbfov=100,1.0,2,2025-05-19T00:05:56.566Z,Comercio
Mercadito Natural,Tienda de alimentos naturales,,Av. San Martín 574,,Rauch,Provincia de Buenos Aires,-36.7755003,-59.0892895,,59,https://streetviewpixels-pa.googleapis.com/v1/thumbnail?panoid=ZA0C4HnrYyJpHrgAYqPNPw&cb_client=search.gws-prod.gps&w=408&h=240&yaw=140.73701&pitch=0&thumbfov=100,1.0,0,2025-05-19T00:05:56.566Z,Comercio
Esencias perfumeria,Perfumería,https://www.facebook.com/esenciasperfumeriarauch/,Moreno 546,+54 9 249 447-8000,Rauch,Provincia de Buenos Aires,-36.7774878,-59.0873533,4.8,60,https://lh3.googleusercontent.com/p/AF1QipNNWYKb2jngb41HS4rf6e8238TUHwl7BzoQt4tT=w408-h306-k-no,11.0,55,2025-05-19T00:05:56.566Z,Comercio
Voilà,Tienda de artículos para el hogar,,Domingo Faustino Sarmiento 159,,BQC,Provincia de Buenos Aires,-36.7750352,-59.0929525,4.6,61,https://streetviewpixels-pa.googleapis.com/v1/thumbnail?panoid=h_5lBa7XsXoKbDT_NjIdmQ&cb_client=search.gws-prod.gps&w=408&h=240&yaw=90.217224&pitch=0&thumbfov=100,2.0,13,2025-05-19T00:05:57.681Z,Comercio
La Elegancia Directo De Fábrica,Tienda de ropa,,Cnel. Suárez 27,,Rauch,Provincia de Buenos Aires,-36.7760349,-59.0898204,,62,https://streetviewpixels-pa.googleapis.com/v1/thumbnail?panoid=Ug_vbqvvkqmyYfaraH5xmQ&cb_client=search.gws-prod.gps&w=408&h=240&yaw=350.2616&pitch=0&thumbfov=100,1.0,0,2025-05-19T00:05:57.681Z,Comercio
GELSOL JOYERÍA & RELOJERÍA,Joyería,,Cnel. Suárez 72,+54 249 433-5810,Rauch,Provincia de Buenos Aires,-36.7766867,-59.089461,4.7,63,https://lh3.googleusercontent.com/p/AF1QipOCRfNRtedeAvt8Ygc4dhnJJNwHU_5ySyza7lKB=w480-h240-k-no,11.0,3,2025-05-19T00:05:57.681Z,Comercio
In Situ,Tienda de ropa,,"AQA, Cnel. Suárez 77",+54 2297 44-0609,Rauch,Provincia de Buenos Aires,-36.7764886,-59.089131,,64,https://streetviewpixels-pa.googleapis.com/v1/thumbnail?panoid=T30poAiZWOb_orp5ika5Wg&cb_client=search.gws-prod.gps&w=408&h=240&yaw=19.40165&pitch=0&thumbfov=100,3.0,0,2025-05-19T00:05:57.681Z,Comercio
Casa Sampietro,Tienda de electrodomésticos,https://sampietroweb.com/,Av. San Martín 390,+54 2297 44-3812,BPQ,Provincia de Buenos Aires,-36.776697,-59.0910613,4.7,65,https://streetviewpixels-pa.googleapis.com/v1/thumbnail?panoid=-6zfmVdoJ22QcU2JKNuY7g&cb_client=search.gws-prod.gps&w=408&h=240&yaw=84.02131&pitch=0&thumbfov=100,1.0,11,2025-05-19T00:05:57.681Z,Comercio
El Salteño,Carnicería,,"B7203AFD, Aristóbulo del Valle 100-146",,Rauch,Provincia de Buenos Aires,-36.774091,-59.0904994,4.8,66,https://streetviewpixels-pa.googleapis.com/v1/thumbnail?panoid=z5-NKx7de8bydvzLncBgow&cb_client=search.gws-prod.gps&w=408&h=240&yaw=0.77918667&pitch=0&thumbfov=100,1.0,16,2025-05-19T00:05:57.681Z,Comercio
Casa Moda,Tienda de accesorios de moda,,Domingo Faustino Sarmiento 50,+54 9 2268 51-9913,Rauch,Provincia de Buenos Aires,-36.7760684,-59.0916189,4.5,67,https://lh3.googleusercontent.com/gps-cs-s/AC9h4nrJ_VihQ3aXi5USwKhBWaJAvcagpseiSSTDZxFLmb_J9kA3sJ0_nlkM22x5lsVJ5lxfwila21cRJw9bCAnwd4NX0RDj3TeesCKWFqhDIym83TjWzPtJBbUNGNT-dHImdZshjvudbA=w408-h725-k-no,3.0,6,2025-05-19T00:05:57.681Z,Comercio
Supermercados DIA,Supermercado,https://diaonline.supermercadosdia.com.ar/,Cnel. Suárez 150,,Rauch,Provincia de Buenos Aires,-36.7772341,-59.0883114,4.1,68,https://lh3.googleusercontent.com/p/AF1QipMgfbEp-Bz81-IghvCz39ozqiO_ULKXMaL8TLY6=w408-h306-k-no,47.0,373,2025-05-19T00:05:57.681Z,Comercio
Vaqueria Ruben,Tienda de ropa,,Alem,,Rauch,Provincia de Buenos Aires,-36.7749199,-59.0915658,,69,https://streetviewpixels-pa.googleapis.com/v1/thumbnail?panoid=iEsRx06PoOnzLAQOHmBRKw&cb_client=search.gws-prod.gps&w=408&h=240&yaw=237.22476&pitch=0&thumbfov=100,1.0,0,2025-05-19T00:05:57.681Z,Comercio
Eco Marker,Tienda de alimentos naturales,https://instagram.com/ecomarketrauch?utm_medium=copy_link,Av. San Martín 292,+54 249 469-4781,Rauch,Provincia de Buenos Aires,-36.7775281,-59.0918931,4.7,70,https://lh3.googleusercontent.com/p/AF1QipNHkuA_sCv3VkV00mLHK8Z__U_MpIMaf2S_v8Uv=w408-h725-k-no,10.0,3,2025-05-19T00:05:57.681Z,Comercio
Estilo y Modas Mariana,Tienda de ropa,,Larrea,,Rauch,Provincia de Buenos Aires,-36.7776102,-59.0914579,,71,https://streetviewpixels-pa.googleapis.com/v1/thumbnail?panoid=Qcp6zgWp9a0sQBOwpLw1ZQ&cb_client=search.gws-prod.gps&w=408&h=240&yaw=69.0364&pitch=0&thumbfov=100,1.0,0,2025-05-19T00:05:57.681Z,Comercio
Panaderia Modelo,Panadería,,Av. Belgrano 202,+54 2297 44-3029,Rauch,Provincia de Buenos Aires,-36.7764192,-59.0860392,4.9,72,https://streetviewpixels-pa.googleapis.com/v1/thumbnail?panoid=WXhA8hEeLh6sCvIIEol9vw&cb_client=search.gws-prod.gps&w=408&h=240&yaw=211.80467&pitch=0&thumbfov=100,2.0,16,2025-05-19T00:05:57.681Z,Comercio
Tiempo Libre,Tienda de ropa de deportes,,Garralda 443,,Rauch,Provincia de Buenos Aires,-36.7752447,-59.0919673,4.5,73,https://lh3.googleusercontent.com/p/AF1QipOA3wx6giOdMV5Y0V3YQGFq1XzgM2hVMIrwNsnR=w461-h240-k-no,11.0,8,2025-05-19T00:05:57.682Z,Comercio
Lebau,Tienda de ropa,,Av. San Martín 559,,Rauch,Provincia de Buenos Aires,-36.7753235,-59.0896631,,74,https://streetviewpixels-pa.googleapis.com/v1/thumbnail?panoid=c2Ui349u2QxmpfFsC9X7oQ&cb_client=search.gws-prod.gps&w=408&h=240&yaw=305.69073&pitch=0&thumbfov=100,1.0,0,2025-05-19T00:05:57.682Z,Comercio
Miwok,Tienda de ropa del Oeste,http://miwok.com.ar/,9 de Julio 140,,ABD,Provincia de Buenos Aires,-36.77594,-59.0935989,5.0,75,https://streetviewpixels-pa.googleapis.com/v1/thumbnail?panoid=dHMW6F91b73LWgA3VsKznw&cb_client=search.gws-prod.gps&w=408&h=240&yaw=46.02386&pitch=0&thumbfov=100,1.0,3,2025-05-19T00:05:57.682Z,Comercio
ATREVIDAS,Tienda de ropa,,Alberti 120,,Rauch,Provincia de Buenos Aires,-36.7777983,-59.0897241,,76,https://streetviewpixels-pa.googleapis.com/v1/thumbnail?panoid=joe3CN19WQ489uTxntOYrA&cb_client=search.gws-prod.gps&w=408&h=240&yaw=231.27626&pitch=0&thumbfov=100,1.0,0,2025-05-19T00:05:57.682Z,Comercio
Barrilete Cosmico,Tienda de ropa,,Garralda 487,,Rauch,Provincia de Buenos Aires,-36.7748839,-59.091671,,77,https://streetviewpixels-pa.googleapis.com/v1/thumbnail?panoid=FpIiu0qSFXGHvXUBvQ9xHg&cb_client=search.gws-prod.gps&w=408&h=240&yaw=323.61563&pitch=0&thumbfov=100,1.0,0,2025-05-19T00:05:57.682Z,Comercio
Sabores y Placeres,Tienda de fiambres,,Cnel. Suárez 71,+54 9 249 448-3420,Rauch,Provincia de Buenos Aires,-36.7764384,-59.0891366,4.6,78,https://lh3.googleusercontent.com/p/AF1QipPWl_Jq_PDD1J1sRgeEjF5OSLTfN2cDFkSBYaRg=w408-h306-k-no,69.0,59,2025-05-19T00:05:57.682Z,Comercio
MODA Kyara,Tienda de ropa,,Cnel. Suárez 72,,Rauch,Provincia de Buenos Aires,-36.7764573,-59.0891718,,79,https://streetviewpixels-pa.googleapis.com/v1/thumbnail?panoid=5cBxTGgREGnCSItuYRRy4A&cb_client=search.gws-prod.gps&w=408&h=240&yaw=46.046406&pitch=0&thumbfov=100,1.0,0,2025-05-19T00:05:57.682Z,Comercio
Electro Rauch,Tienda de artículos para el hogar,,"B7203BPX, Av. San Martín 1096",+54 9 249 433-7624,Rauch,Provincia de Buenos Aires,-36.7715625,-59.0846531,4.9,80,https://lh3.googleusercontent.com/p/AF1QipN5e0fDLosnJLdNYHQtcANn7ApBiGi3AwoxMGri=w426-h240-k-no,74.0,32,2025-05-19T00:05:57.682Z,Comercio
Casa Jonas,Tienda de ropa,,"ACA, Alberti 5",+54 2297 44-3808,Rauch,Provincia de Buenos Aires,-36.7766398,-59.0908948,,81,https://streetviewpixels-pa.googleapis.com/v1/thumbnail?panoid=xu6RYqwfTQmzHL8S6yliYg&cb_client=search.gws-prod.gps&w=408&h=240&yaw=36.838287&pitch=0&thumbfov=100,1.0,0,2025-05-19T00:05:58.900Z,Comercio
Passeggi Aguerre Andres Escribano Publico,Comercio,,Av. San Martín 302,+54 2297 44-2647,BPQ,Provincia de Buenos Aires,-36.7773532,-59.0917756,4.9,82,https://streetviewpixels-pa.googleapis.com/v1/thumbnail?panoid=WDUSTTsijCN88vAPXR4Hew&cb_client=search.gws-prod.gps&w=408&h=240&yaw=163.4681&pitch=0&thumbfov=100,1.0,13,2025-05-19T00:05:58.900Z,Comercio
Ramon J Carrizo,Panadería,,Alem 96,+54 2297 44-3598,ADB,Provincia de Buenos Aires,-36.774938,-59.0912326,4.8,83,https://streetviewpixels-pa.googleapis.com/v1/thumbnail?panoid=PiEroBVgIuyOvmoip46SXQ&cb_client=search.gws-prod.gps&w=408&h=240&yaw=63.76224&pitch=0&thumbfov=100,1.0,8,2025-05-19T00:05:58.900Z,Comercio
Perfumeria Santa Rosa,Tienda de ropa,,Av. San Martín 341,+54 2297 44-3696,Rauch,Provincia de Buenos Aires,-36.7768972,-59.0917087,,84,https://streetviewpixels-pa.googleapis.com/v1/thumbnail?panoid=3hZdJwzUq_nD9Cq68AoExQ&cb_client=search.gws-prod.gps&w=408&h=240&yaw=318.82248&pitch=0&thumbfov=100,1.0,0,2025-05-19T00:05:58.900Z,Comercio
Tiza Jeans,Tienda de ropa,,"AQA, Cnel. Suárez 35 Sur",+54 2297 44-0511,Rauch,Provincia de Buenos Aires,-36.7760996,-59.089624,5.0,85,https://streetviewpixels-pa.googleapis.com/v1/thumbnail?panoid=WipglpIXD5E1n-uPoAAk9g&cb_client=search.gws-prod.gps&w=408&h=240&yaw=53.734184&pitch=0&thumbfov=100,1.0,2,2025-05-19T00:05:58.900Z,Comercio
Panaderia Lombardozzo,Panadería,,"Moreno 499-401, B7203BDI",,Rauch,Provincia de Buenos Aires,-36.7777444,-59.0876812,4.4,86,https://streetviewpixels-pa.googleapis.com/v1/thumbnail?panoid=yqG7NGOoMNUs2WRqFwD9sg&cb_client=search.gws-prod.gps&w=408&h=240&yaw=336.91788&pitch=0&thumbfov=100,1.0,5,2025-05-19T00:05:58.900Z,Comercio
Frutas Don Jorge,Tienda de alimentación,,Av. Pres. Juan Domingo Perón,,Rauch,Provincia de Buenos Aires,-36.7722847,-59.0907585,,87,https://streetviewpixels-pa.googleapis.com/v1/thumbnail?panoid=OZPvM_Ix_c9g83kwrGSdYw&cb_client=search.gws-prod.gps&w=408&h=240&yaw=20.799625&pitch=0&thumbfov=100,1.0,0,2025-05-19T00:05:58.900Z,Comercio
Lo De Martin,Tienda de repuestos para automóviles,,,,Rauch,Provincia de Buenos Aires,-36.7721181,-59.0857797,,88,https://streetviewpixels-pa.googleapis.com/v1/thumbnail?panoid=c6Ljr5QUoRm2AreGHRb4xQ&cb_client=search.gws-prod.gps&w=408&h=240&yaw=207.60515&pitch=0&thumbfov=100,1.0,0,2025-05-19T00:05:58.900Z,Comercio
New Life,Tienda de ropa,,Av. San Martín 428,,Rauch,Provincia de Buenos Aires,-36.7766036,-59.0905973,,89,https://streetviewpixels-pa.googleapis.com/v1/thumbnail?panoid=PeqfXPhew_LAG4an_9kZ1A&cb_client=search.gws-prod.gps&w=408&h=240&yaw=141.1252&pitch=0&thumbfov=100,1.0,0,2025-05-19T00:05:58.900Z,Comercio
Suma Créditos Rauch,Institución financiera,,"BPS, Av. San Martín 554",,Rauch,Provincia de Buenos Aires,-36.7756668,-59.0896794,,90,https://lh3.googleusercontent.com/p/AF1QipPJvPyZp684wKYhxQKJ_twAp3ioA0pualEEzCcL=w408-h306-k-no,9.0,0,2025-05-19T00:05:58.900Z,Comercio
Panaderìa El Nuevo Gusto,Panadería,,Alem 92,,ADB,Provincia de Buenos Aires,-36.7749378,-59.0912204,4.5,91,https://lh3.googleusercontent.com/gps-cs-s/AC9h4noxWS0kL4ekidlQdKDSi346fKHgvvyQyzSe6ruk0AaJ8kZgd3STvT4HRbyroHMlB4Lep-vYSya_xL_n8xfrwWIdX6OJQPJhEbrfiEVQ0ZG89VgBSeVSlimxWsf83yWZQQpiKHa5=w408-h725-k-no,4.0,15,2025-05-19T00:05:58.900Z,Comercio
SUMATRA,Tienda de ropa,,Av. San Martín 419,,Rauch,Provincia de Buenos Aires,-36.776353,-59.090975,,92,https://streetviewpixels-pa.googleapis.com/v1/thumbnail?panoid=cT0YYae8r4s1E_bq_lxGYg&cb_client=search.gws-prod.gps&w=408&h=240&yaw=311.0709&pitch=0&thumbfov=100,1.0,0,2025-05-19T00:05:58.900Z,Comercio
acsa comunicaciones,Tienda de móviles,,Cnel. Suárez 57,+54 249 401-3000,Rauch,Provincia de Buenos Aires,-36.7762959,-59.089319,5.0,93,https://lh3.googleusercontent.com/gps-cs-s/AC9h4noPEmKWoDrreJoon-YGbetCOCOpf-17x9K7y0mhncgXuC_db5-fELJ9dQaDIea7dcnNJXIh3hzCZlExmHR9iFEDWl-ZdLVJT67MC6XcZyXUKUtqAWY0F0sicRlqeippgTwiR0CT=w408-h439-k-no,8.0,1,2025-05-19T00:05:58.900Z,Comercio
Bicicleteria Almar,Tienda de bicicletas,,"307, BPD, Av. San Martín",+54 2297 44-2723,Rauch,Provincia de Buenos Aires,-36.7771585,-59.0919625,4.4,94,https://streetviewpixels-pa.googleapis.com/v1/thumbnail?panoid=9OOYlwXyoAqxJVIp9F6c8g&cb_client=search.gws-prod.gps&w=408&h=240&yaw=289.29572&pitch=0&thumbfov=100,1.0,9,2025-05-19T00:05:58.900Z,Comercio
Rebelde's Unban Kids,Tienda de ropa,,Cnel. Suárez 60,,Rauch,Provincia de Buenos Aires,-36.7764136,-59.0896551,,95,https://streetviewpixels-pa.googleapis.com/v1/thumbnail?panoid=EwUf7AgYO7nFit2GoWyMuQ&cb_client=search.gws-prod.gps&w=408&h=240&yaw=238.12813&pitch=0&thumbfov=100,1.0,0,2025-05-19T00:05:58.900Z,Comercio
Frefa Fundacion Rauch Errad Fiebre Aftos,Comercio,,"ACA, Alberti 37",+54 2297 44-3016,Rauch,Provincia de Buenos Aires,-36.776933,-59.0905406,4.0,96,https://streetviewpixels-pa.googleapis.com/v1/thumbnail?panoid=b0axRtfu5D3siCxlLtvzIw&cb_client=search.gws-prod.gps&w=408&h=240&yaw=68.743416&pitch=0&thumbfov=100,1.0,1,2025-05-19T00:05:58.900Z,Comercio
San Francisco Lavadero,Parada para camiones,,RP30,+54 249 456-2798,Rauch,Provincia de Buenos Aires,-36.7621556,-59.0882796,,17,https://lh3.googleusercontent.com/p/AF1QipOOhBXq3YDfkjC-1ZLiRX6erLZOSuKcf15R2qco=w408-h408-k-no,3.0,0,2025-05-19T00:06:01.672Z,Comercio
IVAN DÍAZ MÁQUINAS AGRÍCOLAS,Concesionario de automóviles,,RP30 y acceso a,+54 249 456-3692,Rauch,Provincia de Buenos Aires,-36.7634993,-59.0883009,,22,https://streetviewpixels-pa.googleapis.com/v1/thumbnail?panoid=zdqOhPVyhkN1k9g0nEeeqA&cb_client=search.gws-prod.gps&w=408&h=240&yaw=142.86974&pitch=0&thumbfov=100,1.0,0,2025-05-19T00:06:03.381Z,Comercio
Agrorepuestos DAZ,Tienda de repuestos para automóviles,,RP30 y acceso a,+54 249 447-5280,Rauch,Provincia de Buenos Aires,-36.7636433,-59.0884086,5.0,23,https://lh3.googleusercontent.com/gps-cs-s/AC9h4nr-25nkvrkS-SQSxxrAK0-3lNxLLtvqM9-6S9hBtOVxc5dD_nLQeDCZvlmY3qb0sahruGKR0okaN3bjdZG30Bk6VgUF5O7b6PB2-n3ysu5ZSAucctevDb5avJEEMaTYZX-Ywmti=w408-h544-k-no,4.0,1,2025-05-19T00:06:03.381Z,Comercio
Golopolis,Supermercado,,Av. San Martín 83,,Rauch,Provincia de Buenos Aires,-36.7790397,-59.0942454,4.5,27,https://lh3.googleusercontent.com/gps-cs-s/AC9h4nrIwSFadSL03gCO_qSISNsedCl3A-vEsxm0QQfYT3Vy_qkrMpjDs-5nC0VYa2eIKw5N_3eYXUfLPqyaQw1RDwP68B0A6aciNwlGNOAXGlbJDsWIQ9loWXIyO6Jzf_sOFaXL3z_vWg=w408-h862-k-no,6.0,185,2025-05-19T00:06:04.293Z,Comercio
El Safa,Carnicería,,Av. Matheu 74 B7203BBN,+54 249 457-8111,Rauch,Provincia de Buenos Aires,-36.7795559,-59.0931153,4.9,28,https://lh3.googleusercontent.com/p/AF1QipM59aSmqODRXnBDBqE0IybBjt1C4fDWJ33VP-ZP=w408-h306-k-no,82.0,28,2025-05-19T00:06:04.293Z,Comercio
Da-Qui Carnicería,Carnicería,,"Letamendi, Castelli y",+54 443685,Buenos Aires,Provincia de Buenos Aires,-36.7790477,-59.0915108,4.9,29,https://lh3.googleusercontent.com/gps-cs-s/AC9h4nrfxAe6B7gg-hD3Zv7NMZa08Rt0LAZN3qVPmbTT8R16lJhOO4IShB6v4MhWTnMOzPEwXq9SNG44Q4SNwr43vAozdkwyqFT43MF0BgomkLbim7FtH2leGxyjb4Hk9nK91M8Ty04=w426-h240-k-no,3.0,36,2025-05-19T00:06:04.293Z,Comercio
Libreria Don Carlos,Librería,https://libreriasdoncarlos.mitiendanube.com/,"Esquina Moreno, Alberti 199",+54 249 406-3066,Rauch,Provincia de Buenos Aires,-36.7784697,-59.0885801,4.7,30,https://lh3.googleusercontent.com/p/AF1QipPdLiVCjTky3XrnxPslXr14lTt7UJD8w7i5fyq4=w408-h270-k-no,20.0,158,2025-05-19T00:06:04.293Z,Comercio
Claro Agente Oficial,Proveedor de servicios de telecomunicaciones,http://www.claro.com.ar/,CASTELLI JUAN JOSE 198,+54 800-123-0611,Rauch,Provincia de Buenos Aires,-36.7800323,-59.0903963,5.0,31,https://lh3.googleusercontent.com/p/AF1QipMvwruZ3PXm6L-q5HOV73UZNrXAtv4kUSuf8u9U=w426-h240-k-no,3.0,62,2025-05-19T00:06:04.293Z,Comercio
Mundo Celular (Agencia Claro),Tienda de móviles,,"CASTELLI, Moreno Y",+54 249 432-8809,Rauch,Provincia de Buenos Aires,-36.7799446,-59.0905672,4.7,32,https://lh3.googleusercontent.com/p/AF1QipPWobBXP-5vPMtlNqvOx1yW1dy44mRJ44_MDVjQ=w408-h306-k-no,147.0,24,2025-05-19T00:06:04.293Z,Comercio
Zapateria la abuela,Zapatería,,Av. Matheu 136,,Rauch,Provincia de Buenos Aires,-36.780302,-59.0923473,,33,https://streetviewpixels-pa.googleapis.com/v1/thumbnail?panoid=a4Pl3JYbIngPnTVmveMMQA&cb_client=search.gws-prod.gps&w=408&h=240&yaw=222.28584&pitch=0&thumbfov=100,1.0,0,2025-05-19T00:06:04.293Z,Comercio
PANADERIA La Castellana,Panadería,,Av. San Martín 168,,BPO,Provincia de Buenos Aires,-36.778586,-59.0932359,,34,https://streetviewpixels-pa.googleapis.com/v1/thumbnail?panoid=8KptVBC-AdR7fWs7aWSr3Q&cb_client=search.gws-prod.gps&w=408&h=240&yaw=126.235344&pitch=0&thumbfov=100,1.0,0,2025-05-19T00:06:04.293Z,Comercio
VOLZONE AUTOMOTORES,Concesionario de automóviles,,Letamendi,,Rauch,Provincia de Buenos Aires,-36.7784352,-59.0907525,,35,https://streetviewpixels-pa.googleapis.com/v1/thumbnail?panoid=IWEDavpdL_EYB-CMrEJkWw&cb_client=search.gws-prod.gps&w=408&h=240&yaw=149.9427&pitch=0&thumbfov=100,1.0,0,2025-05-19T00:06:04.293Z,Comercio
Repuestos Rauch,Tienda de repuestos para automóviles,https://repuestosrauch.com.ar/,Av. Matheu 299,+54 249 466-2133,Rauch,Provincia de Buenos Aires,-36.7816408,-59.0905385,4.7,36,https://lh3.googleusercontent.com/p/AF1QipOA5aZQDt4i1_KoqobGMnzXCbnKFL4xuKmN_ar7=w408-h306-k-no,5.0,38,2025-05-19T00:06:04.293Z,Comercio
Premoldeados constantini,Tienda de materiales para la construcción,,Castelli,+54 249 400-4864,Rauch,Provincia de Buenos Aires,-36.7794497,-59.091275,,37,https://lh3.googleusercontent.com/p/AF1QipNpi5NQCRilqHtWXuhQsyOL66cugXblhhuiFus6=w408-h544-k-no,58.0,0,2025-05-19T00:06:04.293Z,Comercio
Ortiz Automotores,Concesionario de automóviles,,Av. Matheu 150,+54 249 459-6304,Rauch,Provincia de Buenos Aires,-36.7803223,-59.0921927,3.7,38,https://lh3.googleusercontent.com/p/AF1QipMFyumaUcceI29Ln0WYtdges9w6j8gQiaeEjEXO=w533-h240-k-no,6.0,3,2025-05-19T00:06:04.293Z,Comercio
Deco Art,Tienda de regalos,,Cnel. Suárez 602,,Rauch,Provincia de Buenos Aires,-36.7815534,-59.0833525,5.0,18,https://lh3.googleusercontent.com/p/AF1QipN1sKt-bnrjpOhjpwDOPtez2NVAgp7CVOwsc9Jy=w426-h240-k-no,2.0,1,2025-05-19T00:06:09.572Z,Comercio
"Rotiseria ""La Nueva Don Cipriano""",Tienda de alimentación,,"B7203AQH, Cnel. Suárez 386",+54 9 249 433-8066,AQH,Provincia de Buenos Aires,-36.7793853,-59.0855784,4.7,19,https://lh3.googleusercontent.com/gps-cs-s/AC9h4nrgzgks34ZVe2qXsrahaJrzMNfk8pw3Nmf-wypdLLJ6lwj85fg7bYwHe2ZAeci800nmen5dzJwZIR3wGt0Mg84thAXvURr6ILgEJJgcAIAX5QFY_Om_cdOTKVcW9H32kqMkIbVb=w408-h741-k-no,57.0,37,2025-05-19T00:06:09.572Z,Comercio
Mini Mercado El Haragán,Tienda de alimentación,,,,Rauch,Provincia de Buenos Aires,-36.7813174,-59.0852601,,26,https://streetviewpixels-pa.googleapis.com/v1/thumbnail?panoid=tjLKNqhxYjIvJiR4-AA42A&cb_client=search.gws-prod.gps&w=408&h=240&yaw=108.36749&pitch=0&thumbfov=100,1.0,0,2025-05-19T00:06:12.816Z,Comercio
Todo Resuelto,Tienda de artículos para el hogar,,Av. Gral. Paz 865,,ATQ,Provincia de Buenos Aires,-36.7786454,-59.0797843,5.0,27,https://lh3.googleusercontent.com/gps-cs-s/AC9h4nrRPpRVAiVw27zR-d9cJuDvcBBv-kDAepe9f92tuCJ0od-PJRlgiXNAH3c2dRWKIS0JytQDJyhMcN4XkrOYsUwkI2neY-fKddThrRv2wPdqdh_voyxjsY7rJxNgNAc-W8kiYlWo=w533-h240-k-no,3.0,2,2025-05-19T00:06:12.816Z,Comercio
"Don Francisco ""La Frutería""",Tienda de alimentación,,Av. Belgrano 500-598,,Rauch,Provincia de Buenos Aires,-36.7793136,-59.0820409,4.6,29,https://streetviewpixels-pa.googleapis.com/v1/thumbnail?panoid=wkeCFcp89oj8UwtmPyuu4A&cb_client=search.gws-prod.gps&w=408&h=240&yaw=89.13235&pitch=0&thumbfov=100,2.0,21,2025-05-19T00:06:12.816Z,Comercio
Barraca Cremona SRL Compra de Lanas,,,Av. Belgrano 750,+54 2297 44-2973,Rauch,Provincia de Buenos Aires,-36.7813545,-59.0794603,2.3,30,https://streetviewpixels-pa.googleapis.com/v1/thumbnail?panoid=cNKvPHUw9-N4a643LRA_cQ&cb_client=search.gws-prod.gps&w=408&h=240&yaw=189.4758&pitch=0&thumbfov=100,1.0,3,2025-05-19T00:06:12.816Z,Comercio
José Luis González SA,Tienda de materiales para la construcción,http://www.joseluisgonzalezsa.com.ar/index.php?solicitar=si,Cnel. Suárez 460,+54 2297 44-2712,AQJ,Provincia de Buenos Aires,-36.7802709,-59.0849879,4.8,31,https://lh3.googleusercontent.com/p/AF1QipPfnAjMrLHAoXgZOxmW2cCCIETOKk5xGdYbs48t=w408-h288-k-no,10.0,120,2025-05-19T00:06:12.816Z,Comercio
Despensa Lo de Isabel,Tienda de alimentación,,Solidaridad 58,,Rauch,Provincia de Buenos Aires,-36.7697122,-59.0978572,,27,https://streetviewpixels-pa.googleapis.com/v1/thumbnail?panoid=lb0brqsWoZum2zxUfzr8Lw&cb_client=search.gws-prod.gps&w=408&h=240&yaw=42.003937&pitch=0&thumbfov=100,1.0,0,2025-05-19T00:06:13.429Z,Comercio
Toxic Shine Rauch,Tienda de accesorios para automóviles,https://www.instagram.com/toxicshinerauch/,Barrio Mit 33,+54 249 402-2985,Rauch,Provincia de Buenos Aires,-36.7656927,-59.0976689,5.0,35,https://lh3.googleusercontent.com/p/AF1QipNz57mugkYfzwanLOxKt0WtTriePoIV3batc6QZ=w408-h544-k-no,7.0,1,2025-05-19T00:06:13.430Z,Comercio
Curvas,Tienda de ropa,,Las Heras 438,,Rauch,Provincia de Buenos Aires,-36.7717876,-59.0964116,5.0,48,https://lh3.googleusercontent.com/gps-cs-s/AC9h4noFoFYoc8-w8SKa0utH4a14HivZot5P7vnSilUGKK-5qOwztgRef9g4w7F52POXG2krzCKdF5dc6lW_rs3uBV4DzDKZm-kdkzUnhOAnyVLSoAzijJ2Pc7TxUJccJxseeZSQbtDS=w408-h544-k-no,2.0,8,2025-05-19T00:06:15.359Z,Comercio
Sil & D Frutas Verduras,Tienda de alimentación,,,,Rauch,Provincia de Buenos Aires,-36.7772574,-59.0940271,,60,https://streetviewpixels-pa.googleapis.com/v1/thumbnail?panoid=7qznppOxBqAPXDnxtaC0aQ&cb_client=search.gws-prod.gps&w=408&h=240&yaw=149.40356&pitch=0&thumbfov=100,1.0,0,2025-05-19T00:06:15.360Z,Comercio
Vidrieria Bi-Da,Tienda de cristales,,Av. Yrigoyen 99 1,,Rauch,Provincia de Buenos Aires,-36.7779567,-59.0949883,4.3,84,https://streetviewpixels-pa.googleapis.com/v1/thumbnail?panoid=25xHEE2sHn7IkKi10wk10g&cb_client=search.gws-prod.gps&w=408&h=240&yaw=249.65056&pitch=0&thumbfov=100,1.0,3,2025-05-19T00:06:17.322Z,Comercio
San Roque Pet Shop,Tienda de alimentación,,"B7203ABG, 9 de Julio 357",,Rauch,Provincia de Buenos Aires,-36.7740193,-59.0960487,4.7,86,https://streetviewpixels-pa.googleapis.com/v1/thumbnail?panoid=KZeXxtQ9A5okm01WpMK9Bw&cb_client=search.gws-prod.gps&w=408&h=240&yaw=75.71326&pitch=0&thumbfov=100,1.0,43,2025-05-19T00:06:17.323Z,Comercio
Minimercado camile,Tienda de alimentación,,Paulino Petriz,,Rauch,Provincia de Buenos Aires,-36.7803854,-59.086672,,34,https://streetviewpixels-pa.googleapis.com/v1/thumbnail?panoid=8ONA1rGGBHXRlx9tiGzBmw&cb_client=search.gws-prod.gps&w=408&h=240&yaw=294.21567&pitch=0&thumbfov=100,1.0,0,2025-05-19T00:06:20.821Z,Comercio
LF Muebles Hogar,Tienda de artículos para el hogar,,Av. Belgrano 600-648,+54 249 450-5544,Rauch,Provincia de Buenos Aires,-36.7799871,-59.0812366,5.0,43,https://streetviewpixels-pa.googleapis.com/v1/thumbnail?panoid=T15CJSMRHJigDKZp6KKwZA&cb_client=search.gws-prod.gps&w=408&h=240&yaw=235.46631&pitch=0&thumbfov=100,1.0,1,2025-05-19T00:06:21.567Z,Comercio
POLLERIA MALE,Tienda de alimentación,,,,Rauch,Provincia de Buenos Aires,-36.7793682,-59.087378,,44,https://streetviewpixels-pa.googleapis.com/v1/thumbnail?panoid=xLBXsrBO1zKLTDm0iX-zyw&cb_client=search.gws-prod.gps&w=408&h=240&yaw=23.782127&pitch=0&thumbfov=100,1.0,0,2025-05-19T00:06:21.567Z,Comercio
Las Marias PANADERIA,Panadería,,Alberti,,Rauch,Provincia de Buenos Aires,-36.7799403,-59.0870124,5.0,45,https://streetviewpixels-pa.googleapis.com/v1/thumbnail?panoid=D_5Z263TqpWNtmOUVI_MwQ&cb_client=search.gws-prod.gps&w=408&h=240&yaw=217.08461&pitch=0&thumbfov=100,1.0,1,2025-05-19T00:06:21.567Z,Comercio
Panaderia Union,Panadería,,"Rondeau 799-701, B7203BMO",,Rauch,Provincia de Buenos Aires,-36.7789287,-59.0823509,4.8,46,https://streetviewpixels-pa.googleapis.com/v1/thumbnail?panoid=_0BAYtkSeNhorTx0LM7vow&cb_client=search.gws-prod.gps&w=408&h=240&yaw=119.56671&pitch=0&thumbfov=100,1.0,36,2025-05-19T00:06:21.567Z,Comercio
Podologa,Tienda de belleza y salud,,Cnel. Suárez 445,+54 249 456-8059,Rauch,Provincia de Buenos Aires,-36.7798512,-59.0849487,,47,https://lh3.googleusercontent.com/p/AF1QipPmK1ghx5wAmpGXvaRsLyp5XR5Yp3hWBhZQAABc=w408-h408-k-no,33.0,0,2025-05-19T00:06:21.567Z,Comercio
CARNICERIA DOly,Carnicería,,Av. Belgrano,,Rauch,Provincia de Buenos Aires,-36.7788057,-59.0829509,,48,https://streetviewpixels-pa.googleapis.com/v1/thumbnail?panoid=fKtKSa875l-2cnQgIEhA3Q&cb_client=search.gws-prod.gps&w=408&h=240&yaw=228.36618&pitch=0&thumbfov=100,1.0,0,2025-05-19T00:06:21.567Z,Comercio
Farmacia Goldriz,Farmacia,,,+54 2297 44-2150,Rauch,Provincia de Buenos Aires,-36.7793873,-59.0877329,4.7,50,https://streetviewpixels-pa.googleapis.com/v1/thumbnail?panoid=jGA2wSXQguT-bk7On_N5hQ&cb_client=search.gws-prod.gps&w=408&h=240&yaw=284.63626&pitch=0&thumbfov=100,1.0,18,2025-05-19T00:06:21.567Z,Comercio
La Casa del Colchón,Colchonería,,,,Rauch,Provincia de Buenos Aires,-36.7804546,-59.0844999,,53,https://streetviewpixels-pa.googleapis.com/v1/thumbnail?panoid=CgAQDTDW_sM1IBqEEr0Fog&cb_client=search.gws-prod.gps&w=408&h=240&yaw=225.93054&pitch=0&thumbfov=100,1.0,0,2025-05-19T00:06:21.567Z,Comercio
Dante Repuestos,Tienda de repuestos para automóviles,,,,Rauch,Provincia de Buenos Aires,-36.779114,-59.0825532,,54,https://streetviewpixels-pa.googleapis.com/v1/thumbnail?panoid=sC0nZo7aHZOXdQYTRfXIrg&cb_client=search.gws-prod.gps&w=408&h=240&yaw=112.54492&pitch=0&thumbfov=100,1.0,0,2025-05-19T00:06:21.567Z,Comercio
