title,categoryName,website,street,phone,city,state,location/lat,location/lng,totalScore,rank,imageUrl,imagesCount,reviewsCount,scrapedAt,searchString
Del Valle inyeccion electronica,Taller de reparación de automóviles,,"Aristóbulo del Valle, Aveleyra &",+54 249 434-0861,Rauch,Provincia de Buenos Aires,-36.7732979,-59.0914586,5.0,1,https://streetviewpixels-pa.googleapis.com/v1/thumbnail?panoid=3Wc1KYykIOdgSbV5Il4bPQ&cb_client=search.gws-prod.gps&w=408&h=240&yaw=118.05518&pitch=0&thumbfov=100,1.0,1,2025-05-29T00:48:32.392Z,electronica
Electro 440 - Accesorios y Reparación,Tienda de electrónica,https://www.facebook.com/todoenremotos,Letamendi 596,+54 9 249 427-7096,Rauch,Provincia de Buenos Aires,-36.7760935,-59.0880719,5.0,2,https://lh3.googleusercontent.com/gps-cs-s/AC9h4no1JR9FZkuvuzi8osn3QxaCqMVveohCuzlE0Z7Uzphchi1lA5PFLqKWbVGRXiuQtVHFDx9sld7gVjP6VjYdSCiZifbblN6Pf38ig1oxoCTrAwXlOwCxIkSrBsm90IuX-NTChRF-=w408-h290-k-no,35.0,5,2025-05-29T00:48:32.394Z,electronica
Dangerous Sonido e Iluminación,Tienda de equipos de sonido,,"BNK, Saavedra 507",+54 249 453-3029,Rauch,Provincia de Buenos Aires,-36.7729746,-59.0936486,5.0,3,https://lh3.googleusercontent.com/gps-cs-s/AC9h4noKe9hxMjzz-JQuAMUhwsVnwiHcoq9zI4TM5VP0eJzAzIfWErj9xiVBVqIyQSskcxppKes2u1rhyYo4n4dRB-B8Dq9QTbJoGVeZz7THiw1Aj1Bmmc87KO7x07yYdmXnJcuoWAum=w408-h544-k-no,28.0,3,2025-05-29T00:48:32.394Z,electronica
Jona PC,Servicio de informática,https://www.facebook.com/profile.php?id=100069057800875,Dardo Rocha 850,,Rauch,Provincia de Buenos Aires,-36.7616494,-59.0928231,5.0,4,https://lh3.googleusercontent.com/p/AF1QipPcWbbtNlrx8MwBx4KROQ8X_kqLu2dtpVg87XqI=w408-h544-k-no,13.0,11,2025-05-29T00:48:32.394Z,electronica
Super PC Rauch,Tienda de informática,,Balcarce 1001,+54 249 435-8292,Rauch,Provincia de Buenos Aires,-36.7682494,-59.0901479,,5,https://streetviewpixels-pa.googleapis.com/v1/thumbnail?panoid=_xL4LKB-EG5hev3nw6bfgw&cb_client=search.gws-prod.gps&w=408&h=240&yaw=309.61942&pitch=0&thumbfov=100,1.0,0,2025-05-29T00:48:32.395Z,electronica
Minimercado camile,Tienda de alimentación,,Paulino Petriz,,Rauch,Provincia de Buenos Aires,-36.7803854,-59.086672,,1,https://streetviewpixels-pa.googleapis.com/v1/thumbnail?panoid=8ONA1rGGBHXRlx9tiGzBmw&cb_client=search.gws-prod.gps&w=408&h=240&yaw=294.21567&pitch=0&thumbfov=100,1.0,0,2025-05-29T00:48:33.573Z,tienda
Shell,Gasolinera,https://find.shell.com/ar/fuel/10129342-rosa-juana-crocci-de-giliberti/es_AR,"Avenida General Paz, Ruta Prov Nro 30",+54 2297 44-2752,Rauch,Provincia de Buenos Aires,-36.7764663,-59.0765117,4.2,2,https://lh3.googleusercontent.com/gps-cs-s/AC9h4nr60rRFoc_q4i7oY7V4PEeggjHj_Q_o81g_iCQJqEK8KXXzlmCL__B-z_ovbUSCaE0iIKN2tpOsKGQWNhCiI9gJK3EAAyFyvktzz29uh6Sjt7g5wby7TAF4TQweLItIUnqdpm-MGA=w408-h725-k-no,58.0,364,2025-05-29T00:48:33.573Z,tienda
Repuestos Rauch,Tienda de repuestos para automóviles,https://repuestosrauch.com.ar/,Av. Matheu 299,+54 249 466-2133,Rauch,Provincia de Buenos Aires,-36.7816408,-59.0905385,4.7,6,https://lh3.googleusercontent.com/gps-cs-s/AC9h4nqjQW_f2rbv65KJF0NwsSMfK2DcBlhOEwCm8VLn-2jYvSqkVkR6eTEfqKTgES-j5DYLgv9dyVqH7f7rSfeGW_K31YoxOhBva28xbN6k4VzlnItTPx_L2HM_M2IL8ZN2_lMeDJ1D-g=w408-h306-k-no,5.0,38,2025-05-29T00:48:33.574Z,tienda
Repuestos jd,Comercio,,Av. Alvear 834,+54 249 400-2781,Buenos Aires,Provincia de Buenos Aires,-36.7677616,-59.0941234,4.9,2,https://lh3.googleusercontent.com/p/AF1QipMI71Rpnm1OfJzZW-oC0v-B1_rer-k-XGup2VyI=w426-h240-k-no,4.0,12,2025-05-29T00:48:35.063Z,repuestos
Gonzalez Carlos,Tienda de repuestos para automóviles,,Av. San Martín 999,+54 2297 44-2936,BPJ,Provincia de Buenos Aires,-36.7721069,-59.0856124,5.0,3,https://streetviewpixels-pa.googleapis.com/v1/thumbnail?panoid=-K8nupH2BlIkHqKn9IyQIA&cb_client=search.gws-prod.gps&w=408&h=240&yaw=294.19257&pitch=0&thumbfov=100,1.0,4,2025-05-29T00:48:35.063Z,repuestos
Agrorepuestos DAZ,Tienda de repuestos para automóviles,,RP30 y acceso a,+54 249 447-5280,Rauch,Provincia de Buenos Aires,-36.7636433,-59.0884086,5.0,4,https://lh3.googleusercontent.com/gps-cs-s/AC9h4npu4GBf0amRixW_M0gJWe0NqFiEtirtJPE2ZwsYfaaoVZxfqh1Bq8W_B_bs0K0V8MbdeCtCax9jBh05eAvG6KkHvQ-_uXdB3j-lj_B0ihM_UFRpTkwX3AZd_NUhH4PmdRe3SC-S=w408-h544-k-no,4.0,1,2025-05-29T00:48:35.063Z,repuestos
Pontiggia Repuestos,Taller de reparación de automóviles,,"Aveleyra 530, B7203AGL",,Rauch,Provincia de Buenos Aires,-36.7737096,-59.0922974,4.8,5,https://streetviewpixels-pa.googleapis.com/v1/thumbnail?panoid=0KJ0yc4Aa5MUxCi-nyrHlg&cb_client=search.gws-prod.gps&w=408&h=240&yaw=332.61667&pitch=0&thumbfov=100,1.0,5,2025-05-29T00:48:35.063Z,repuestos
REPUESTOS ALFA,Tienda de repuestos para automóviles,,Av. San Martín,,Rauch,Provincia de Buenos Aires,-36.7725131,-59.0858216,,6,https://streetviewpixels-pa.googleapis.com/v1/thumbnail?panoid=C2rU8ITLyHYkMNatW3X3ww&cb_client=search.gws-prod.gps&w=408&h=240&yaw=119.50373&pitch=0&thumbfov=100,1.0,0,2025-05-29T00:48:35.064Z,repuestos
Dante Repuestos,Tienda de repuestos para automóviles,,,,Rauch,Provincia de Buenos Aires,-36.779114,-59.0825532,,7,https://streetviewpixels-pa.googleapis.com/v1/thumbnail?panoid=sC0nZo7aHZOXdQYTRfXIrg&cb_client=search.gws-prod.gps&w=408&h=240&yaw=112.54492&pitch=0&thumbfov=100,1.0,0,2025-05-29T00:48:35.064Z,repuestos
Jd Repuestos,Tienda de repuestos para automóviles,,Avellaneda,,Rauch,Provincia de Buenos Aires,-36.7678781,-59.0939502,,8,https://streetviewpixels-pa.googleapis.com/v1/thumbnail?panoid=B7E8zxQUaLKBmVFSXD8y8A&cb_client=search.gws-prod.gps&w=408&h=240&yaw=147.29881&pitch=0&thumbfov=100,1.0,0,2025-05-29T00:48:35.064Z,repuestos
Electricidad Landaburu,Taller mecánico,,"Paso 400-498, B7203BGJ",+54 2297 44-2754,Rauch,Provincia de Buenos Aires,-36.774511,-59.0790579,4.8,9,,,29,2025-05-29T00:48:35.064Z,repuestos
Lo De Martin,Tienda de repuestos para automóviles,,,,Rauch,Provincia de Buenos Aires,-36.7721181,-59.0857797,,10,https://streetviewpixels-pa.googleapis.com/v1/thumbnail?panoid=c6Ljr5QUoRm2AreGHRb4xQ&cb_client=search.gws-prod.gps&w=408&h=240&yaw=207.60515&pitch=0&thumbfov=100,1.0,0,2025-05-29T00:48:35.064Z,repuestos
Primera parada,Comercio,,Brandsen 1792,,Rauch,Provincia de Buenos Aires,-36.7717438,-59.0897408,,2,,,0,2025-05-29T00:48:36.560Z,comercio
Dualde Automotores,Comercio,,"BMW, Rondeau 2019",,Rauch,Provincia de Buenos Aires,-36.7736494,-59.0776384,3.7,3,https://streetviewpixels-pa.googleapis.com/v1/thumbnail?panoid=1TSMmFJn5-zWEKc_FbBmSA&cb_client=search.gws-prod.gps&w=408&h=240&yaw=44.32281&pitch=0&thumbfov=100,1.0,3,2025-05-29T00:48:36.560Z,comercio
Remis Plaza,Comercio,,Lavalle 721,+54 249 447-6368,Rauch,Provincia de Buenos Aires,-36.7732353,-59.0893059,3.8,4,https://streetviewpixels-pa.googleapis.com/v1/thumbnail?panoid=sbY_XwOKJv1xygI6DpaiHw&cb_client=search.gws-prod.gps&w=408&h=240&yaw=299.10574&pitch=0&thumbfov=100,1.0,4,2025-05-29T00:48:36.560Z,comercio
Los caseritos,Tienda de alimentación,,Eduardo Rodríguez 253,+54 249 434-1113,Rauch,Provincia de Buenos Aires,-36.7757524,-59.1013832,4.0,5,https://lh3.googleusercontent.com/gps-cs-s/AC9h4nrWQqFZjJmWCL3MUZSZQtxBtr-hHfVBEgGbM5P412yrJqUfI8VA5vpsNWzp4RYauq2bE2mY4ourQTQelM7-RaPDHCS_jFne6fMTI4IR7vlauZzKOTglh2ktMdaYyefC4jmt6__IOg=w546-h240-k-no,76.0,1,2025-05-29T00:48:36.560Z,comercio
Kiosco Lo Del Negro,Tienda de artículos para el hogar,,Av. San Martín 326,,BPQ,Provincia de Buenos Aires,-36.7772125,-59.0915838,4.7,6,https://streetviewpixels-pa.googleapis.com/v1/thumbnail?panoid=UgRNMkENbZ_zaDHZeOZDPw&cb_client=search.gws-prod.gps&w=408&h=240&yaw=139.65396&pitch=0&thumbfov=100,1.0,3,2025-05-29T00:48:36.560Z,comercio
carniceria La Alegria,Comercio,,"BIC, B7203BIC, Av. Pres. Juan Domingo Perón 201-299",+54 249 448-4260,Rauch,Provincia de Buenos Aires,-36.7718838,-59.0917224,4.5,7,https://lh3.googleusercontent.com/p/AF1QipO6Ipu15SLlF1z0aiy_umv6gUDL5eZ4yIHI50kk=w408-h544-k-no,65.0,17,2025-05-29T00:48:36.560Z,comercio
Rotisería Lucy,Supermercado,,Alem 330,+54 2297 44-3254,Rauch,Provincia de Buenos Aires,-36.7727096,-59.093996,4.4,8,https://lh3.googleusercontent.com/gps-cs-s/AC9h4npYPVOn1tIOvH6U-_iG4cRggozvqPH9RURUyQB1n6BpbaWuT0LtkPMw98KM1rzC8yP6JnW0TTodsDctqdeg4u1liLhjf1S_dNxoadJsypXARK4XO8vCUm5QEBJqzLn0f0byajeL=w426-h240-k-no,7.0,80,2025-05-29T00:48:36.560Z,comercio
El Viejo Almacén,Comercio,,,+54 2297 44-2351,Rauch,Provincia de Buenos Aires,-36.7770906,-59.0885116,4.5,9,https://streetviewpixels-pa.googleapis.com/v1/thumbnail?panoid=h49PUrmrDeSsD9ycaKYi_w&cb_client=search.gws-prod.gps&w=408&h=240&yaw=71.76222&pitch=0&thumbfov=100,1.0,2,2025-05-29T00:48:36.560Z,comercio
Palmieri Julio E Hijos,Comercio,,Garralda 260,+54 2297 44-2345,Rauch,Provincia de Buenos Aires,-36.7767339,-59.093429,4.0,10,https://streetviewpixels-pa.googleapis.com/v1/thumbnail?panoid=rFxVQT15Tn_4hF5XqLcwCg&cb_client=search.gws-prod.gps&w=408&h=240&yaw=117.05493&pitch=0&thumbfov=100,1.0,1,2025-05-29T00:48:36.560Z,comercio
Passeggi Aguerre Andres Escribano Publico,Comercio,,Av. San Martín 302,+54 2297 44-2647,BPQ,Provincia de Buenos Aires,-36.7773532,-59.0917756,4.9,12,https://streetviewpixels-pa.googleapis.com/v1/thumbnail?panoid=WDUSTTsijCN88vAPXR4Hew&cb_client=search.gws-prod.gps&w=408&h=240&yaw=163.4681&pitch=0&thumbfov=100,1.0,13,2025-05-29T00:48:36.560Z,comercio
Daniel Carregado,Comercio,,Aveleyra 338,+54 2297 44-3275,Rauch,Provincia de Buenos Aires,-36.7752517,-59.0938719,4.3,13,https://streetviewpixels-pa.googleapis.com/v1/thumbnail?panoid=EdeUvhX6jv9JenJ-B0_z8g&cb_client=search.gws-prod.gps&w=408&h=240&yaw=128.39288&pitch=0&thumbfov=100,1.0,3,2025-05-29T00:48:36.560Z,comercio
Celiberti Enrique Luis,Comercio,,Av. San Martín 338,+54 2297 44-0415,BPQ,Provincia de Buenos Aires,-36.7771237,-59.0914758,4.8,14,https://streetviewpixels-pa.googleapis.com/v1/thumbnail?panoid=WcRcCTy6FmZka8ACpJCMOg&cb_client=search.gws-prod.gps&w=408&h=240&yaw=116.25002&pitch=0&thumbfov=100,1.0,12,2025-05-29T00:48:36.560Z,comercio
Juguetería Sapo Pepe,Comercio,,Garralda 448,+54 2297 44-0079,ASJ,Provincia de Buenos Aires,-36.7754326,-59.0916185,4.7,15,https://lh3.googleusercontent.com/gps-cs-s/AC9h4np-RPPQVLe1KMyhuFuPU5xs5O2cvAKa1y7YonxiAl9wdTF9iAoGKGgRer6vLpoEUK2iYXu1jATAkAVBtqr58102H3WoATQNCqoIdg6DKF5ZtoPPsCxxkbWPUWubK73nYoJfsSNY=w408-h306-k-no,4.0,7,2025-05-29T00:48:36.561Z,comercio
Miguel A Siervo,Comercio,,"ABB, 9 de Julio 62",+54 2297 44-0451,Rauch,Provincia de Buenos Aires,-36.7767021,-59.0926493,5.0,16,https://streetviewpixels-pa.googleapis.com/v1/thumbnail?panoid=Gf08FzRRG00Ziir6a1s30w&cb_client=search.gws-prod.gps&w=408&h=240&yaw=67.19287&pitch=0&thumbfov=100,1.0,1,2025-05-29T00:48:36.561Z,comercio
despesa y anexo las acacias y Üma ropa informal,Comercio,https://m.facebook.com/despensalasacacias/,7203,,Rauch,Provincia de Buenos Aires,-36.7731278,-59.0971487,5.0,17,https://streetviewpixels-pa.googleapis.com/v1/thumbnail?panoid=GBYvI9SPNhnndc1TtGojoA&cb_client=search.gws-prod.gps&w=408&h=240&yaw=22.227795&pitch=0&thumbfov=100,1.0,4,2025-05-29T00:48:36.561Z,comercio
One24,Kiosco,,"Pellegini, Marcelo Torcuato de Alvear y",,Rauch,Provincia de Buenos Aires,-36.7666226,-59.0924306,4.8,18,https://streetviewpixels-pa.googleapis.com/v1/thumbnail?panoid=T_q5oJv2OXwwjDoniwhXDw&cb_client=search.gws-prod.gps&w=408&h=240&yaw=133.50668&pitch=0&thumbfov=100,1.0,6,2025-05-29T00:48:36.561Z,comercio
Arturo E Dualde,Comercio,,Av. San Martín 1060,+54 2297 44-0384,Rauch,Provincia de Buenos Aires,-36.7716727,-59.0850317,4.5,19,https://lh3.googleusercontent.com/gps-cs-s/AC9h4nrMyxgEUuokiEyVM-gis2OioyXXnKAkA9ZzuJv08-agT-hYgIkEvcnT9DgmEXQGNlT_HIXIHHD2cAVKWfdQzK_RiYGvYCzblSbepn3hJCytTEYJs8FfzQIRDhlEcOvLbpxQWTZJ9g=w408-h725-k-no,3.0,2,2025-05-29T00:48:36.561Z,comercio
Autoservicio La Suerte,Supermercado,,Alem 590 598,+54 249 431-7611,Rauch,Provincia de Buenos Aires,-36.7703616,-59.0969038,4.4,23,https://lh3.googleusercontent.com/gps-cs-s/AC9h4nru7pRQt-iDH4DErvbDrIdaZPSAd00CNv7V5Vpo7z911kofdlpTozzZthvLpaRuJ11Y7_V5b39XbzNNM5tdmXmxsa5pXohQ6azeNKDIO_OXj8cwhU6s1vIjgat-vOG5Pb1ofM-Wyw=w408-h725-k-no,32.0,29,2025-05-29T00:48:37.167Z,comercio
Minimercado Tu Ahorro,Tienda general,,Alem 590,,Rauch,Provincia de Buenos Aires,-36.7699042,-59.0975225,,24,https://lh3.googleusercontent.com/gps-cs-s/AC9h4nosGuBdn3zU0bnG3s3pzy8XiHjLR6xPQOUjwAu9-iL5z3mno-Dnup6pG_hNinoHFKgkVOsUg-UFura_D_zLIaaLhPqgmZCc_-0qUZXYevaStmfnCio8ONzPZAUi7EjbE6H8aT4v=w426-h240-k-no,10.0,0,2025-05-29T00:48:37.167Z,comercio
Despensa Mi Mamà Es Mi Angel,Tienda de alimentación,,"B7203AYO, Las Heras 701-799",+54 249 431-0515,Rauch,Provincia de Buenos Aires,-36.7691611,-59.0935167,5.0,25,https://lh3.googleusercontent.com/gps-cs-s/AC9h4noH3nsuyH4ta0cogVo0L3aIAIpLiofCOAy72L9QsM9gtu7Od0id2EzPkYNXRVEaJiWf7K63fs722KGoDuaWMjO8H3w3CVKMe4aLMgBpuuKqHOi6wwjqECU8SuVNf8QXIYAgrSqZ=w408-h306-k-no,4.0,2,2025-05-29T00:48:37.168Z,comercio
Super Chino Nuevo,Tienda de alimentación,,"300-398, B7203BIQ, Av. Pres. Juan Domingo Perón",,Rauch,Provincia de Buenos Aires,-36.7711254,-59.0924871,3.8,26,https://lh3.googleusercontent.com/gps-cs-s/AC9h4no99Tu7df-jnxE5m34DhmovphpZfT7ukvlFDtFKobUf0hhrTc8-kDUN-XUkf7x8HT7vq7vSv_Ql6IneWcVA-4mgramYg57-oiSocnIf9TXf4f_BG_6UYkd1QC563SHi4BMo9JRS=w408-h839-k-no,3.0,93,2025-05-29T00:48:37.168Z,comercio
despensa El Amanecer,Tienda de alimentación,,,,Rauch,Provincia de Buenos Aires,-36.7703334,-59.0904795,3.0,27,https://streetviewpixels-pa.googleapis.com/v1/thumbnail?panoid=zU0dKiQEiLv2PdoCHgSixw&cb_client=search.gws-prod.gps&w=408&h=240&yaw=301.8618&pitch=0&thumbfov=100,1.0,1,2025-05-29T00:48:37.168Z,comercio
Terra Herramientas,Tienda de herramientas,http://www.terraherramientas.com.ar/,Colectora Alvear 1150,+54 249 402-0504,AEX,Provincia de Buenos Aires,-36.7650016,-59.0916388,3.1,28,https://lh3.googleusercontent.com/p/AF1QipMjXFo8cM1wEwGxuQzyLqX6G_XQs4nXghc7GRMu=w408-h544-k-no,19.0,7,2025-05-29T00:48:37.168Z,comercio
Toxic Shine Rauch,Tienda de accesorios para automóviles,https://www.instagram.com/toxicshinerauch/,Barrio Mit 33,+54 249 402-2985,Rauch,Provincia de Buenos Aires,-36.7656927,-59.0976689,5.0,30,https://lh3.googleusercontent.com/p/AF1QipNz57mugkYfzwanLOxKt0WtTriePoIV3batc6QZ=w408-h544-k-no,7.0,1,2025-05-29T00:48:37.168Z,comercio
Despensa Lo de Isabel,Tienda de alimentación,,Solidaridad 58,,Rauch,Provincia de Buenos Aires,-36.7697122,-59.0978572,,31,https://streetviewpixels-pa.googleapis.com/v1/thumbnail?panoid=lb0brqsWoZum2zxUfzr8Lw&cb_client=search.gws-prod.gps&w=408&h=240&yaw=42.003937&pitch=0&thumbfov=100,1.0,0,2025-05-29T00:48:37.168Z,comercio
Maderera El Castor,Establecimiento de venta de madera,,"Dardo Rocha, Las Heras esq",+54 11 5146-1353,Rauch,Provincia de Buenos Aires,-36.7652624,-59.0886062,,32,https://lh3.googleusercontent.com/p/AF1QipMAr-XI5PJQ7JVEtvSmKBj6ISUnkHfcjNfKB1jN=w408-h724-k-no,14.0,0,2025-05-29T00:48:37.168Z,comercio
"Vineria ""El Tonel""",Tienda de vinos,http://instagram.com/eltonelvineria,"Avenida Perón, Balcarce y",+54 249 447-7356,Rauch,Provincia de Buenos Aires,-36.7705612,-59.0929643,4.6,33,https://lh3.googleusercontent.com/p/AF1QipOknQm8aN_HAOqqEH7P44Gsz5309WJN-yTBHS35=w408-h725-k-no,112.0,75,2025-05-29T00:48:37.168Z,comercio
Ferreteria TATO,Ferretería,,"B7203BIR, Av. Pres. Juan Domingo Perón 410",+54 249 466-2890,Rauch,Provincia de Buenos Aires,-36.7704742,-59.0930384,4.6,34,https://streetviewpixels-pa.googleapis.com/v1/thumbnail?panoid=UxS5SOTqML71LW3pTDldMQ&cb_client=search.gws-prod.gps&w=408&h=240&yaw=46.977833&pitch=0&thumbfov=100,1.0,62,2025-05-29T00:48:37.168Z,comercio
CARNICERIA EL RUANO,Carnicería,,Av. Pres. Juan Domingo Perón 395,,Rauch,Provincia de Buenos Aires,-36.7706065,-59.0933528,,35,https://streetviewpixels-pa.googleapis.com/v1/thumbnail?panoid=gEen_n81rKqmV66_anZLZA&cb_client=search.gws-prod.gps&w=408&h=240&yaw=217.94391&pitch=0&thumbfov=100,1.0,0,2025-05-29T00:48:37.168Z,comercio
Organdí - Confección y Venta de Prendas y Telas,Tienda de telas,https://instagram.com/organdisederiarauch?igshid=YmMyMTA2M2Y=,Avellaneda 174,+54 9 249 421-6105,Rauch,Provincia de Buenos Aires,-36.7711581,-59.0884617,4.8,37,https://lh3.googleusercontent.com/p/AF1QipMTIr6lKAdOnyaIrcF8aNjySCyQgsJ_JxVjwQ6o=w408-h544-k-no,6.0,8,2025-05-29T00:48:37.168Z,comercio
Automotores Artigas,Compraventa de automóviles,,,+54 249 432-5778,Rauch,Provincia de Buenos Aires,-36.7649155,-59.091475,,38,https://lh3.googleusercontent.com/p/AF1QipM7EoJSf1bc6CNJPwEIM-60Y9IYBHt3j1O8mTbu=w408-h306-k-no,5.0,0,2025-05-29T00:48:37.168Z,comercio
SUMATRA,Tienda de ropa,,Av. San Martín 419,,Rauch,Provincia de Buenos Aires,-36.776353,-59.090975,,1,https://streetviewpixels-pa.googleapis.com/v1/thumbnail?panoid=cT0YYae8r4s1E_bq_lxGYg&cb_client=search.gws-prod.gps&w=408&h=240&yaw=311.0709&pitch=0&thumbfov=100,1.0,0,2025-05-29T00:48:37.285Z,tienda
Electro Rauch,Tienda de artículos para el hogar,,"B7203BPX, Av. San Martín 1096",+54 9 249 433-7624,Rauch,Provincia de Buenos Aires,-36.7715625,-59.0846531,4.9,3,https://lh3.googleusercontent.com/p/AF1QipOyUUq85Gk0I19Ug222UzKgJT5Jtp9LH4NpRr0Q=w408-h306-k-no,74.0,32,2025-05-29T00:48:38.693Z,electronica
Hendel Rauch,Tienda de electrodomésticos,https://www.hendel.com/,Av. San Martín 476,+54 11 6091-7532,BPR,Provincia de Buenos Aires,-36.7761898,-59.090301,4.5,6,https://lh3.googleusercontent.com/gps-cs-s/AC9h4noqyLdLflkPQT-FQebIcPIdMOLAHKZZAR4MunC7SUnyMWRaPl-GIWxplUjlEQmtiC147VfsQr-v_UoMp3Q9JQ761FQf-bq5RczfZySgr_KO0fasOBwQP0R3KF9s-dJ-qGnJDxiSdg=w546-h240-k-no,14.0,87,2025-05-29T00:48:38.694Z,electronica
Cybermania Insumos y Reparacion de Pc,Servicio de informática,,Cnel. Suárez 34,+54 2297 44-0339,Rauch,Provincia de Buenos Aires,-36.7832489,-59.0999985,,8,,,0,2025-05-29T00:48:38.694Z,electronica
Suma Créditos Rauch,Institución financiera,,"BPS, Av. San Martín 554",,Rauch,Provincia de Buenos Aires,-36.7756668,-59.0896794,,9,https://lh3.googleusercontent.com/p/AF1QipPJvPyZp684wKYhxQKJ_twAp3ioA0pualEEzCcL=w408-h306-k-no,9.0,0,2025-05-29T00:48:38.694Z,electronica
Festejemos-Juntos,Diseñador de sitios web,,,+54 249 427-0586,,,-36.7746716,-59.0901985,,2,,,0,2025-05-29T00:48:42.221Z,web
Almacén 'Lo Maty',Tienda general,,Juan Silva 327,,Rauch,Provincia de Buenos Aires,-36.7830896,-59.0911519,4.8,1,https://lh3.googleusercontent.com/p/AF1QipMRvSd51mQuCe71zdgOa872Su1zHYIiOlrrx6bp=w426-h240-k-no,38.0,4,2025-05-29T00:48:49.391Z,comercio
Forrajería Cholín,Comercio,,Av. Matheu 440,,Rauch,Provincia de Buenos Aires,-36.7830048,-59.0887596,5.0,5,https://streetviewpixels-pa.googleapis.com/v1/thumbnail?panoid=7dQWtNJWSskodQjh4t8Wog&cb_client=search.gws-prod.gps&w=408&h=240&yaw=215.91989&pitch=0&thumbfov=100,1.0,10,2025-05-29T00:48:49.391Z,comercio
Ibargoyen Mario Riune Martin Sebastian,Comercio,,"Av H Yrigoyen 446, Rauch, Buenos Aires",+54 2297 44-0379,Rauch,Buenos Aires Sur,-36.7832489,-59.0999985,5.0,6,,,1,2025-05-29T00:48:49.391Z,comercio
Camara Comercial Industrial Y de Servicios de Rauch,Cámara de comercio,http://camaracomerciorauch.com.ar/,Av. San Martín 193,+54 2297 44-2610,Rauch,Provincia de Buenos Aires,-36.7779446,-59.093083,4.7,7,https://lh3.googleusercontent.com/p/AF1QipOPdvtHH6EsqNUs_2qSNZh1XQ1C1eaRpxiw6yoQ=w408-h271-k-no,20.0,28,2025-05-29T00:48:49.391Z,comercio
Provenzano Luis,Comercio,,"ACA, Alberti 13",+54 2297 44-2173,Rauch,Provincia de Buenos Aires,-36.7767082,-59.0908077,,10,https://streetviewpixels-pa.googleapis.com/v1/thumbnail?panoid=3IWeGuIyp_P7MQa7yWaxOA&cb_client=search.gws-prod.gps&w=408&h=240&yaw=27.285376&pitch=0&thumbfov=100,1.0,0,2025-05-29T00:48:49.391Z,comercio
"""La Safita"" artículos de limpieza y bazar.",Tienda de artículos para el hogar,,Av. Matheu 296,,BBP,Provincia de Buenos Aires,-36.7815648,-59.0906236,4.9,24,https://lh3.googleusercontent.com/gps-cs-s/AC9h4nqcPzBF7Roo-IrbEiLcSmkLF_enylfaZy9Fe3MtKSb7RleKgVlPQ8qnUR9XxBmraUq2RVP-8oQmRFTxBzljjdQqqG_dvo6qtBTwuFSYVObnq5nj8pB2EXX-17Saqk5YtLEIZ8LP=w408-h306-k-no,12.0,7,2025-05-29T00:48:50.321Z,comercio
Panaderia Lo de Recio Horno A Le a,Panadería,,Aveleyra 127,+54 2297 44-2274,Rauch,Provincia de Buenos Aires,-36.7790446,-59.0938012,4.3,25,https://lh3.googleusercontent.com/gps-cs-s/AC9h4nqA8oyR42YoETS2Q0DWvdtAwQpWxW0yZaU1CSx5GnMYZiWFsNkAPMRKond2ZY1aboiyTcrvfFPG323Bn_kyEMgbGAXlgIZ3K89wr5g9c4IxgPe0LEubn2qzHEseq6aapSx9agdogQ=w408-h378-k-no,21.0,55,2025-05-29T00:48:50.321Z,comercio
Minimercado Tu Ahorro,Supermercado,,Rondeau 37 A,,Rauch,Provincia de Buenos Aires,-36.7838047,-59.0885761,4.4,26,https://lh3.googleusercontent.com/gps-cs-s/AC9h4nq0c5yPdm49i9pmrkxlVb4fS68Nh1M1E_PvnjeL1M1MvgvBi2y5F97oLZH7WLEoyi6GBhkwqvhqdzAxVjqXk5Y6QOcxMiPxV90k4lNaI9MP15xsVDI8mMGY9FQL7z-7pGoL8EzF=w408-h306-k-no,16.0,21,2025-05-29T00:48:50.321Z,comercio
Golopolis,Supermercado,,Av. San Martín 83,,Rauch,Provincia de Buenos Aires,-36.7790397,-59.0942454,4.5,27,https://lh3.googleusercontent.com/gps-cs-s/AC9h4np3Nzs_mrMgfxnIHL_W_QUDlbXGO7pU1sL1TGXmkVBFB5W9SokJj23lfiiCV_O85oEnqWyyNttjv-_SUez6x5zikS6nxGsUW-Sp0Iok91PD-GlfCyPG1KA87GPdJHEeWfjAEjCVIQ=w408-h862-k-no,6.0,185,2025-05-29T00:48:50.322Z,comercio
El Safa,Carnicería,,Av. Matheu 74 B7203BBN,+54 249 457-8111,Rauch,Provincia de Buenos Aires,-36.7795559,-59.0931153,4.9,28,https://lh3.googleusercontent.com/p/AF1QipM59aSmqODRXnBDBqE0IybBjt1C4fDWJ33VP-ZP=w408-h306-k-no,82.0,28,2025-05-29T00:48:50.322Z,comercio
Da-Qui Carnicería,Carnicería,,"Letamendi, Castelli y",+54 443685,Buenos Aires,Provincia de Buenos Aires,-36.7790477,-59.0915108,4.9,29,https://lh3.googleusercontent.com/gps-cs-s/AC9h4npQQhPP9DVdzamid5741kJB1USOpDODVIVWTQ9Mb1W3JHhlEF8LtQc5KcFlXHSgSTSD5x-OBZiUUDGJydlexbWWjRk-EDhdSlnG-tPvkBBPjT9uAKhAh7_yF1nBkHy9hEC8tzQ=w426-h240-k-no,3.0,36,2025-05-29T00:48:50.322Z,comercio
Libreria Don Carlos,Librería,https://libreriasdoncarlos.mitiendanube.com/,"Esquina Moreno, Alberti 199",+54 249 406-3066,Rauch,Provincia de Buenos Aires,-36.7784697,-59.0885801,4.7,30,https://lh3.googleusercontent.com/p/AF1QipPdLiVCjTky3XrnxPslXr14lTt7UJD8w7i5fyq4=w408-h270-k-no,20.0,158,2025-05-29T00:48:50.322Z,comercio
Claro Agente Oficial,Proveedor de servicios de telecomunicaciones,http://www.claro.com.ar/,CASTELLI JUAN JOSE 198,+54 800-123-0611,Rauch,Provincia de Buenos Aires,-36.7800323,-59.0903963,5.0,31,https://lh3.googleusercontent.com/p/AF1QipMvwruZ3PXm6L-q5HOV73UZNrXAtv4kUSuf8u9U=w426-h240-k-no,3.0,64,2025-05-29T00:48:50.322Z,comercio
Zapateria la abuela,Zapatería,,Av. Matheu 136,,Rauch,Provincia de Buenos Aires,-36.780302,-59.0923473,,32,https://streetviewpixels-pa.googleapis.com/v1/thumbnail?panoid=a4Pl3JYbIngPnTVmveMMQA&cb_client=search.gws-prod.gps&w=408&h=240&yaw=222.28584&pitch=0&thumbfov=100,1.0,0,2025-05-29T00:48:50.322Z,comercio
Mundo Celular (Agencia Claro),Tienda de móviles,,"CASTELLI, Moreno Y",+54 249 432-8809,Rauch,Provincia de Buenos Aires,-36.7799446,-59.0905672,4.7,33,https://lh3.googleusercontent.com/p/AF1QipPWobBXP-5vPMtlNqvOx1yW1dy44mRJ44_MDVjQ=w408-h306-k-no,147.0,24,2025-05-29T00:48:50.322Z,comercio
PANADERIA La Castellana,Panadería,,Av. San Martín 168,,BPO,Provincia de Buenos Aires,-36.778586,-59.0932359,,34,https://streetviewpixels-pa.googleapis.com/v1/thumbnail?panoid=8KptVBC-AdR7fWs7aWSr3Q&cb_client=search.gws-prod.gps&w=408&h=240&yaw=125.52649&pitch=0&thumbfov=100,1.0,0,2025-05-29T00:48:50.322Z,comercio
VOLZONE AUTOMOTORES,Concesionario de automóviles,,Letamendi,,Rauch,Provincia de Buenos Aires,-36.7784352,-59.0907525,,35,https://streetviewpixels-pa.googleapis.com/v1/thumbnail?panoid=IWEDavpdL_EYB-CMrEJkWw&cb_client=search.gws-prod.gps&w=408&h=240&yaw=149.9427&pitch=0&thumbfov=100,1.0,0,2025-05-29T00:48:50.322Z,comercio
Premoldeados constantini,Tienda de materiales para la construcción,,Castelli,+54 249 400-4864,Rauch,Provincia de Buenos Aires,-36.7794497,-59.091275,,37,https://lh3.googleusercontent.com/p/AF1QipNpi5NQCRilqHtWXuhQsyOL66cugXblhhuiFus6=w408-h544-k-no,58.0,0,2025-05-29T00:48:50.322Z,comercio
Ortiz Automotores,Concesionario de automóviles,,Av. Matheu 150,+54 249 459-6304,Rauch,Provincia de Buenos Aires,-36.7803223,-59.0921927,3.7,38,https://lh3.googleusercontent.com/p/AF1QipMFyumaUcceI29Ln0WYtdges9w6j8gQiaeEjEXO=w533-h240-k-no,6.0,3,2025-05-29T00:48:50.322Z,comercio
"Despensa y anexo belen ""lo de jhonny""",Comercio,,Barrio Flucho Casa 23,+54 9 249 448-5829,Rauch,Provincia de Buenos Aires,-36.7809488,-59.0787255,5.0,1,https://lh3.googleusercontent.com/p/AF1QipN4p-lhS9O4aIyZYxcbKosrUPUrRD6O36ewvgdt=w408-h306-k-no,33.0,9,2025-05-29T00:48:54.897Z,comercio
Campos Julian - Contenedores,Comercio,,Av. Belgrano 573,+54 2297 44-2714,Rauch,Provincia de Buenos Aires,-36.7796401,-59.081616,4.8,3,https://lh3.googleusercontent.com/gps-cs-s/AC9h4nqCgg2GB9_xvU6tTL8agt7Qgrv6QTa1z0PRs3WDH7yxrmO_bnkiPcqqY56xnoruRCadyWtSE1WhsBagZH75QNJTHQaJ8sJlxjDMU1iqlqVGBKh5sh2BzdeNVFK0qisk3RPPERAmCA=w408-h306-k-no,3.0,4,2025-05-29T00:48:54.897Z,comercio
Deco Art,Tienda de regalos,,Cnel. Suárez 602,,Rauch,Provincia de Buenos Aires,-36.7815534,-59.0833525,5.0,22,https://lh3.googleusercontent.com/p/AF1QipN1sKt-bnrjpOhjpwDOPtez2NVAgp7CVOwsc9Jy=w426-h240-k-no,2.0,1,2025-05-29T00:48:55.439Z,tienda
MinimercadoHG,Tienda general,https://www.instagram.com/minimercadohg?igsh=cWExcW9oZGhpYXc1,Av. Gral. Paz 350,+54 249 433-2251,Rauch,Provincia de Buenos Aires,-36.7826955,-59.0844884,,23,https://streetviewpixels-pa.googleapis.com/v1/thumbnail?panoid=BdJD3H_5-1BzKhrRJi-0nw&cb_client=search.gws-prod.gps&w=408&h=240&yaw=119.88067&pitch=0&thumbfov=100,2.0,0,2025-05-29T00:48:55.439Z,tienda
Mini Mercado El Haragán,Tienda de alimentación,,,,Rauch,Provincia de Buenos Aires,-36.7813174,-59.0852601,,24,https://streetviewpixels-pa.googleapis.com/v1/thumbnail?panoid=tjLKNqhxYjIvJiR4-AA42A&cb_client=search.gws-prod.gps&w=408&h=240&yaw=108.36749&pitch=0&thumbfov=100,1.0,0,2025-05-29T00:48:55.439Z,tienda
"Don Francisco ""La Frutería""",Tienda de alimentación,,Av. Belgrano 500-598,,Rauch,Provincia de Buenos Aires,-36.7793136,-59.0820409,4.6,25,https://streetviewpixels-pa.googleapis.com/v1/thumbnail?panoid=wkeCFcp89oj8UwtmPyuu4A&cb_client=search.gws-prod.gps&w=408&h=240&yaw=89.13235&pitch=0&thumbfov=100,2.0,21,2025-05-29T00:48:55.439Z,tienda
LF Muebles Hogar,Tienda de artículos para el hogar,,Av. Belgrano 600-648,+54 249 450-5544,Rauch,Provincia de Buenos Aires,-36.7799871,-59.0812366,5.0,26,https://streetviewpixels-pa.googleapis.com/v1/thumbnail?panoid=T15CJSMRHJigDKZp6KKwZA&cb_client=search.gws-prod.gps&w=408&h=240&yaw=235.46631&pitch=0&thumbfov=100,1.0,1,2025-05-29T00:48:55.439Z,tienda
Todo Resuelto,Tienda de artículos para el hogar,,Av. Gral. Paz 865,,ATQ,Provincia de Buenos Aires,-36.7786454,-59.0797843,5.0,27,https://lh3.googleusercontent.com/gps-cs-s/AC9h4nosqPzlkP5WFXJubw25r7phMV5ACpLuncQFRQAZJiU6gdkXwmp-FmqMfyoYrEKWUJ6LfNe3-7jmPR_6fokantnnfR4bkqZCyJa7SUTmEIeNyvUuk77coqzDE44NgSF6nwsmB3j1Kg=w533-h240-k-no,3.0,2,2025-05-29T00:48:55.439Z,tienda
Hugo C Ciolfi,Comercio,,"AJR, Av. Belgrano 454",+54 2297 44-3691,Rauch,Provincia de Buenos Aires,-36.7786636,-59.0831513,,29,https://streetviewpixels-pa.googleapis.com/v1/thumbnail?panoid=ChPpJHNjEW2q8WefOVnMdw&cb_client=search.gws-prod.gps&w=408&h=240&yaw=238.95787&pitch=0&thumbfov=100,1.0,0,2025-05-29T00:48:55.439Z,tienda
Cooperativa Eléctrica de Egaña Ltda.,Comercio,,Cnel. Suárez 602,+54 9 249 447-6449,Rauch,Provincia de Buenos Aires,-36.7815614,-59.0832216,3.0,30,https://streetviewpixels-pa.googleapis.com/v1/thumbnail?panoid=RSSRdCKtdhcj56ko1ajhgA&cb_client=search.gws-prod.gps&w=408&h=240&yaw=208.99625&pitch=0&thumbfov=100,1.0,2,2025-05-29T00:48:55.440Z,tienda
Panaderia Union,Panadería,,"Rondeau 799-701, B7203BMO",,Rauch,Provincia de Buenos Aires,-36.7789287,-59.0823509,4.8,31,https://streetviewpixels-pa.googleapis.com/v1/thumbnail?panoid=_0BAYtkSeNhorTx0LM7vow&cb_client=search.gws-prod.gps&w=408&h=240&yaw=119.56671&pitch=0&thumbfov=100,1.0,36,2025-05-29T00:48:55.440Z,tienda
José Luis González SA,Tienda de materiales para la construcción,http://www.joseluisgonzalezsa.com.ar/index.php?solicitar=si,Cnel. Suárez 460,+54 2297 44-2712,AQJ,Provincia de Buenos Aires,-36.7802709,-59.0849879,4.8,32,https://lh3.googleusercontent.com/p/AF1QipPfnAjMrLHAoXgZOxmW2cCCIETOKk5xGdYbs48t=w408-h288-k-no,10.0,120,2025-05-29T00:48:55.440Z,tienda
La Casa del Colchón,Colchonería,,,,Rauch,Provincia de Buenos Aires,-36.7804546,-59.0844999,,33,https://streetviewpixels-pa.googleapis.com/v1/thumbnail?panoid=CgAQDTDW_sM1IBqEEr0Fog&cb_client=search.gws-prod.gps&w=408&h=240&yaw=225.93054&pitch=0&thumbfov=100,1.0,0,2025-05-29T00:48:55.440Z,tienda
Podologa,Tienda de belleza y salud,,Cnel. Suárez 445,+54 249 456-8059,Rauch,Provincia de Buenos Aires,-36.7798512,-59.0849487,,34,https://lh3.googleusercontent.com/p/AF1QipPmK1ghx5wAmpGXvaRsLyp5XR5Yp3hWBhZQAABc=w408-h408-k-no,33.0,0,2025-05-29T00:48:55.440Z,tienda
CARNICERIA DOly,Carnicería,,Av. Belgrano,,Rauch,Provincia de Buenos Aires,-36.7788057,-59.0829509,,35,https://streetviewpixels-pa.googleapis.com/v1/thumbnail?panoid=fKtKSa875l-2cnQgIEhA3Q&cb_client=search.gws-prod.gps&w=408&h=240&yaw=228.36618&pitch=0&thumbfov=100,1.0,0,2025-05-29T00:48:55.440Z,tienda
Minimercado C Y G,Tienda de alimentación,,Av. Yrigoyen 376,+54 2297 44-3535,Rauch,Provincia de Buenos Aires,-36.7753325,-59.0979019,4.5,8,https://streetviewpixels-pa.googleapis.com/v1/thumbnail?panoid=_4yXjmdPoH1ci3-6UkNxOA&cb_client=search.gws-prod.gps&w=408&h=240&yaw=46.722263&pitch=0&thumbfov=100,1.0,14,2025-05-29T00:48:57.442Z,comercio
Club Comercio Rauch,,,Av. San Martín 439,,Rauch,Provincia de Buenos Aires,-36.776132,-59.0906475,,9,https://streetviewpixels-pa.googleapis.com/v1/thumbnail?panoid=e9QkvY4OU-M59CMW-K-Wuw&cb_client=search.gws-prod.gps&w=408&h=240&yaw=281.912&pitch=0&thumbfov=100,1.0,0,2025-05-29T00:48:57.442Z,comercio
Open 24,Tienda general,,Av. San Martín 331,,Rauch,Provincia de Buenos Aires,-36.7773857,-59.0921592,4.5,21,https://streetviewpixels-pa.googleapis.com/v1/thumbnail?panoid=Ip5G3RAKdRyiNhja5uYUzA&cb_client=search.gws-prod.gps&w=408&h=240&yaw=273.44275&pitch=0&thumbfov=100,1.0,6,2025-05-29T00:48:59.106Z,tienda
Supermercado CLC Rauch,Supermercado,,Alberti 133,,Rauch,Provincia de Buenos Aires,-36.7779795,-59.0895558,4.3,22,https://lh3.googleusercontent.com/gps-cs-s/AC9h4noVTzvlmuP4dtZkec3aDtI1H4NAs2SDBXcXLv3-FS2tt-ISgPLGKf73xU_yh52WFZsXlnyuSNePE8XcnqgJ6NzRTx86qSr_QVJVTEaEBJ3KUE9qeYrOGJeirQ5Oz1dWvga2zdDgnw=w408-h306-k-no,14.0,100,2025-05-29T00:48:59.107Z,tienda
Curvas,Tienda de ropa,,Las Heras 438,,Rauch,Provincia de Buenos Aires,-36.7717876,-59.0964116,5.0,24,https://lh3.googleusercontent.com/gps-cs-s/AC9h4npwX6OlBh9C7ePPVYySd_fGHHBjJzj7ilBCtJ9jifsLWPftHubCnScHZvZ5lQGgb-kOtOdHVNy7kg0cqRytVEBrMMCR_R7zfs2SOxNrJxyj_IrZrUVwGqE-lcQyu8Gvm0mh_T9h=w408-h544-k-no,2.0,8,2025-05-29T00:48:59.107Z,tienda
Supermercados DIA,Supermercado,https://diaonline.supermercadosdia.com.ar/,Cnel. Suárez 150,,Rauch,Provincia de Buenos Aires,-36.7772341,-59.0883114,4.1,26,https://lh3.googleusercontent.com/p/AF1QipMgfbEp-Bz81-IghvCz39ozqiO_ULKXMaL8TLY6=w408-h306-k-no,47.0,373,2025-05-29T00:48:59.107Z,tienda
Minimercado Por Centavo,Tienda de alimentación,,Letamendi 367,,Rauch,Provincia de Buenos Aires,-36.7776957,-59.0901759,,30,https://lh3.googleusercontent.com/gps-cs-s/AC9h4npkzIK1xaLhYcARUhaHsSQbgjviD3_rrkO9LjgVIEgjZrSMTY0VW6YyZz3K7eMEKAOGXwKv0lcVvli4KPIAfG0FeqmSa5EtAdsIA09rSrIJble7pkDAsTmay0nCZeE9S43w6aYjeQ=w408-h408-k-no,2.0,0,2025-05-29T00:48:59.107Z,tienda
Maxi kiosco del centro,Kiosco,,Av. San Martín 592,,Rauch,Provincia de Buenos Aires,-36.7752919,-59.0892411,4.3,31,https://lh3.googleusercontent.com/gps-cs-s/AC9h4nr8oKDUxon5mkR4WVnMOTfnV4S6pev97qv25ZGYml9kA8Ux2tDIaQhQI_tTEbl-GOl0T3ZEzfyVblATfgMHSXhyWjG6jMlm9VKMmZH1e85JNb59hI4m6qa6imYJib17Dr75fr83=w426-h240-k-no,9.0,3,2025-05-29T00:48:59.107Z,tienda
La Esquina,Tienda de alimentación,,Garralda 582,,Rauch,Provincia de Buenos Aires,-36.7743939,-59.0905481,,34,https://streetviewpixels-pa.googleapis.com/v1/thumbnail?panoid=ken2ob53xaCwmPV_rDopkA&cb_client=search.gws-prod.gps&w=408&h=240&yaw=160.72977&pitch=0&thumbfov=100,1.0,0,2025-05-29T00:48:59.107Z,tienda
Sabores y Placeres,Tienda de fiambres,,Cnel. Suárez 71,+54 9 249 448-3420,Rauch,Provincia de Buenos Aires,-36.7764384,-59.0891366,4.6,35,https://lh3.googleusercontent.com/p/AF1QipPWl_Jq_PDD1J1sRgeEjF5OSLTfN2cDFkSBYaRg=w408-h306-k-no,69.0,59,2025-05-29T00:48:59.107Z,tienda
Estilo,Tienda de ropa,,"ASI, Garralda 401",+54 2297 44-3726,Rauch,Provincia de Buenos Aires,-36.7756429,-59.0922679,5.0,37,https://streetviewpixels-pa.googleapis.com/v1/thumbnail?panoid=0IOCR1SR1FaOf3nN1bMHng&cb_client=search.gws-prod.gps&w=408&h=240&yaw=359.19394&pitch=0&thumbfov=100,1.0,1,2025-05-29T00:48:59.108Z,tienda
Los Chavales,Tienda de ropa,,Alberti 134,+54 2297 44-0721,ACD,Provincia de Buenos Aires,-36.7778227,-59.0893957,4.8,38,https://streetviewpixels-pa.googleapis.com/v1/thumbnail?panoid=SPqTODHISukpRspZWfIdZw&cb_client=search.gws-prod.gps&w=408&h=240&yaw=47.010563&pitch=0&thumbfov=100,1.0,13,2025-05-29T00:48:59.108Z,tienda
Top Ten Deportes,Comercio,,"AQB, Cnel. Suárez 16",,Rauch,Provincia de Buenos Aires,-36.7761102,-59.0900863,4.7,39,https://lh3.googleusercontent.com/gps-cs-s/AC9h4nqX4T90QaLJkVMo87CQdbgIcHXsfNA5SoVWga5ViuxpweFhPLk0D4rMfMTwB5cXrd7bd_kJkiAhx-7zoJVNMXHge8VWpUaxUlLD5ml6XxVwfVxL2_ehgWq8fY7KM9RGvG9rPmQRBg=w408-h306-k-no,10.0,27,2025-05-29T00:48:59.108Z,tienda
Alega,Tienda de alimentación,,25 de Mayo,,Rauch,Provincia de Buenos Aires,-36.7773501,-59.093952,,40,https://streetviewpixels-pa.googleapis.com/v1/thumbnail?panoid=iNrQdl_KoGVoIrPXDRd6cA&cb_client=search.gws-prod.gps&w=408&h=240&yaw=208.90424&pitch=0&thumbfov=100,1.0,0,2025-05-29T00:48:59.108Z,tienda
San Roque Pet Shop,Tienda de alimentación,,"B7203ABG, 9 de Julio 357",,Rauch,Provincia de Buenos Aires,-36.7740193,-59.0960487,4.7,42,https://streetviewpixels-pa.googleapis.com/v1/thumbnail?panoid=KZeXxtQ9A5okm01WpMK9Bw&cb_client=search.gws-prod.gps&w=408&h=240&yaw=74.81198&pitch=0&thumbfov=100,1.0,43,2025-05-29T00:49:00.437Z,tienda
Buzzella Hogar,Comercio,,"ASH, Garralda 302",,Rauch,Provincia de Buenos Aires,-36.776359,-59.0927977,,43,https://streetviewpixels-pa.googleapis.com/v1/thumbnail?panoid=uP249xe1sCqGNiyKyK_Nkw&cb_client=search.gws-prod.gps&w=408&h=240&yaw=136.17285&pitch=0&thumbfov=100,1.0,0,2025-05-29T00:49:00.437Z,tienda
El Salteño,Carnicería,,"B7203AFD, Aristóbulo del Valle 100-146",,Rauch,Provincia de Buenos Aires,-36.774091,-59.0904994,4.8,44,https://streetviewpixels-pa.googleapis.com/v1/thumbnail?panoid=z5-NKx7de8bydvzLncBgow&cb_client=search.gws-prod.gps&w=408&h=240&yaw=0.77918667&pitch=0&thumbfov=100,1.0,16,2025-05-29T00:49:00.437Z,tienda
Lo De Pini Autoservicio - Minimercado,Tienda de alimentación,,,,Rauch,Provincia de Buenos Aires,-36.773032,-59.0990525,,45,https://streetviewpixels-pa.googleapis.com/v1/thumbnail?panoid=U3AB65UYOofHhdQmtHTvZw&cb_client=search.gws-prod.gps&w=408&h=240&yaw=149.85896&pitch=0&thumbfov=100,1.0,0,2025-05-29T00:49:00.437Z,tienda
In Situ,Tienda de ropa,,"AQA, Cnel. Suárez 77",+54 2297 44-0609,Rauch,Provincia de Buenos Aires,-36.7764886,-59.089131,,46,https://streetviewpixels-pa.googleapis.com/v1/thumbnail?panoid=5cBxTGgREGnCSItuYRRy4A&cb_client=search.gws-prod.gps&w=408&h=240&yaw=70.60146&pitch=0&thumbfov=100,3.0,0,2025-05-29T00:49:00.437Z,tienda
"""Las Canarias""",Tienda de ropa,,Eduardo Rodríguez 455,+54 249 402-8802,Rauch,Provincia de Buenos Aires,-36.7761875,-59.1009302,5.0,48,https://lh3.googleusercontent.com/p/AF1QipMSQJxOdo0-jrXgQJHFHvr9Dxd650BTNs65Iczb=w426-h240-k-no,23.0,7,2025-05-29T00:49:00.438Z,tienda
María Antonieta Regalos,Tienda de regalos,,"Av. San Martín 583, B7203ACA",,Rauch,Provincia de Buenos Aires,-36.7751681,-59.0895182,,49,https://streetviewpixels-pa.googleapis.com/v1/thumbnail?panoid=-6MdycHNApGzKnJtFIh2TQ&cb_client=search.gws-prod.gps&w=408&h=240&yaw=312.96707&pitch=0&thumbfov=100,1.0,0,2025-05-29T00:49:00.438Z,tienda
New Life,Tienda de ropa,,Av. San Martín 428,,Rauch,Provincia de Buenos Aires,-36.7766036,-59.0905973,,50,https://streetviewpixels-pa.googleapis.com/v1/thumbnail?panoid=PeqfXPhew_LAG4an_9kZ1A&cb_client=search.gws-prod.gps&w=408&h=240&yaw=141.1252&pitch=0&thumbfov=100,1.0,0,2025-05-29T00:49:00.438Z,tienda
MINIMERCADO MIGUEL,Tienda de alimentación,,,,Rauch,Provincia de Buenos Aires,-36.7717934,-59.0918148,,51,https://streetviewpixels-pa.googleapis.com/v1/thumbnail?panoid=tZTe6kKKZ9FIXlLvTcdmuQ&cb_client=search.gws-prod.gps&w=408&h=240&yaw=148.82542&pitch=0&thumbfov=100,1.0,0,2025-05-29T00:49:00.438Z,tienda
Tiempo Libre,Tienda de ropa de deportes,,Garralda 443,,Rauch,Provincia de Buenos Aires,-36.7752447,-59.0919673,4.5,52,https://lh3.googleusercontent.com/gps-cs-s/AC9h4noCQBJaGiOLQn3ZXGlcaj5JxzN26mytZ65fll7Qmt0_I9PWe2o0dPpY5sE5VDTPuH_vxr3BTleRR887rizVUwuiAzF15rcEanRDlPQc3tScGMjxTWzPcxL7iw1pmTok-sux4YfKWQ=w408-h725-k-no,11.0,8,2025-05-29T00:49:00.438Z,tienda
Yo Lo Vi Primero,Tienda de ropa,https://www.instagram.com/yoloviprimero_?igsh=MXRueDUzMTgwMHp3bw%3D%3D&utm_source=qr,Bolívar 6,,Rauch,Provincia de Buenos Aires,-36.7754361,-59.0890733,4.5,53,https://streetviewpixels-pa.googleapis.com/v1/thumbnail?panoid=Fmip-yVbaH6W2yZ0WZ2f-g&cb_client=search.gws-prod.gps&w=408&h=240&yaw=244.47545&pitch=0&thumbfov=100,1.0,2,2025-05-29T00:49:00.438Z,tienda
Sil & D Frutas Verduras,Tienda de alimentación,,,,Rauch,Provincia de Buenos Aires,-36.7772574,-59.0940271,,54,https://streetviewpixels-pa.googleapis.com/v1/thumbnail?panoid=7qznppOxBqAPXDnxtaC0aQ&cb_client=search.gws-prod.gps&w=408&h=240&yaw=149.40356&pitch=0&thumbfov=100,1.0,0,2025-05-29T00:49:00.438Z,tienda
Tiza Jeans,Tienda de ropa,,"AQA, Cnel. Suárez 35 Sur",+54 2297 44-0511,Rauch,Provincia de Buenos Aires,-36.7760996,-59.089624,5.0,55,https://streetviewpixels-pa.googleapis.com/v1/thumbnail?panoid=WipglpIXD5E1n-uPoAAk9g&cb_client=search.gws-prod.gps&w=408&h=240&yaw=53.734184&pitch=0&thumbfov=100,1.0,2,2025-05-29T00:49:00.438Z,tienda
ATREVIDAS,Tienda de ropa,,Alberti 120,,Rauch,Provincia de Buenos Aires,-36.7777983,-59.0897241,,56,https://streetviewpixels-pa.googleapis.com/v1/thumbnail?panoid=joe3CN19WQ489uTxntOYrA&cb_client=search.gws-prod.gps&w=408&h=240&yaw=231.27626&pitch=0&thumbfov=100,1.0,0,2025-05-29T00:49:00.438Z,tienda
LINA LAN,Tienda de ropa,,Cnel. Suárez 54,,Rauch,Provincia de Buenos Aires,-36.7763534,-59.0897475,,57,https://streetviewpixels-pa.googleapis.com/v1/thumbnail?panoid=vDLhdoVMqoMrG3OylU0igQ&cb_client=search.gws-prod.gps&w=408&h=240&yaw=209.23857&pitch=0&thumbfov=100,1.0,0,2025-05-29T00:49:00.438Z,tienda
Mercadito Natural,Tienda de alimentos naturales,,Av. San Martín 574,,Rauch,Provincia de Buenos Aires,-36.7755003,-59.0892895,,58,https://streetviewpixels-pa.googleapis.com/v1/thumbnail?panoid=ZA0C4HnrYyJpHrgAYqPNPw&cb_client=search.gws-prod.gps&w=408&h=240&yaw=140.73701&pitch=0&thumbfov=100,1.0,0,2025-05-29T00:49:00.438Z,tienda
Frutas Don Jorge,Tienda de alimentación,,Av. Pres. Juan Domingo Perón,,Rauch,Provincia de Buenos Aires,-36.7722847,-59.0907585,,59,https://streetviewpixels-pa.googleapis.com/v1/thumbnail?panoid=OZPvM_Ix_c9g83kwrGSdYw&cb_client=search.gws-prod.gps&w=408&h=240&yaw=20.799625&pitch=0&thumbfov=100,1.0,0,2025-05-29T00:49:00.438Z,tienda
Perfumeria Santa Rosa,Tienda de ropa,,Av. San Martín 341,+54 2297 44-3696,Rauch,Provincia de Buenos Aires,-36.7768972,-59.0917087,,61,https://streetviewpixels-pa.googleapis.com/v1/thumbnail?panoid=3hZdJwzUq_nD9Cq68AoExQ&cb_client=search.gws-prod.gps&w=408&h=240&yaw=318.82248&pitch=0&thumbfov=100,1.0,0,2025-05-29T00:49:01.412Z,tienda
Giatti - Fabrica de Pastas,Comercio,,Av. San Martín 346,+54 2297 44-2526,BPQ,Provincia de Buenos Aires,-36.7770646,-59.0914036,4.7,62,https://streetviewpixels-pa.googleapis.com/v1/thumbnail?panoid=JmYRWtgfpTdt7ueov35plA&cb_client=search.gws-prod.gps&w=408&h=240&yaw=122.32245&pitch=0&thumbfov=100,1.0,7,2025-05-29T00:49:01.412Z,tienda
DISTRIBUIDORA JE,Papelería,https://www.instagram.com/je_distribuidorapapelera?igsh=MWtseTJ0OWd1OTl5bg==,"Alberti, Almte. Brown y",+54 249 457-5928,Rauch,Provincia de Buenos Aires,-36.774911,-59.089796,5.0,63,https://lh3.googleusercontent.com/p/AF1QipOwm6HsMPM9b0RjIBnmu-gqlAee2731LWx6026g=w408-h408-k-no,38.0,3,2025-05-29T00:49:01.412Z,tienda
BRILLOS,Tienda de artículos para el hogar,,Garralda 556,,Rauch,Provincia de Buenos Aires,-36.7746114,-59.0907903,4.5,64,https://streetviewpixels-pa.googleapis.com/v1/thumbnail?panoid=GKHXmSl-9_7rQj4WLy2q0w&cb_client=search.gws-prod.gps&w=408&h=240&yaw=141.65654&pitch=0&thumbfov=100,1.0,2,2025-05-29T00:49:01.412Z,tienda
MODA Kyara,Tienda de ropa,,Cnel. Suárez 72,,Rauch,Provincia de Buenos Aires,-36.7764573,-59.0891718,,65,https://streetviewpixels-pa.googleapis.com/v1/thumbnail?panoid=5cBxTGgREGnCSItuYRRy4A&cb_client=search.gws-prod.gps&w=408&h=240&yaw=46.046406&pitch=0&thumbfov=100,1.0,0,2025-05-29T00:49:01.412Z,tienda
Miwok,Tienda de ropa del Oeste,http://miwok.com.ar/,9 de Julio 140,,ABD,Provincia de Buenos Aires,-36.77594,-59.0935989,5.0,66,https://streetviewpixels-pa.googleapis.com/v1/thumbnail?panoid=dHMW6F91b73LWgA3VsKznw&cb_client=search.gws-prod.gps&w=408&h=240&yaw=46.02386&pitch=0&thumbfov=100,1.0,3,2025-05-29T00:49:01.412Z,tienda
Barrilete Cosmico,Tienda de ropa,,Garralda 487,,Rauch,Provincia de Buenos Aires,-36.7748839,-59.091671,,67,https://streetviewpixels-pa.googleapis.com/v1/thumbnail?panoid=FpIiu0qSFXGHvXUBvQ9xHg&cb_client=search.gws-prod.gps&w=408&h=240&yaw=323.61563&pitch=0&thumbfov=100,1.0,0,2025-05-29T00:49:01.412Z,tienda
Casa Moda,Tienda de accesorios de moda,,Domingo Faustino Sarmiento 50,+54 9 2268 51-9913,Rauch,Provincia de Buenos Aires,-36.7760684,-59.0916189,4.5,69,https://lh3.googleusercontent.com/gps-cs-s/AC9h4nrRufNvh-ZB54kZJx9-J5DwRgIukeh3LSK7EjU1tlyVgs-duFDarmB0tNyUZ8JctRxTKLUlxFj0VUXxUhJ66EiaLc9H9y-WAt_-9p-DiJFq39es6qBtD36vfqg6E2A23O8P6RNoXw=w408-h725-k-no,3.0,6,2025-05-29T00:49:01.412Z,tienda
Lebau,Tienda de ropa,,Av. San Martín 559,,Rauch,Provincia de Buenos Aires,-36.7753235,-59.0896631,,70,https://streetviewpixels-pa.googleapis.com/v1/thumbnail?panoid=c2Ui349u2QxmpfFsC9X7oQ&cb_client=search.gws-prod.gps&w=408&h=240&yaw=307.65448&pitch=0&thumbfov=100,1.0,0,2025-05-29T00:49:01.412Z,tienda
Estilo y Modas Mariana,Tienda de ropa,,Larrea,,Rauch,Provincia de Buenos Aires,-36.7776102,-59.0914579,,71,https://streetviewpixels-pa.googleapis.com/v1/thumbnail?panoid=UHP0DPt8NDo7sR7LLKVrpw&cb_client=search.gws-prod.gps&w=408&h=240&yaw=30.972017&pitch=0&thumbfov=100,1.0,0,2025-05-29T00:49:01.412Z,tienda
Eco Marker,Tienda de alimentos naturales,https://instagram.com/ecomarketrauch?utm_medium=copy_link,Av. San Martín 292,+54 249 469-4781,Rauch,Provincia de Buenos Aires,-36.7775281,-59.0918931,4.7,73,https://lh3.googleusercontent.com/p/AF1QipNHkuA_sCv3VkV00mLHK8Z__U_MpIMaf2S_v8Uv=w408-h725-k-no,10.0,3,2025-05-29T00:49:01.412Z,tienda
Voilà,Tienda de artículos para el hogar,,Domingo Faustino Sarmiento 159,,BQC,Provincia de Buenos Aires,-36.7750352,-59.0929525,4.6,74,https://streetviewpixels-pa.googleapis.com/v1/thumbnail?panoid=h_5lBa7XsXoKbDT_NjIdmQ&cb_client=search.gws-prod.gps&w=408&h=240&yaw=90.217224&pitch=0&thumbfov=100,2.0,13,2025-05-29T00:49:01.412Z,tienda
La Elegancia Directo De Fábrica,Tienda de ropa,,Cnel. Suárez 27,,Rauch,Provincia de Buenos Aires,-36.7760349,-59.0898204,,76,https://streetviewpixels-pa.googleapis.com/v1/thumbnail?panoid=Ug_vbqvvkqmyYfaraH5xmQ&cb_client=search.gws-prod.gps&w=408&h=240&yaw=350.2616&pitch=0&thumbfov=100,1.0,0,2025-05-29T00:49:01.413Z,tienda
Fedra Moda Unisex,Tienda de ropa,,Cnel. Suárez 47,,Rauch,Provincia de Buenos Aires,-36.7762465,-59.089567,,77,https://streetviewpixels-pa.googleapis.com/v1/thumbnail?panoid=4k-Ox735au3XimC-XYm87Q&cb_client=search.gws-prod.gps&w=408&h=240&yaw=11.974851&pitch=0&thumbfov=100,1.0,0,2025-05-29T00:49:01.413Z,tienda
Coop. Agrop. E Ind. de Rauch,Supermercado,,"ASE, Garralda 223",+54 2297 44-2511,Rauch,Provincia de Buenos Aires,-36.7768834,-59.0939173,4.5,78,https://lh3.googleusercontent.com/gps-cs-s/AC9h4nrXMj772gDapI3z2V7XeKWzY8K3pMc9n1i7axZ7hOybVbswxdUQ7XO0O3RuZ1wEoEngnazQWkD6U-HUXA6dGUAGeeyiTIxWuM4hqnqA53P48qY82qe6PYXRfA65iAvgePh5FLg=w408-h544-k-no,16.0,282,2025-05-29T00:49:01.413Z,tienda
Casa Jonas,Tienda de ropa,,"ACA, Alberti 5",+54 2297 44-3808,Rauch,Provincia de Buenos Aires,-36.7766398,-59.0908948,,79,https://streetviewpixels-pa.googleapis.com/v1/thumbnail?panoid=xu6RYqwfTQmzHL8S6yliYg&cb_client=search.gws-prod.gps&w=408&h=240&yaw=36.838287&pitch=0&thumbfov=100,1.0,0,2025-05-29T00:49:01.413Z,tienda
Rebelde's Unban Kids,Tienda de ropa,,Cnel. Suárez 60,,Rauch,Provincia de Buenos Aires,-36.7764136,-59.0896551,,80,https://streetviewpixels-pa.googleapis.com/v1/thumbnail?panoid=EwUf7AgYO7nFit2GoWyMuQ&cb_client=search.gws-prod.gps&w=408&h=240&yaw=239.82782&pitch=0&thumbfov=100,1.0,0,2025-05-29T00:49:01.413Z,tienda
Esencias perfumeria,Perfumería,https://www.facebook.com/esenciasperfumeriarauch/,Moreno 546,+54 9 249 447-8000,Rauch,Provincia de Buenos Aires,-36.7774878,-59.0873533,4.8,26,https://lh3.googleusercontent.com/p/AF1QipNNWYKb2jngb41HS4rf6e8238TUHwl7BzoQt4tT=w408-h306-k-no,11.0,55,2025-05-29T00:49:01.646Z,tienda
Mercado Guillenea,Supermercado,,"B7203BEI BEI Rauch Buenos Aires AR, Olavarría 401-499",,Rauch,Provincia de Buenos Aires,-36.7772782,-59.082597,3.9,35,https://lh3.googleusercontent.com/gps-cs-s/AC9h4npB5Ocn7IXDofYYHQp42ixpicBn2qP2nslOI2sdjwvS9lRKXP9uhWACfQmgMW5Az3-fuUvKaLmeZoRDrNfJrQ0BDpSnRzBz8lVdQyDba77xZI28rUhFp83rNsrGJEy1wkxnj7Vr=w408-h544-k-no,21.0,54,2025-05-29T00:49:01.647Z,tienda
Minimercado S&M,Tienda de alimentación,,Pueyrredón 316,,Rauch,Provincia de Buenos Aires,-36.7757889,-59.0826393,,37,https://streetviewpixels-pa.googleapis.com/v1/thumbnail?panoid=SUldH35pT-lYc8k-e1l-aw&cb_client=search.gws-prod.gps&w=408&h=240&yaw=61.15333&pitch=0&thumbfov=100,1.0,0,2025-05-29T00:49:01.647Z,tienda
Aldea,Tienda de ropa infantil,,Cnel. Suárez 183,+54 249 456-5434,Rauch,Provincia de Buenos Aires,-36.7774632,-59.0877593,,39,https://lh3.googleusercontent.com/p/AF1QipMKt_8tGaRB5_2x61J1msXFfRmt_uywPq5b-cK2=w408-h408-k-no,22.0,0,2025-05-29T00:49:01.647Z,tienda
MEGACOMPRAS Rauch,Comercio,,Cnel. Suárez 155,,Rauch,Provincia de Buenos Aires,-36.7772504,-59.0882878,,81,https://lh3.googleusercontent.com/gps-cs-s/AC9h4nq6PzCTa3ZHH_GrPdENndkUYYlNT72ffCjPPXjvIApH3fuGlSxU_7OkhCyjcgJzSwOCMtln1CJisJxApYA8DAKwxFOvVbbjwv7s5mQ0ZhiGGLekyw50QE-BpXmuLB8gdCkuCV8=w408-h306-k-no,2.0,0,2025-05-29T00:49:02.284Z,tienda
Belier,Tienda de ropa infantil,,Garralda 381,+54 221 547-5696,Rauch,Provincia de Buenos Aires,-36.7757387,-59.092508,5.0,82,https://lh3.googleusercontent.com/p/AF1QipMWqkkaLIFF1JMSKlfUSMVnQiQHfb6wiaNQUzVR=w408-h408-k-no,9.0,1,2025-05-29T00:49:02.284Z,tienda
Casa Sampietro,Tienda de electrodomésticos,https://sampietroweb.com/,Av. San Martín 390,+54 2297 44-3812,BPQ,Provincia de Buenos Aires,-36.776697,-59.0910613,4.7,83,https://streetviewpixels-pa.googleapis.com/v1/thumbnail?panoid=-6zfmVdoJ22QcU2JKNuY7g&cb_client=search.gws-prod.gps&w=408&h=240&yaw=84.02131&pitch=0&thumbfov=100,1.0,11,2025-05-29T00:49:02.284Z,tienda
Impulso,Tienda de deportes,,Cnel. Suárez 78,,Rauch,Provincia de Buenos Aires,-36.776647,-59.0893811,,85,https://streetviewpixels-pa.googleapis.com/v1/thumbnail?panoid=5cBxTGgREGnCSItuYRRy4A&cb_client=search.gws-prod.gps&w=408&h=240&yaw=218.62764&pitch=0&thumbfov=100,1.0,0,2025-05-29T00:49:02.284Z,tienda
Vaqueria Ruben,Tienda de ropa,,Alem,,Rauch,Provincia de Buenos Aires,-36.7749199,-59.0915658,,86,https://streetviewpixels-pa.googleapis.com/v1/thumbnail?panoid=iEsRx06PoOnzLAQOHmBRKw&cb_client=search.gws-prod.gps&w=408&h=240&yaw=237.22476&pitch=0&thumbfov=100,1.0,0,2025-05-29T00:49:02.284Z,tienda
Pinturerias Falabella,Tienda de pinturas,,A del Valle y Garralda,+54 2297 44-3512,Rauch,Provincia de Buenos Aires,-36.7764327,-59.0929682,4.5,87,https://lh3.googleusercontent.com/gps-cs-s/AC9h4npsKddpKeLmUyWzmr2kkvP3OXZh1rbQN1gwU7cH2UNO8JxL6pNvF7LhkBmkG_prMzi5vOI2tmpV9XQa6XBEnvIS4tk5yK9uGLvFl83CTFNZf_CQx_LIMlAvaKn_TZ9OLGjHCqPO2A=w408-h544-k-no,3.0,14,2025-05-29T00:49:02.284Z,tienda
Ramon J Carrizo,Panadería,,Alem 96,+54 2297 44-3598,ADB,Provincia de Buenos Aires,-36.774938,-59.0912326,4.8,88,https://streetviewpixels-pa.googleapis.com/v1/thumbnail?panoid=PiEroBVgIuyOvmoip46SXQ&cb_client=search.gws-prod.gps&w=408&h=240&yaw=63.76224&pitch=0&thumbfov=100,1.0,8,2025-05-29T00:49:02.284Z,tienda
Lácteos Luz Azul,Quesería,https://www.luz-azul.com.ar/,Aristóbulo del Valle 148,+54 249 405-2399,Rauch,Provincia de Buenos Aires,-36.7736877,-59.0909933,4.7,90,https://lh3.googleusercontent.com/p/AF1QipO0bxGFuGhV1up9YscJS7KGq48djfxhXs9PxYnc=w408-h306-k-no,23.0,7,2025-05-29T00:49:02.285Z,tienda
Visual Center,Comercio,,Letamendi 417,,Rauch,Provincia de Buenos Aires,-36.7773161,-59.0898046,,92,https://streetviewpixels-pa.googleapis.com/v1/thumbnail?panoid=oSoY_oNEEMUT9JCnEA6BOA&cb_client=search.gws-prod.gps&w=408&h=240&yaw=292.58057&pitch=0&thumbfov=100,1.0,0,2025-05-29T00:49:02.285Z,tienda
PORTSAID Rauch,Tienda de ropa,,Garralda 625,+54 249 456-0936,Rauch,Provincia de Buenos Aires,-36.7738923,-59.090326,,93,https://lh3.googleusercontent.com/p/AF1QipOVPP9N1qbbWqJK5KwZd7gosTyLbyZdfeS6YmKu=w408-h408-k-no,5.0,0,2025-05-29T00:49:02.285Z,tienda
Floreria primavera,Floristería,,Letamendi 527,+54 9 249 427-6313,Rauch,Provincia de Buenos Aires,-36.7764488,-59.088753,4.9,94,https://lh3.googleusercontent.com/p/AF1QipPXI0uu_mIXWxI2NwZ7mox37R2FvSym3DOxgrrp=w408-h306-k-no,23.0,9,2025-05-29T00:49:02.285Z,tienda
Canela Pintureria Rauch,Tienda de pinturas,https://canelapinturerias.com.ar/,Cnel. Suárez 2,+54 2257 40-3613,Rauch,Provincia de Buenos Aires,-36.7758908,-59.0899604,5.0,95,https://lh3.googleusercontent.com/p/AF1QipMc3A03v7eZRBxNdHNQVAiTyR3nSS8Kvo_-_wdP=w408-h725-k-no,3.0,7,2025-05-29T00:49:02.285Z,tienda
acsa comunicaciones,Tienda de móviles,,Cnel. Suárez 57,+54 249 401-3000,Rauch,Provincia de Buenos Aires,-36.7762959,-59.089319,5.0,96,https://lh3.googleusercontent.com/gps-cs-s/AC9h4nrt2dXApWpiQzjvkBgYrFrq9dCrZ0BecW_mX__WDnLjgvV_ZMs6zia_TU3dh1hnhiFMGXCq7cMyfhrgn55pm0oeAWn1ogmddloev5m04MCsPYalSRC0uON_F-KsLaa5rEEkxOz7=w408-h439-k-no,8.0,1,2025-05-29T00:49:02.285Z,tienda
Amar Asociacion Mutual Jub Y Pens,Comercio,,Av. San Martín 360,+54 2297 44-2470,BPQ,Provincia de Buenos Aires,-36.776961,-59.0912775,5.0,97,https://lh3.googleusercontent.com/gps-cs-s/AC9h4no4Wpdu4TRoEl06AOczzpMpAppQErMyXM5VZvtl3fidHS6qGyf2lgRQvHuQVYYAIpzCodU9CYvFO-QLJs670dd9yGt1QZYmT02_gAidJBCL3RmGlKQtGLZnnrsSlyLG87cbmZ6L9A=w408-h306-k-no,4.0,4,2025-05-29T00:49:02.285Z,tienda
Panaderìa El Nuevo Gusto,Panadería,,Alem 92,,ADB,Provincia de Buenos Aires,-36.7749378,-59.0912204,4.5,98,https://lh3.googleusercontent.com/gps-cs-s/AC9h4nrEESCW6JYQgcKuQrL8nGW9kjMD9wfBb4i2zuYNeBogPLasXqq2R3wVtl9b94fBbx5X0PRKM50UYlBWSiirlH-IgKbZPYPUzCwmZtgUcoxP1jQDGA2AcwgOt9yXMV9ggHUeH6r7=w408-h725-k-no,4.0,15,2025-05-29T00:49:02.285Z,tienda
Doña Luisa,Pastelería,,Av. Alvear 278,+54 249 433-8898,Rauch,Provincia de Buenos Aires,-36.7719077,-59.0992258,5.0,99,https://lh3.googleusercontent.com/p/AF1QipNiHssKb9GB0JnkHGlbrD3G9glm1ryTW0LD3AVN=w408-h725-k-no,10.0,1,2025-05-29T00:49:02.285Z,tienda
Grido helado,Heladería,https://argentina.gridohelado.com/,Bolívar 46,+54 2297 44-3704,Rauch,Provincia de Buenos Aires,-36.7757241,-59.0888569,4.3,100,https://lh3.googleusercontent.com/p/AF1QipN8YEdcgGpoTVVFg0ApXdqsKyCJgxvtyJ1s6o9g=w408-h544-k-no,15.0,121,2025-05-29T00:49:02.285Z,tienda
Mercat Rauch,Tienda de vinos,https://www.instagram.com/mercatrauch/,"Moreno, Bolívar y",+54 249 431-4555,Rauch,Provincia de Buenos Aires,-36.7770101,-59.0870855,4.9,46,https://lh3.googleusercontent.com/p/AF1QipPVQAy3nJnjqkfW46mBC494W_le2jXM0iy6YWa3=w408-h725-k-no,1089.0,29,2025-05-29T00:49:02.527Z,tienda
Panaderia Modelo,Panadería,,Av. Belgrano 202,+54 2297 44-3029,Rauch,Provincia de Buenos Aires,-36.7764192,-59.0860392,4.9,52,https://streetviewpixels-pa.googleapis.com/v1/thumbnail?panoid=WXhA8hEeLh6sCvIIEol9vw&cb_client=search.gws-prod.gps&w=408&h=240&yaw=211.80467&pitch=0&thumbfov=100,2.0,16,2025-05-29T00:49:02.528Z,tienda
La Granja de Los Mellis,Tienda general,,Av. San Martín 895,,Rauch,Provincia de Buenos Aires,-36.772852,-59.086725,,54,https://streetviewpixels-pa.googleapis.com/v1/thumbnail?panoid=60OHXyUkwCXm_-9tfP7Slw&cb_client=search.gws-prod.gps&w=408&h=240&yaw=321.01495&pitch=0&thumbfov=100,1.0,0,2025-05-29T00:49:02.528Z,tienda
Upa Mamá,Tienda de ropa para bebés,,"Bolívar 299-201, B7203AKG",+54 2297 44-3878,AKG,Provincia de Buenos Aires,-36.7770228,-59.0870803,5.0,55,https://lh3.googleusercontent.com/gps-cs-s/AC9h4no1ob-p2H5BM8_ozrtSL-l9PmtuO1PWnF9oTl_wyEmL9WEXhWcRq4noYZMv26ku2gBNiJLymq0jYNgZTjTVrIbrqHm-Gh6zRHXJ4BF1DcunXfxfl6-1M96LXUTxYy9X2517to3Y=w412-h240-k-no,3.0,1,2025-05-29T00:49:02.528Z,tienda
Panaderías - Pastelerías Del Sol,Panadería,,25 de Mayo,,Rauch,Provincia de Buenos Aires,-36.7771246,-59.0942206,,102,https://streetviewpixels-pa.googleapis.com/v1/thumbnail?panoid=RCM1ucNLUdFmRB4d0Zsq7g&cb_client=search.gws-prod.gps&w=408&h=240&yaw=202.21582&pitch=0&thumbfov=100,1.0,0,2025-05-29T00:49:03.168Z,tienda
Frefa Fundacion Rauch Errad Fiebre Aftos,Comercio,,"ACA, Alberti 37",+54 2297 44-3016,Rauch,Provincia de Buenos Aires,-36.776933,-59.0905406,4.0,103,https://streetviewpixels-pa.googleapis.com/v1/thumbnail?panoid=b0axRtfu5D3siCxlLtvzIw&cb_client=search.gws-prod.gps&w=408&h=240&yaw=68.743416&pitch=0&thumbfov=100,1.0,1,2025-05-29T00:49:03.168Z,tienda
POLLERÍA Male,Carnicería,,Saavedra,,Rauch,Provincia de Buenos Aires,-36.7716475,-59.092008,,104,https://streetviewpixels-pa.googleapis.com/v1/thumbnail?panoid=tZTe6kKKZ9FIXlLvTcdmuQ&cb_client=search.gws-prod.gps&w=408&h=240&yaw=290.65128&pitch=0&thumbfov=100,1.0,0,2025-05-29T00:49:03.168Z,tienda
Panaderia Larrañaga,Panadería,,25 de Mayo,+54 2297 44-3305,Rauch,Provincia de Buenos Aires,-36.7753152,-59.0962288,4.3,105,https://lh3.googleusercontent.com/gps-cs-s/AC9h4nrFbl4nPQfewdqycZswWnWbhGIZQWjRtUlJEEw-zRxmON9tQQqotnjkrdkE37d2EmztFULmE8KhWCrfzb1QylUH-TN_G6CLvncrpoQ4OQkXTwMZPBUC9tdhMHgSISeNEi54Vbfi=w408-h408-k-no,5.0,35,2025-05-29T00:49:03.168Z,tienda
Heladería Bariloche,Heladería,https://www.facebook.com/barilocheheladoscafe/,Av. San Martín 240,+54 2297 44-2249,BPP,Provincia de Buenos Aires,-36.7779822,-59.092505,4.6,106,https://lh3.googleusercontent.com/gps-cs-s/AC9h4nocXzZrarT1g4_ZcAWaN98yUZSnwWtnE7P9mIczuxEvijP_dt12z-lbBf2TYVb8pTNnmi2_8_nXfXZnYW5IOg8gQm4-DiR3B7Sd9sxtNyGqVqmmZmLpochkJBTc9jr1SDjFQWfF=w493-h240-k-no,127.0,592,2025-05-29T00:49:03.168Z,tienda
"Impacto Digital, Soluciones Informáticas y Digitales",,,Av. San Martín 419,+54 249 421-8587,Rauch,Provincia de Buenos Aires,-36.776353,-59.090975,4.8,107,https://lh3.googleusercontent.com/gps-cs-s/AC9h4npzWIajrRQM4bdt99hb3bFRew64tZ6VBIrJ1XvEcD68SwFXmmin62pNDm4_wCED03s7NnSF-lHA51_6l38fIZwRjQEz6PJqHYuugkm3vl-VYMz8X6LpVB-s3PZsfz4VJ4-H9svG6A=w408-h305-k-no,204.0,5,2025-05-29T00:49:03.168Z,tienda
MUEBLE MITRE,Tienda de muebles,,Letamendi 425,,Rauch,Provincia de Buenos Aires,-36.7772737,-59.089676,,108,https://streetviewpixels-pa.googleapis.com/v1/thumbnail?panoid=oSoY_oNEEMUT9JCnEA6BOA&cb_client=search.gws-prod.gps&w=408&h=240&yaw=348.12253&pitch=0&thumbfov=100,1.0,0,2025-05-29T00:49:03.168Z,tienda
FEDOR LIBROS,Librería,,Cnel. Suárez,,Rauch,Provincia de Buenos Aires,-36.7759105,-59.0899511,,110,https://streetviewpixels-pa.googleapis.com/v1/thumbnail?panoid=wdUQ4oEcKQ2hqC56NY3Dwg&cb_client=search.gws-prod.gps&w=408&h=240&yaw=57.8185&pitch=0&thumbfov=100,1.0,0,2025-05-29T00:49:03.168Z,tienda
La Mere Michelle - Fábrica de Conservas,Fábrica de conservas,http://www.lameremichelle.com.ar/,Av H Yrigoyen 601,+54 2297 44-2547,Rauch,Provincia de Buenos Aires,-36.7732825,-59.1008382,4.7,111,https://lh3.googleusercontent.com/p/AF1QipPX0efyqVhDpY3gXO42_VEw1sn_vXjKC4LCkfRo=w426-h240-k-no,16.0,62,2025-05-29T00:49:03.168Z,tienda
Amancay Laneria,Mercería,http://amancay12.mitiendanube.com/,Av. San Martín 448 B7203BPR,+54 2281 42-9070,Rauch,Provincia de Buenos Aires,-36.7763179,-59.090467,,112,https://lh3.googleusercontent.com/p/AF1QipOdFe84rF76LAtWu2yaMF9qb9OylPe5Q53uYBVj=w408-h544-k-no,114.0,0,2025-05-29T00:49:03.169Z,tienda
POLLERIA ANGELITA,Carnicería,,Domingo Faustino Sarmiento 301,,Rauch,Provincia de Buenos Aires,-36.773834,-59.0947507,,113,https://streetviewpixels-pa.googleapis.com/v1/thumbnail?panoid=wKRqMN6C8ROQnykAkfYkFg&cb_client=search.gws-prod.gps&w=408&h=240&yaw=239.6403&pitch=0&thumbfov=100,1.0,0,2025-05-29T00:49:03.169Z,tienda
JM Limpieza,Tienda de artículos para el hogar,,Aristóbulo del Valle 155 7203,+54 249 435-4105,Rauch,Provincia de Buenos Aires,-36.7736551,-59.0910293,4.3,114,https://lh3.googleusercontent.com/p/AF1QipMfuf786OeK2indUemObDodP9qiZRd0H6jkCcpL=w480-h240-k-no,3.0,4,2025-05-29T00:49:03.169Z,tienda
Vidrieria Bi-Da,Tienda de cristales,,Av. Yrigoyen 99 1,,Rauch,Provincia de Buenos Aires,-36.7779567,-59.0949883,4.3,115,https://streetviewpixels-pa.googleapis.com/v1/thumbnail?panoid=25xHEE2sHn7IkKi10wk10g&cb_client=search.gws-prod.gps&w=408&h=240&yaw=249.65056&pitch=0&thumbfov=100,1.0,3,2025-05-29T00:49:03.169Z,tienda
Souto Pinturas,Tienda de pinturas,,Alberti 60,+54 249 402-2917,Rauch,Provincia de Buenos Aires,-36.7773296,-59.0905661,4.6,116,https://lh3.googleusercontent.com/p/AF1QipMh7yG7TR0AzY0kQ9ouNFHKMo37Izw-5-VCB-hm=w408-h543-k-no,67.0,48,2025-05-29T00:49:03.169Z,tienda
Arribere Ugarte Y Cia SRL,Comercio,http://www.arribereugarte.com.ar/,"ADA, Alem 21",+54 2297 44-2051,Rauch,Provincia de Buenos Aires,-36.7755872,-59.0904059,4.3,117,https://lh3.googleusercontent.com/p/AF1QipOKdReb0T4d6ZXfTy8abRAqC-r6uKwCeJkKs70Y=w408-h306-k-no,5.0,3,2025-05-29T00:49:03.169Z,tienda
Farmacia Aizpurúa,Farmacia,https://www.facebook.com/105048911277490,Bolívar 78,+54 2297 44-2055,Rauch,Provincia de Buenos Aires,-36.7758996,-59.0882983,4.9,118,https://lh3.googleusercontent.com/p/AF1QipNSRPtypQHtGqJkDMjjxcqnJkrgQAW39VtU9u0=w426-h240-k-no,14.0,8,2025-05-29T00:49:03.169Z,tienda
Sillones Arbolito,Tienda de sofás,http://sillonesarbolito.com.ar/,"San Martin, 9 de Julio esquina",+54 249 448-0548,Rauch,Provincia de Buenos Aires,-36.7772698,-59.0921651,5.0,119,https://lh3.googleusercontent.com/p/AF1QipPCixk-PwFO3ARU05CDAtPTKR4obpuPnd4ntwT1=w408-h414-k-no,47.0,11,2025-05-29T00:49:03.169Z,tienda
Micaela Cabral Fotografía,Tienda de fotografía,https://www.facebook.com/mica.albo.3,A.del Valle 186,+54 249 453-2208,Rauch,Provincia de Buenos Aires,-36.7733512,-59.0913923,,120,https://lh3.googleusercontent.com/p/AF1QipP7keJDswW94SBVBB-Xpt7NMaxOLsikFcBGz2rg=w408-h240-k-no,3.0,0,2025-05-29T00:49:03.169Z,tienda
Panadería La Casona,Panadería,,"Pueyrredón 139, B7203BJC",,Rauch,Provincia de Buenos Aires,-36.7741252,-59.0847697,4.5,80,https://streetviewpixels-pa.googleapis.com/v1/thumbnail?panoid=LrHx15JakktDl5TeuJT2RA&cb_client=search.gws-prod.gps&w=408&h=240&yaw=79.17611&pitch=0&thumbfov=100,1.0,27,2025-05-29T00:49:03.795Z,tienda
Panadería & Cafetería Don Miñon,Panadería,,Bolívar 102,+54 249 420-7069,Rauch,Provincia de Buenos Aires,-36.7762416,-59.0880095,4.6,121,https://lh3.googleusercontent.com/gps-cs-s/AC9h4nrKb83y7JUkMX6R45vtTmJ3KOfhRFLw20kPqoZi2lxwPkO-8kDpUllQ7JnRtEjYHdU1YHJK2Iq99B-PTNsWcjhKSxGzSCNYTTMEBR2yOMo9H1CfjtXxuXKeaTYkprvtOzMHk1BCBQ=w408-h306-k-no,81.0,94,2025-05-29T00:49:04.093Z,tienda
Nikro alarmas y cámaras monitoreadas - RAUCH,Tienda de alarmas antirrobo,http://www.nikro.com.ar/,Av. San Martín 478,+54 810-333-3500,Rauch,Provincia de Buenos Aires,-36.7760926,-59.0901971,,122,https://lh3.googleusercontent.com/p/AF1QipOTmNY_ds1IF05HXqtnux5PeWxytzqjFBzHdpdC=w614-h240-k-no,17.0,0,2025-05-29T00:49:04.094Z,tienda
Panaderia Lombardozzo,Panadería,,"Moreno 499-401, B7203BDI",,Rauch,Provincia de Buenos Aires,-36.7777444,-59.0876812,4.4,94,https://streetviewpixels-pa.googleapis.com/v1/thumbnail?panoid=yqG7NGOoMNUs2WRqFwD9sg&cb_client=search.gws-prod.gps&w=408&h=240&yaw=336.91788&pitch=0&thumbfov=100,1.0,5,2025-05-29T00:49:04.805Z,tienda
SWEET ENERGY Ind.Deportiva Rauch,Tienda de ropa,https://instagram.com/sweet.energy.rauch?igshid=ZmZhODViOGI=,Cnel. Suárez 35,,Rauch,Provincia de Buenos Aires,-36.7760871,-59.0895908,5.0,95,https://lh3.googleusercontent.com/p/AF1QipOco3ai0n7fxtOBikJnTVfANt0c8Ips5yuAt-yL=w426-h240-k-no,19.0,4,2025-05-29T00:49:04.805Z,tienda
Pakanbaru,Tienda de ropa,http://instagram.com/pakanbaru,"BPE, Av. San Martín 407",+54 2297 44-3540,Rauch,Provincia de Buenos Aires,-36.7764112,-59.0910531,,97,https://streetviewpixels-pa.googleapis.com/v1/thumbnail?panoid=p_hlXMxQ-tccfm3owIvJJg&cb_client=search.gws-prod.gps&w=408&h=240&yaw=312.71097&pitch=0&thumbfov=100,1.0,0,2025-05-29T00:49:04.805Z,tienda
calzados vyz,Tienda de botas,,Domingo Faustino Sarmiento 118,+54 249 469-9970,Rauch,Provincia de Buenos Aires,-36.775485,-59.0924766,5.0,99,https://lh3.googleusercontent.com/gps-cs-s/AC9h4npboESFtOZDNfEYqCOcyrm9rxTkMGfybdEJ16sK_2a2YU6dXQfwLhuYiRS__EfXtG9ixlIJTkI_HXEDt-vcuYThdmkrckTD-PBoIQvlZaulWoWDxH37KEnlxshzcL31dTdRmWdrBA=w408-h306-k-no,2.0,1,2025-05-29T00:49:04.805Z,tienda
Bicicleteria Almar,Tienda de bicicletas,,"307, BPD, Av. San Martín",+54 2297 44-2723,Rauch,Provincia de Buenos Aires,-36.7771585,-59.0919625,4.4,100,https://streetviewpixels-pa.googleapis.com/v1/thumbnail?panoid=9OOYlwXyoAqxJVIp9F6c8g&cb_client=search.gws-prod.gps&w=408&h=240&yaw=289.29572&pitch=0&thumbfov=100,1.0,9,2025-05-29T00:49:04.805Z,tienda
ZZELLA HOGAR,Tienda de muebles,,Av. San Martín 555,,Rauch,Provincia de Buenos Aires,-36.7754341,-59.0898565,,101,https://streetviewpixels-pa.googleapis.com/v1/thumbnail?panoid=yNJ0Z5aMpErZsEIIgGxwFQ&cb_client=search.gws-prod.gps&w=408&h=240&yaw=306.13815&pitch=0&thumbfov=100,1.0,0,2025-05-29T00:49:05.655Z,tienda
Luzdeyute,Tienda de iluminación,https://luzdeyute.empretienda.com.ar/,Pellegrini 47,+54 249 456-0381,Rauch,Provincia de Buenos Aires,-36.7718097,-59.0863355,,102,https://streetviewpixels-pa.googleapis.com/v1/thumbnail?panoid=xF3oMnFuxAduyDkKs1Nceg&cb_client=search.gws-prod.gps&w=408&h=240&yaw=240.5958&pitch=0&thumbfov=100,1.0,0,2025-05-29T00:49:05.655Z,tienda
GELSOL JOYERÍA & RELOJERÍA,Joyería,,Cnel. Suárez 72,+54 249 433-5810,Rauch,Provincia de Buenos Aires,-36.7766867,-59.089461,4.7,103,https://lh3.googleusercontent.com/p/AF1QipNagv7Kypww6jnqPWOCL42QOXcTflqwUU30MEjn=w480-h240-k-no,11.0,3,2025-05-29T00:49:05.655Z,tienda
Panadería y pizzeria Pipo,Panadería,,Av. San Martín 857,+54 2297 44-0266,Rauch,Provincia de Buenos Aires,-36.7735833,-59.0874459,4.5,104,https://lh3.googleusercontent.com/gps-cs-s/AC9h4nox4VVkyxsNDMZWudfxOLM8VQ0fDAg3U3JHiHXR--jX3ALyCIN7CvSNv6wARCI-NcudHF3BJ3V_CLL9yAv0f0eUXf64MAxMeYVjFnHG2hOPW2eyV36D6GFHuMoFzKesYuxHwlYCJg=w408-h520-k-no,9.0,28,2025-05-29T00:49:05.655Z,tienda
Insumos Médicos Calidad + Vida,,https://www.instagram.com/insumosmedicoscalidadmasvida?igsh=ZGNjOWZkYTE3MQ==,Av. San Martín 815,,BPI,Provincia de Buenos Aires,-36.7731867,-59.0871405,,115,https://streetviewpixels-pa.googleapis.com/v1/thumbnail?panoid=QSP6cMUmgm303Y5ktvwk6A&cb_client=search.gws-prod.gps&w=408&h=240&yaw=316.92477&pitch=0&thumbfov=100,1.0,0,2025-05-29T00:49:05.656Z,tienda
María Nieves,Tienda de ropa infantil,http://www.marianieves.com/,Av. San Martín 1078,+54 249 402-2059,Rauch,Provincia de Buenos Aires,-36.7717612,-59.0847286,,118,https://lh3.googleusercontent.com/p/AF1QipMJRof9xkY1uvyk-QIgeoL8FicygX29DPvQ5ePk=w408-h305-k-no,23.0,0,2025-05-29T00:49:05.656Z,tienda
One Market 24 horas,Supermercado,,,+54 249 464-1605,Rauch,Provincia de Buenos Aires,-36.7782408,-59.0836502,4.4,9,https://streetviewpixels-pa.googleapis.com/v1/thumbnail?panoid=8qOAmKRoYG_Po3TjyvWCTQ&cb_client=search.gws-prod.gps&w=408&h=240&yaw=216.60553&pitch=0&thumbfov=100,1.0,71,2025-05-29T00:49:06.605Z,comercio
Minimercado Indiana,Supermercado,,Alberti 294,,ACF,Provincia de Buenos Aires,-36.7792266,-59.0875248,4.8,26,https://streetviewpixels-pa.googleapis.com/v1/thumbnail?panoid=-lh3867tg23vgA9a8F5sRQ&cb_client=search.gws-prod.gps&w=408&h=240&yaw=57.56837&pitch=0&thumbfov=100,1.0,4,2025-05-29T00:49:11.447Z,comercio
"Rotiseria ""La Nueva Don Cipriano""",Tienda de alimentación,,"B7203AQH, Cnel. Suárez 386",+54 9 249 433-8066,AQH,Provincia de Buenos Aires,-36.7793853,-59.0855784,4.7,35,https://lh3.googleusercontent.com/gps-cs-s/AC9h4np6mNDmskHaVydIzUo_9xEjf5lHwjqlrMlBYn_X_xxkjXG2CM8slV9iK7Xf8CK-qcoTpYa_CwaXak_-dx8MvMw8R2gfulgR3-PAwaiqUIpAcbJGgdO7ZMvDQLu5KsaaP7QEwWHC=w408-h741-k-no,57.0,37,2025-05-29T00:49:11.447Z,comercio
Barraca Cremona SRL Compra de Lanas,,,Av. Belgrano 750,+54 2297 44-2973,Rauch,Provincia de Buenos Aires,-36.7813545,-59.0794603,2.3,38,https://streetviewpixels-pa.googleapis.com/v1/thumbnail?panoid=cNKvPHUw9-N4a643LRA_cQ&cb_client=search.gws-prod.gps&w=408&h=240&yaw=189.4758&pitch=0&thumbfov=100,1.0,3,2025-05-29T00:49:11.447Z,comercio
POLLERIA MALE,Tienda de alimentación,,,,Rauch,Provincia de Buenos Aires,-36.7793682,-59.087378,,44,https://streetviewpixels-pa.googleapis.com/v1/thumbnail?panoid=xLBXsrBO1zKLTDm0iX-zyw&cb_client=search.gws-prod.gps&w=408&h=240&yaw=23.782127&pitch=0&thumbfov=100,1.0,0,2025-05-29T00:49:12.532Z,comercio
Las Marias PANADERIA,Panadería,,Alberti,,Rauch,Provincia de Buenos Aires,-36.7799403,-59.0870124,5.0,45,https://streetviewpixels-pa.googleapis.com/v1/thumbnail?panoid=6DsyyagKx9nTKrLhaIX6_A&cb_client=search.gws-prod.gps&w=408&h=240&yaw=205.39278&pitch=0&thumbfov=100,1.0,1,2025-05-29T00:49:12.532Z,comercio
Farmacia Goldriz,Farmacia,,,+54 2297 44-2150,Rauch,Provincia de Buenos Aires,-36.7793873,-59.0877329,4.7,49,https://streetviewpixels-pa.googleapis.com/v1/thumbnail?panoid=jGA2wSXQguT-bk7On_N5hQ&cb_client=search.gws-prod.gps&w=408&h=240&yaw=284.63626&pitch=0&thumbfov=100,1.0,18,2025-05-29T00:49:12.532Z,comercio
Pollería & despensa Arcoiris,Tienda de aves de corral,,Quintana 67,+54 249 420-7828,Rauch,Provincia de Buenos Aires,-36.769961,-59.0845317,5.0,23,https://lh3.googleusercontent.com/gps-cs-s/AC9h4nq4iRzc_wPgA1Sg5CjZUS-zcc74qrRMsFYM4D8QR5BDxO96dZFW1RL7_JFm8y4W_A0PO0Wu6xyJN8HE6Rw6MsbrXSLCCy1dHDySEaKrzMnpiD90qQpEiTl34UalYN3PqdscXs9C=w408-h243-k-no,8.0,1,2025-05-29T00:49:22.398Z,tienda
Despensa Avenida,Tienda de alimentación,,Av. San Martín,,Rauch,Provincia de Buenos Aires,-36.7707922,-59.0841968,,25,https://streetviewpixels-pa.googleapis.com/v1/thumbnail?panoid=WDubub4J8hq61CPYFfCMcw&cb_client=search.gws-prod.gps&w=408&h=240&yaw=306.2403&pitch=0&thumbfov=100,1.0,0,2025-05-29T00:49:22.398Z,tienda
Elfrances - Ramos generales,Tienda general,http://elfrances---ramos-generales.webnode.com/,Lavalle 1019,+54 249 432-6535,Rauch,Provincia de Buenos Aires,-36.7709537,-59.0866879,,27,https://lh3.googleusercontent.com/p/AF1QipPbQBevzm75eM_LIqalhpgvqQxjeFTvcCiqr8dn=w408-h408-k-no,2.0,0,2025-05-29T00:49:22.398Z,tienda
Corralón Artigas,Tienda de materiales para la construcción,,"Ruta 30, Brandsen",+54 249 447-6986,Rauch,Provincia de Buenos Aires,-36.767624,-59.085224,4.3,34,https://lh3.googleusercontent.com/p/AF1QipNsqztnxm3NUrRKuJk21JYvNhR7DlgIz-ZM_DMU=w408-h306-k-no,62.0,15,2025-05-29T00:49:22.398Z,tienda
minimerca YABBESET,Tienda de alimentación,,,,Rauch,Provincia de Buenos Aires,-36.7778107,-59.0785332,,25,https://streetviewpixels-pa.googleapis.com/v1/thumbnail?panoid=nISbCaue5rWylfvOqo282w&cb_client=search.gws-prod.gps&w=408&h=240&yaw=153.0823&pitch=0&thumbfov=100,1.0,0,2025-05-29T00:49:23.529Z,tienda
Erro seguridad,Comercio,https://www.facebook.com/mariajose.erro.10?mibextid=ZbWKwL,Av. Belgrano 269,,Rauch,Provincia de Buenos Aires,-36.7768871,-59.0849474,,27,https://streetviewpixels-pa.googleapis.com/v1/thumbnail?panoid=udpA6qpaH21P1vig6_Buwg&cb_client=search.gws-prod.gps&w=408&h=240&yaw=40.721825&pitch=0&thumbfov=100,1.0,0,2025-05-29T00:49:23.529Z,tienda
Placas antihumedad Rauch,Tienda de artículos para el hogar,,Almte. Brown 1315,+54 249 420-7146,Rauch,Provincia de Buenos Aires,-36.7723993,-59.0792796,5.0,30,https://streetviewpixels-pa.googleapis.com/v1/thumbnail?panoid=t7m-qrepQJ2zhtE-ygBr5A&cb_client=search.gws-prod.gps&w=408&h=240&yaw=324.873&pitch=0&thumbfov=100,1.0,1,2025-05-29T00:49:23.529Z,tienda
Farmacia Dean,Farmacia,,Av. San Martín 1040,+54 2297 44-2060,BPK,Provincia de Buenos Aires,-36.7719022,-59.0851098,5.0,32,https://streetviewpixels-pa.googleapis.com/v1/thumbnail?panoid=2-_-ePAEnAZENOdLPfCuQg&cb_client=search.gws-prod.gps&w=408&h=240&yaw=113.60271&pitch=0&thumbfov=100,1.0,8,2025-05-29T00:49:23.529Z,tienda
Aceites del Langueyú,Tienda de alimentación,,,,Rauch,Provincia de Buenos Aires,-36.7813912,-59.0626302,4.0,21,https://lh3.googleusercontent.com/gps-cs-s/AC9h4nr2Ch9jLEj8WJx-KbRaysASg3xZLTgZlEX_RTFvfnoy0NvGGdXBNz-8S1a3Ts9TrM6v8Z0JP3RDhbGwQJAG35fplsntXuCmqtcmKRT_Kt7bm3vICAinOs5hyyllVOArh_aWg6C-og=w408-h725-k-no,3.0,9,2025-05-29T00:49:46.975Z,tienda
Centro de Servicios paea Elaboradores de Alimentos,Tienda de alimentación,,,,Rauch,Provincia de Buenos Aires,-36.7831642,-59.0627425,3.4,22,,,7,2025-05-29T00:49:46.975Z,tienda
Tecno engorde Raúch s.r.l.,Tienda de alimentos para animales,,Parque industrial,+54 9 249 448-4851,Rauch,Provincia de Buenos Aires,-36.7834717,-59.0646028,4.8,23,https://lh3.googleusercontent.com/gps-cs-s/AC9h4nrKY-zheclYJ_SeuHosesqNlG_OR19S5ro8kwO2LHFAyka9ycQrrE4l5OpHxHAuwOKK8EzWXJv2l91grVuC_Xfg2ylt4PGPst6sLeNUsTJlxVf0iYKtLLiRxQByQT7xMV-pc4lxbQ=w408-h302-k-no,114.0,14,2025-05-29T00:49:46.975Z,tienda
Agronomía El Puente,Ingeniero agrónomo,,"Parque industrial, SIPLA 1",+54 249 448-6345,Rauch,Provincia de Buenos Aires,-36.783305,-59.0603471,5.0,24,https://lh3.googleusercontent.com/p/AF1QipPsj7IKRq255OPztKy6L9QtVhvEx_J7yyxhPkl1=w408-h306-k-no,8.0,2,2025-05-29T00:49:50.398Z,tienda
YPF,Gasolinera,http://www.ypf.com/,Ruta Provincial 30 Km Y Dardo Rocha,+54 2297 44-2442,Rauch,Provincia de Buenos Aires,-36.7637234,-59.089616,4.2,21,https://lh3.googleusercontent.com/gps-cs-s/AC9h4no0mzRNtRkYQWQIujVMKvHkUc1JJD05mftUSU0wZ48ALDny1vbu0R50a9UqDVkbOiB4fhoQIhctj3-s9fpoxg4_itk8nZDXnTCv5-6LqTWx2jZFKNJunlLm3MmgDG8lYLXDnv0=w408-h306-k-no,82.0,970,2025-05-29T00:49:55.795Z,tienda
San Francisco Lavadero,Parada para camiones,,RP30,+54 249 456-2798,Rauch,Provincia de Buenos Aires,-36.7621556,-59.0882796,,23,https://lh3.googleusercontent.com/p/AF1QipOOhBXq3YDfkjC-1ZLiRX6erLZOSuKcf15R2qco=w408-h408-k-no,3.0,0,2025-05-29T00:49:55.795Z,tienda
IVAN DÍAZ MÁQUINAS AGRÍCOLAS,Concesionario de automóviles,,RP30 y acceso a,+54 249 456-3692,Rauch,Provincia de Buenos Aires,-36.7634993,-59.0883009,,24,https://streetviewpixels-pa.googleapis.com/v1/thumbnail?panoid=0-lUw_527pQwqZnKqFA0Dg&cb_client=search.gws-prod.gps&w=408&h=240&yaw=128.47948&pitch=0&thumbfov=100,1.0,0,2025-05-29T00:49:55.795Z,tienda
