title,categoryName,website,street,phone,city,state,location/lat,location/lng,totalScore,rank,imageUrl,imagesCount,reviewsCount,scrapedAt,searchString
Serantes Accesorios,Tienda de repuestos de autom칩viles usados,,Av. Mu침iz 49,+54 2281 46-6108,Benito Ju치rez,Provincia de Buenos Aires,-37.6784356,-59.8006522,4.6,1,https://lh3.googleusercontent.com/gps-cs-s/AC9h4npFTY2xN7TX1mODcm1EARYECZaqbfbY-3MI3RytpUHJF6loC7IhbiCUyElFUMxd5J2Zv26k3KmHA_VO3m1Z5aqzhSjudFP-uvmO7tKx86kJewoiAZCARMCYs8GbwdYI4mvmd4ug=w408-h306-k-no,2.0,66,2025-05-29T00:53:21.747Z,repuestos
Carlos REYNOSO REPUESTOS AGRICOLAS,Tienda de repuestos para coches de carreras,,Av. Mu침iz 251-299,,Benito Ju치rez,Provincia de Buenos Aires,-37.6823028,-59.8057421,4.9,2,https://streetviewpixels-pa.googleapis.com/v1/thumbnail?panoid=vp4kjEzYM-JH0c__-_D-dA&cb_client=search.gws-prod.gps&w=408&h=240&yaw=298.29306&pitch=0&thumbfov=100,1.0,11,2025-05-29T00:53:21.748Z,repuestos
Repuestos lo de migue,Tienda de accesorios para autom칩viles,,San Juan 126,+54 2281 53-2680,Benito Ju치rez,Provincia de Buenos Aires,-37.6724408,-59.8003032,4.6,3,https://lh3.googleusercontent.com/gps-cs-s/AC9h4nrmz7jUNtgpfd0XGzY_UpYU0zb5ZOBcjNqDzodXm_DB4MzITIRQTPiXmfV3FzCxIfHPD2j8QmPHvaeYhANUQzZ_j7cJWhhI1AxfE44tDHay621L3b_LG1JRk06vl_jtBROqlJrI=w408-h544-k-no,4.0,17,2025-05-29T00:53:21.748Z,repuestos
Repuestos Perco,Tienda de repuestos de autom칩viles usados,,Av. Urquiza 41,+54 2281 53-2090,Benito Ju치rez,Provincia de Buenos Aires,-37.6728965,-59.8036928,4.6,4,https://streetviewpixels-pa.googleapis.com/v1/thumbnail?panoid=1nnz39CMBIbhdYJccqcPDA&cb_client=search.gws-prod.gps&w=408&h=240&yaw=123.82189&pitch=0&thumbfov=100,1.0,5,2025-05-29T00:53:21.749Z,repuestos
Acoplados Juarez - Repuestos acoplados y semirremolques,Proveedor de repuestos de carrocer칤a de autom칩viles,https://www.guia-dorada.com.ar/guia/aviso-repuestos-para-acoplados-y-semirremolques-en-benito-juarez-buenos-aires-25514.html,"Ruta Provincial 86, Suipacha y",+54 9 249 463-4600,Benito Ju치rez,Provincia de Buenos Aires,-37.6794468,-59.8186845,5.0,5,https://lh3.googleusercontent.com/gps-cs-s/AC9h4npaK6-Hl_4TBoLBYjTt-RzoZVffvbidNfVAy103iXGp12VL5G7xN41q9i92BhMNXQ6VOnN8WFe0kbaN5htSLeJpemiqPC_GDiygeXUm1ec0Ku8gksQls7JzALgwhitvJ345LY_b=w408-h306-k-no,26.0,2,2025-05-29T00:53:21.749Z,repuestos
M.H. Sanz Repuestos,Tienda de repuestos para autom칩viles,,,,Benito Ju치rez,Provincia de Buenos Aires,-37.6726027,-59.8104677,,6,https://streetviewpixels-pa.googleapis.com/v1/thumbnail?panoid=DOCqR-fZ1nneKNIZ0ZGBBg&cb_client=search.gws-prod.gps&w=408&h=240&yaw=343.599&pitch=0&thumbfov=100,1.0,0,2025-05-29T00:53:21.749Z,repuestos
MD accesorios BJ,Tienda de repuestos para autom칩viles,,Juan Bautista Alberdi 120,,Benito Ju치rez,Provincia de Buenos Aires,-37.6671091,-59.8073864,5.0,7,https://streetviewpixels-pa.googleapis.com/v1/thumbnail?panoid=9RVXcIL9qdnc6Y-KwTsO8A&cb_client=search.gws-prod.gps&w=408&h=240&yaw=316.8743&pitch=0&thumbfov=100,1.0,2,2025-05-29T00:53:21.749Z,repuestos
Repuestos Agricolas De Alberto Daniel Gallardo,,,,,Benito Ju치rez,Provincia de Buenos Aires,-37.6812826,-59.8168047,,8,https://streetviewpixels-pa.googleapis.com/v1/thumbnail?panoid=zfZ23-W1v4dj8Sn6cMzprA&cb_client=search.gws-prod.gps&w=408&h=240&yaw=232.04332&pitch=0&thumbfov=100,1.0,0,2025-05-29T00:53:21.749Z,repuestos
La casa del motor,Tienda de repuestos para autom칩viles,,Rivadavia 201 249,+54 2281 32-4932,Benito Ju치rez,Provincia de Buenos Aires,-37.6765364,-59.8117461,,9,https://streetviewpixels-pa.googleapis.com/v1/thumbnail?panoid=rXzUIF_wHo6oZpxojWbOSg&cb_client=search.gws-prod.gps&w=408&h=240&yaw=149.67026&pitch=0&thumbfov=100,2.0,0,2025-05-29T00:53:21.749Z,repuestos
Casa Merlino,Tienda de electr칩nica,,Av. Libertad 174,+54 2292 45-2079,Benito Ju치rez,Provincia de Buenos Aires,-37.6714364,-59.8077037,4.5,20,https://lh3.googleusercontent.com/gps-cs-s/AC9h4noaWf9RrDE0vpsqDApyiSqYUzdvlVLaH9VcFQO-npV6bCbuluB83HFX4888-nhanSFf5tZeqrTHF9WoEMpmo8oMTHXG2Q3p7MoT5Kqczdpdn1c2fFPabdDCo0Fx8npkd_kmVpCOoA=w408-h725-k-no,11.0,105,2025-05-29T00:53:21.750Z,repuestos
HumuS Servicios Gastron칩micos,Restaurante de comida para llevar,,Av. Constituci칩n 12,+54 2281 30-5045,Benito Ju치rez,Provincia de Buenos Aires,-37.6698504,-59.8098782,5.0,2,https://lh3.googleusercontent.com/gps-cs-s/AC9h4nqCd5m0bhgt0TvBaZx3LRlg5BKDSc3AKDgGvE4g0LfaFSlL3mkqUWDPdsQbiiQBcG3c833QbS8WrwgYNTGqosaCoxp6Ga8HL93YKIs8zn7K4vyP178Y5d2QMvDQmpyltFMCPsol=w426-h240-k-no,4.0,19,2025-05-29T00:53:21.825Z,venta
Polipez,Comercio,http://www.polipez.com.ar/,Av. Uruguay 75,+54 249 455-1387,Benito Ju치rez,Provincia de Buenos Aires,-37.6729732,-59.8019717,4.8,1,https://lh3.googleusercontent.com/p/AF1QipOmHm5a6otCYqwzR9gWNq0j2TGQ--ymAQEKyHe7=w426-h240-k-no,5.0,74,2025-05-29T00:53:23.781Z,comercio
Lo De Vil,Supermercado,,Av. Roque S치enz Pe침a 201-249,+54 2281 58-7429,Benito Ju치rez,Provincia de Buenos Aires,-37.6678542,-59.8049482,4.6,2,https://lh3.googleusercontent.com/p/AF1QipOFQM802ET3o9uX8Xoua8_AlZrj1DZzL2Dsnbfh=w408-h874-k-no,23.0,134,2025-05-29T00:53:23.781Z,comercio
Polipez,Comercio,http://www.polipez.com.ar/,Av. Zabalza 146,+54 2281 46-6009,Benito Ju치rez,Provincia de Buenos Aires,-37.6726039,-59.8085706,4.6,3,https://streetviewpixels-pa.googleapis.com/v1/thumbnail?panoid=tzEZNr76wR4721qwSW2jCQ&cb_client=search.gws-prod.gps&w=408&h=240&yaw=230.97806&pitch=0&thumbfov=100,1.0,57,2025-05-29T00:53:23.781Z,comercio
Lo Ramito,Comercio,,Almte. Brown 226,+54 2281 59-2124,Benito Ju치rez,Provincia de Buenos Aires,-37.6697144,-59.8076846,5.0,4,https://lh3.googleusercontent.com/p/AF1QipOQcLOpg6LVRc_5XaLGPpXO9J3-Tnu-3ejkOB_3=w408-h379-k-no,11.0,3,2025-05-29T00:53:23.781Z,comercio
PASEO DE COMPRAS ALAK,Tienda de ropa,,"B7020AMA, Pumara 49",+54 2292 45-1001,Benito Ju치rez,Provincia de Buenos Aires,-37.6710116,-59.8101753,4.5,5,https://lh3.googleusercontent.com/gps-cs-s/AC9h4nqOb-ePVG1pqYNRzeCJf46LIdkaqeKcnlZJEYW-tTntYRcQQhZBWseqCtzWB4Orv51QG1XdBnZp2_my0kilAn7t7BvxmfoDCkrmixP2ICy3HuwPNGYfBB_iYTIy4OSQCSP-Or6gf-wMC49W=w408-h306-k-no,2.0,24,2025-05-29T00:53:23.781Z,comercio
Supermercado LOS PAQUITOS,Supermercado,,Av. Constituci칩n 165,+54 2284 62-1393,Benito Ju치rez,Provincia de Buenos Aires,-37.6725469,-59.8136506,4.5,6,https://lh3.googleusercontent.com/gps-cs-s/AC9h4nqNQ5V0AcsNDHus8y-4RkaWurfECYl7FqHQE6VVKelwcwavaztcwQUkbj8xEzlRdLxPZiWuyO42UgyAj3Bq68sm3T6kh7k3Oyjt1AhvUbn0a6UhRmmoGi7QzbE20GwYZ7ljUllY=w408-h408-k-no,2.0,157,2025-05-29T00:53:23.781Z,comercio
Quiniela Agencia Casino y Rapipago,Comercio,,Delgiorgiogiuliano@gmail.com,+54 2281 38-6280,Benito Ju치rez,Provincia de Buenos Aires,-37.6726371,-59.808081,4.2,7,https://lh3.googleusercontent.com/p/AF1QipPjbsGyZG_5uf6ez3di1AA2T86lWJcxv99rxxF4=w408-h810-k-no,9.0,10,2025-05-29T00:53:23.781Z,comercio
Carniceria Balay,Comercio,,Av. Uruguay 40,,Benito Ju치rez,Provincia de Buenos Aires,-37.6732675,-59.8031808,4.9,8,https://streetviewpixels-pa.googleapis.com/v1/thumbnail?panoid=XO94Vckt6erDFc6n1yn0VA&cb_client=search.gws-prod.gps&w=408&h=240&yaw=312.25626&pitch=0&thumbfov=100,1.0,16,2025-05-29T00:53:23.781Z,comercio
EL MENDOCINO,Tienda de alimentaci칩n,,Juan Bautista Alberdi 5 B7020BQA,+54 2281 63-3151,Benito Ju치rez,Provincia de Buenos Aires,-37.6694773,-59.8096518,4.8,10,https://streetviewpixels-pa.googleapis.com/v1/thumbnail?panoid=5kIcfM-HF9H0kO3djmbJcQ&cb_client=search.gws-prod.gps&w=408&h=240&yaw=136.16508&pitch=0&thumbfov=100,1.0,4,2025-05-29T00:53:23.781Z,comercio
El Deleite,Cafeter칤a,,Av. Libertad 1-49,+54 2281 58-4757,Benito Ju치rez,Provincia de Buenos Aires,-37.6728757,-59.8055477,4.5,11,https://lh3.googleusercontent.com/gps-cs-s/AC9h4nqvjyPFyy0mBhR6OZGtIcg717dA242dPELsweR-L3wnbpI_FeDjJ1R-ONHr18AZ1n2L3zc7qNSwtr8KR5uFU_OSXuKiujT9oAbA_gZWQNQlY7qYzeY9TKH5UNc9PRw83fy9nK0Glw=w426-h240-k-no,28.0,276,2025-05-29T00:53:23.781Z,comercio
Fabersud S.R.L.,Comercio,,Av. Otamendi 241,+54 2292 45-3029,Benito Ju치rez,Provincia de Buenos Aires,-37.6775244,-59.8019236,4.4,12,https://lh3.googleusercontent.com/gps-cs-s/AC9h4npZ3Bayzp_6PAnrpN6ArBfG6uf5sS_UO8yR5ebre0i6_vqKZqutMiL2FMeEY70M2-u2XVSUo7ENA87je7HsDeu5UrOjEbEgORXMsUCKqUCZzP60LZgHMsduC9GOpdXXn8--ACYN4g=w426-h240-k-no,7.0,17,2025-05-29T00:53:23.782Z,comercio
Ohana Fiambreria y Anexos,Tienda de fiambres,,Zibechi 214,+54 2281 68-0163,Benito Ju치rez,Provincia de Buenos Aires,-37.6688896,-59.8010542,4.8,13,https://streetviewpixels-pa.googleapis.com/v1/thumbnail?panoid=BdhWGRhP9OHKr7rjVngNJg&cb_client=search.gws-prod.gps&w=408&h=240&yaw=297.65173&pitch=0&thumbfov=100,1.0,17,2025-05-29T00:53:23.782Z,comercio
Arielrodriguez Automotores & Motos,Concesionario de autom칩viles,,Av. Libertad 197,,Benito Ju치rez,Provincia de Buenos Aires,-37.6708367,-59.8079707,,14,,,0,2025-05-29T00:53:23.782Z,comercio
Carnadas Pich칩n,Tienda de art칤culos de pesca,,Av. Juan Manuel de Rosas 213,+54 2281 32-1958,Benito Ju치rez,Provincia de Buenos Aires,-37.6737663,-59.7946064,4.8,15,https://lh3.googleusercontent.com/gps-cs-s/AC9h4nodzliBJRMEnArQDlFl5ioHJiMaOkgTpQ0NtCidbAtmPHjDyXb00gimkWTIKhH9AjR6yHVaMW3oOvg7BF_VEpNgovzR_adMJVMOTx1xCcCBcZb-RPcocdKJUlTLEd16j7Aokk0n=w408-h544-k-no,8.0,16,2025-05-29T00:53:23.782Z,comercio
Autoservicio EME,Supermercado,,Av. Constituci칩n 292,+54 2281 32-5330,Benito Ju치rez,Provincia de Buenos Aires,-37.6751077,-59.8162679,,16,https://lh3.googleusercontent.com/p/AF1QipOAKbrN9O1XJqX_m2RexfBVcIHCsm59IwaxTUsS=w408-h306-k-no,12.0,0,2025-05-29T00:53:23.782Z,comercio
Kiosko La Favorita,Tienda de alimentaci칩n,,Av. Constituci칩n 32,,Benito Ju치rez,Provincia de Buenos Aires,-37.6700894,-59.8102473,4.7,17,https://lh3.googleusercontent.com/gps-cs-s/AC9h4nrsGLPBlD4uua16hFz33gx_lWcuZVEYKkf8xkNWnbo5zIbjK0sSQw5TJG1AOkpfDv5xi8WctlEX4-9B4f8JRjI6NH_Cej_eRh1qGG2ibtzlN_UH1qhPbYwSSc3gTRT_M4oXo00NsA=w408-h306-k-no,4.0,29,2025-05-29T00:53:23.782Z,comercio
TUTTI-FRUTTI,Fruter칤a,,"Roque, Av. Roque S치enz Pe침a 49",,Benito Ju치rez,Provincia de Buenos Aires,-37.6700875,-59.8022586,4.6,18,https://lh3.googleusercontent.com/p/AF1QipO7OWhosTuGK3HMQFMH_-kdTWR2ZUXkZh5M3tcD=w426-h240-k-no,56.0,7,2025-05-29T00:53:23.782Z,comercio
Sicar Hogar,Comercio,,Av. Libertad 91,+54 2292 45-4510,Benito Ju치rez,Provincia de Buenos Aires,-37.6721949,-59.8062252,4.7,19,https://streetviewpixels-pa.googleapis.com/v1/thumbnail?panoid=nMXxRAVryNRrwIwP-dV91A&cb_client=search.gws-prod.gps&w=408&h=240&yaw=63.03967&pitch=0&thumbfov=100,1.0,6,2025-05-29T00:53:23.782Z,comercio
Direfren,Comercio,,Gral. las Heras 117,+54 2281 57-7180,Benito Ju치rez,Provincia de Buenos Aires,-37.6681056,-59.80637,,20,https://lh3.googleusercontent.com/p/AF1QipOn6cjBMME4xeO2cLISLaLclAr7UrijMMSh3R0D=w408-h544-k-no,8.0,0,2025-05-29T00:53:23.782Z,comercio
Las Trees Nenas Frutas y verduras/ almac칠n,Tienda de alimentaci칩n,,Av. Juan Manuel de Rosas 236,+54 2281 60-6490,Benito Ju치rez,Provincia de Buenos Aires,-37.6731975,-59.7942312,5.0,1,https://lh3.googleusercontent.com/gps-cs-s/AC9h4no1AvI2tZ55ePtYJi460LAYe9HEIq46-8_I8B8mjl9exmTv_KrCa9N3Bu57ccqANIRXtOFRRXv6KyoMQOTU3NUeFj-mdyPYRGwLYborV8IC8rTSc2fwBREfWDCR5WwBF6UqSuMUyA=w408-h510-k-no,9.0,1,2025-05-29T00:53:24.084Z,tienda
Los Quesesitos,Tienda de alimentaci칩n,,Chile 249,,Benito Ju치rez,Provincia de Buenos Aires,-37.6756312,-59.7905513,,2,https://streetviewpixels-pa.googleapis.com/v1/thumbnail?panoid=jlyZ9ln17ni4D3wWVtEEnQ&cb_client=search.gws-prod.gps&w=408&h=240&yaw=44.03401&pitch=0&thumbfov=100,1.0,0,2025-05-29T00:53:24.084Z,tienda
Maxi Kiosco! La Ventanita,Tienda de alimentaci칩n,,Av. Libertad 9 7020,+54 249 400-8149,Benito Ju치rez,Provincia de Buenos Aires,-37.6733209,-59.8047793,,3,https://streetviewpixels-pa.googleapis.com/v1/thumbnail?panoid=5EjlBEZdpIFvk7vQ47dC5Q&cb_client=search.gws-prod.gps&w=408&h=240&yaw=59.693756&pitch=0&thumbfov=100,1.0,0,2025-05-29T00:53:24.085Z,tienda
Ladran Sancho,Fruter칤a,,7020,+54 2281 68-1989,Benito Ju치rez,Provincia de Buenos Aires,-37.6661884,-59.8029673,4.8,21,https://lh3.googleusercontent.com/gps-cs-s/AC9h4nr7FBUt-7qdFGLagWuD9PImGkkJpgMPWT1c2s0QtESz12AbOC5c6Q1RW7kKu9mAotvbBsotbutg9cKXF8zQbyfqcsnaNgIqEqA0JaUZRFcyBOciASQGJDaHcH-DmjNNSsjzhuJQ=w408-h544-k-no,2.0,6,2025-05-29T00:53:24.263Z,comercio
Rurales Chorengo,Ferreter칤a,,Cam. del Bicentenario 575,+54 2281 46-1771,Benito Ju치rez,Provincia de Buenos Aires,-37.666736,-59.815693,4.6,22,https://lh3.googleusercontent.com/p/AF1QipPYCzmQ7Zu7QprZsSvm7tJEwC0GBICAsKIOi4cX=w408-h306-k-no,49.0,164,2025-05-29T00:53:24.263Z,comercio
Nudo_lc,Tienda de regalos,https://www.instagram.com/nudo_lc/,Av. Roque S치enz Pe침a 325,,Benito Ju치rez,Provincia de Buenos Aires,-37.666353,-59.8068039,,23,https://lh3.googleusercontent.com/gps-cs-s/AC9h4noWFWPN7mZ9uyFfWsrkLcMfP6oBvAHadpKUk1-oUULf91WTA92fd9CRonto2Q31pNcmPfYB1feBmAXnsdBk-9lrOQ2IlzMbXuG4Go0wgB3NMr9Nuje5G-z6iyyG2IsN5ntJ4OML=w408-h725-k-no,71.0,0,2025-05-29T00:53:24.263Z,comercio
La Huella El se침or es mi pastor nada me puede faltar,Taller de costura,,Almte. Brown 635,+54 2281 57-7634,Benito Ju치rez,Provincia de Buenos Aires,-37.6639635,-59.8144773,5.0,24,https://lh3.googleusercontent.com/p/AF1QipPjca_crcSbZXk25OI_rOgGdnnFeMJqfsefH3UQ=w408-h766-k-no,23.0,1,2025-05-29T00:53:24.264Z,comercio
REPADIC,Servicio de reparaci칩n de ordenadores,https://rebollolaucha.wixsite.com/repadic,Gral. las Heras 273 7020 7020,+54 2281 53-6657,Benito Ju치rez,Provincia de Buenos Aires,-37.6652129,-59.8028148,5.0,1,https://lh3.googleusercontent.com/p/AF1QipPcT4WdjoHeJ7EuDW9Z3-bdF9k_tiKsUlyuSDHj=w428-h240-k-no,56.0,3,2025-05-29T00:53:26.554Z,electronica
Argenta Electr칩nica,Tienda de electr칩nica,https://www.instagram.com/argenta_electronica?igsh=Y3U0dW16cjc4Zjdm&utm_source=qr,Av. Libertad 312,+54 2281 32-4554,Benito Ju치rez,Provincia de Buenos Aires,-37.6694487,-59.8102835,,2,https://lh3.googleusercontent.com/p/AF1QipP7lNFLEVEMqlGJUhvV_QemqLUB13SNoDZWmVZK=w426-h240-k-no,11.0,0,2025-05-29T00:53:26.554Z,electronica
Electr칩nica Integral Enzo Del Zotto,Tienda de electrodom칠sticos,,Mariano Moreno 130,+54 2281 40-1696,Benito Ju치rez,Provincia de Buenos Aires,-37.6740491,-59.8101773,4.7,3,https://lh3.googleusercontent.com/p/AF1QipP1Lio83Q1czgV6LVjvML6pUirJgZOQzKq3E9z5=w408-h726-k-no,3.0,3,2025-05-29T00:53:26.555Z,electronica
EPIC INFORMATIZACIONES,Tienda de inform치tica,,Av. Uruguay 124,+54 2281 58-7408,Benito Ju치rez,Provincia de Buenos Aires,-37.6717464,-59.8012703,4.2,4,https://lh3.googleusercontent.com/p/AF1QipOhezVP_OF_Ev0j7ulYKr4_MXx62Jtzt68CSlFc=w408-h724-k-no,393.0,6,2025-05-29T00:53:26.555Z,electronica
Horacio Crespo,Servicio de reparaci칩n de aire acondicionado,,Av. Fortabat 280,+54 2281 53-7995,Benito Ju치rez,Provincia de Buenos Aires,-37.6745375,-59.7964934,5.0,5,https://streetviewpixels-pa.googleapis.com/v1/thumbnail?panoid=cmkYMSpUyB_5l0dhTHTLoQ&cb_client=search.gws-prod.gps&w=408&h=240&yaw=315.18832&pitch=0&thumbfov=100,1.0,2,2025-05-29T00:53:26.555Z,electronica
la cyborg,Proveedor de servicios de Internet,,Av. Urquiza 316,+54 223 323-3203,Benito Ju치rez,Provincia de Buenos Aires,-37.6676112,-59.7978375,,6,https://streetviewpixels-pa.googleapis.com/v1/thumbnail?panoid=9rBYa0eZ2y38npRwfLTcIw&cb_client=search.gws-prod.gps&w=408&h=240&yaw=310.08298&pitch=0&thumbfov=100,1.0,0,2025-05-29T00:53:26.555Z,electronica
Vanelec SRL,Proveedor de sistemas de seguridad,http://www.vanelec.com.ar/,9 de Julio 125,+54 2281 56-9785,Benito Ju치rez,Provincia de Buenos Aires,-37.6735614,-59.8090358,4.9,7,https://lh3.googleusercontent.com/p/AF1QipNAzErMHGmtPrUO63Qyxg9U5Yn-5RZwsWqaBj5f=w408-h306-k-no,19.0,83,2025-05-29T00:53:26.555Z,electronica
Globalweb Srl,Proveedor de servicios de Internet,,Av. Libertad 197,+54 2281 53-8012,Benito Ju치rez,Provincia de Buenos Aires,-37.6708982,-59.8081469,2.0,8,https://streetviewpixels-pa.googleapis.com/v1/thumbnail?panoid=U6tMalitFa9R-xt9R-U1fA&cb_client=search.gws-prod.gps&w=408&h=240&yaw=130.11366&pitch=0&thumbfov=100,2.0,4,2025-05-29T00:53:26.555Z,electronica
"""El Galp칩n"" Compra - Venta",Centro de comercio y exhibiciones,,Av. Constituci칩n 265,,Benito Ju치rez,Provincia de Buenos Aires,-37.6742112,-59.8159416,,1,https://streetviewpixels-pa.googleapis.com/v1/thumbnail?panoid=BvMOx-AZ6Y5hC6C8nPRFfQ&cb_client=search.gws-prod.gps&w=408&h=240&yaw=317.98672&pitch=0&thumbfov=100,1.0,0,2025-05-29T00:53:28.753Z,venta
Cerrado,Constructor de plataformas y terrazas,https://plaza.site/,,,,,-37.6718331,-59.8283311,4.6,21,https://lh3.googleusercontent.com/p/AF1QipNIrprkp4AgZBiwJOO6sSoDOYONfwnQBc8lCPDH=w408-h306-k-no,480.0,9,2025-05-29T00:53:28.962Z,repuestos
Brugal,Comercio,,Av. Urquiza 265,,Benito Ju치rez,Provincia de Buenos Aires,-37.6687967,-59.7986531,,5,https://streetviewpixels-pa.googleapis.com/v1/thumbnail?panoid=yqonzjVO34iXNPE6SA8HkQ&cb_client=search.gws-prod.gps&w=408&h=240&yaw=146.14644&pitch=0&thumbfov=100,1.0,0,2025-05-29T00:53:31.464Z,comercio
Locutorio Dos Avenidas,Locutorio,,Av. Urquiza 151,+54 2292 45-2919,Benito Ju치rez,Provincia de Buenos Aires,-37.6707517,-59.8013103,4.5,8,https://streetviewpixels-pa.googleapis.com/v1/thumbnail?panoid=9RReRw9-43jKcdb-kkOgVA&cb_client=search.gws-prod.gps&w=408&h=240&yaw=187.44424&pitch=0&thumbfov=100,1.0,2,2025-05-29T00:53:31.464Z,comercio
Mercado Natural GAIA,Tienda de alimentaci칩n,,"Zibecchi, 25 de Mayo y",+54 2281 31-1177,Benito Ju치rez,Provincia de Buenos Aires,-37.6709081,-59.8034105,5.0,12,https://lh3.googleusercontent.com/gps-cs-s/AC9h4noTYidWHNe0dOkCPUnbi_baPQpIVjTLxeAvFPp0PSsANQdwHWfjM4CnOwUY_ST3el_zKSzpBsJKdw5Ek-fYrzbxa8wedY3zLMreUGCEhKUjbPtMNpWYzuo6vMmz1ikP-JoI6pxj=w408-h252-k-no,38.0,6,2025-05-29T00:53:31.464Z,comercio
El Limonero,Fruter칤a,,C. Zibecchi 150-198,,Benito Ju치rez,Provincia de Buenos Aires,-37.6699501,-59.802022,4.7,15,https://lh3.googleusercontent.com/gps-cs-s/AC9h4nqu-YvmLj18Vc_dxSZ60U1b4EoSEpUwmXq23vUr1iNTkPhxDDlpqsbH4_LKoa-dkvVEmBSQZ6eUnFHn8Vxk-NN2ew3fr2L7z9ivsYjOULj3b4EsfnjA5pcc2bkvQMCDo3zL1SuQkA=w408-h306-k-no,4.0,6,2025-05-29T00:53:31.464Z,comercio
Proveeduria Avenida,Tienda de alimentaci칩n,,Av. Libertad 301,+54 2292 45-2671,Benito Ju치rez,Provincia de Buenos Aires,-37.6693352,-59.809968,,16,https://streetviewpixels-pa.googleapis.com/v1/thumbnail?panoid=lkeyGeI90q_9pS99Dg9v8w&cb_client=search.gws-prod.gps&w=408&h=240&yaw=35.297314&pitch=0&thumbfov=100,1.0,0,2025-05-29T00:53:31.464Z,comercio
La Union de Benito Juarez SRL Panificadora - Autoservicio,Panader칤a,,Av. Libertad 268,+54 2292 45-4333,Benito Ju치rez,Provincia de Buenos Aires,-37.6700753,-59.809615,4.5,18,https://lh3.googleusercontent.com/gps-cs-s/AC9h4nq0bkxcvQ9mw3t39Wtq4iHnIf2VuQ1IfkWg5K9N8lekq4MOr_QGx_OMIGNIs_CBzinxsoHXhXTNXIybwT7HLWvTl1tYdcan6zf-Dz7K0Gkp8zJV_dS9PxG41rBnsLAYVZ8M4OZk=w408-h725-k-no,6.0,34,2025-05-29T00:53:31.465Z,comercio
Magonia,Tienda de ropa,,Sgto. Cabral 229,+54 2281 58-7948,Benito Ju치rez,Provincia de Buenos Aires,-37.6673693,-59.8021659,4.7,19,https://lh3.googleusercontent.com/p/AF1QipNmKH_Sf7j36rcCIf6IYwhtSVq52-_c13u8o4B3=w408-h544-k-no,5.0,19,2025-05-29T00:53:31.465Z,comercio
La desplumada,Tienda de aves de corral,,Juan Bautista Alberdi,,Buenos Aires,Provincia de Buenos Aires,-37.667865,-59.8078899,4.9,20,https://lh3.googleusercontent.com/gps-cs-s/AC9h4nqsDf-NOC1fATGWD3HyQA8zgAcXD72N3-ohy4_dpVDcBcHda2d5OyrXQNvGIut4w2JIjgvUNx6uE0KZJGWDF_layv_l5aCoLdzTo1Lu3RwNNm2iVWKQGJnvqgbCbU5H5ti1v9YRvA=w408-h300-k-no,5.0,25,2025-05-29T00:53:31.465Z,comercio
Zenon Gaston,Comercio,,Av. Saavedra 135,,Benito Ju치rez,Provincia de Buenos Aires,-37.6761833,-59.8125932,4.0,8,https://streetviewpixels-pa.googleapis.com/v1/thumbnail?panoid=zrLSTE2_eDsHNXuIGMtmVA&cb_client=search.gws-prod.gps&w=408&h=240&yaw=41.825115&pitch=0&thumbfov=100,1.0,2,2025-05-29T00:53:34.259Z,comercio
More-mar,Tienda de alimentaci칩n,,Mu침oz,,Benito Ju치rez,Provincia de Buenos Aires,-37.6786455,-59.8011636,,19,https://streetviewpixels-pa.googleapis.com/v1/thumbnail?panoid=jHHirLp4I2gNTm3QNEiWVQ&cb_client=search.gws-prod.gps&w=408&h=240&yaw=297.178&pitch=0&thumbfov=100,1.0,0,2025-05-29T00:53:34.260Z,comercio
La Zaranda Permacultura,Granja,https://www.gurugo.com.ar/fichas/la-zaranda-permacultura_17047572,Falucho S/N,+54 2281 54-0031,Benito Ju치rez,Provincia de Buenos Aires,-37.6520547,-59.7842943,5.0,21,https://lh3.googleusercontent.com/p/AF1QipNmAxIjOxFQ2W2imEOmE00FHsTZKT0x9GwZ0bKs=w426-h240-k-no,40.0,4,2025-05-29T00:53:34.947Z,comercio
Daniel Fernandez,Comercio,,"Juarez 858, San Mart n, Buenos Aires",+54 11 4755-5808,Benito Ju치rez,Provincia de Buenos Aires,-37.6853838,-59.8193308,5.0,1,,,1,2025-05-29T00:53:38.559Z,comercio
"""AgusTINA"" de Eliseo Martinez",Tienda de alimentaci칩n,,Av. Mu침iz,+54 2284 39-9426,Benito Ju치rez,Provincia de Buenos Aires,-37.6821192,-59.8049606,4.6,2,https://lh3.googleusercontent.com/gps-cs-s/AC9h4noQERo-ANbiRLL58Dst0NkIJRuzzr3ZhsKSSHly6Dee9TdV1SzJ_7zoVqOfkMiAw26c4xfDPK9wrfFriaWg8cJPAd8cmW2qTraRI56pN4dVWTHHRCO18nYvXeP5bfQ3ZGPAwNu8=w520-h240-k-no,12.0,19,2025-05-29T00:53:38.559Z,comercio
Balanza las cuatro esquinas,Comercio,,RP86 122,+54 2314 62-7030,Henderson,Provincia de Buenos Aires,-37.6847868,-59.8117852,,3,https://streetviewpixels-pa.googleapis.com/v1/thumbnail?panoid=v9d2sFU9KIKBSkPwpSMTEg&cb_client=search.gws-prod.gps&w=408&h=240&yaw=245.386&pitch=0&thumbfov=100,1.0,0,2025-05-29T00:53:38.559Z,comercio
JEM,Tienda de art칤culos para el hogar,,Cap. Ramos 161,+54 2281 46-5390,Benito Ju치rez,Provincia de Buenos Aires,-37.6810672,-59.8025139,5.0,4,https://lh3.googleusercontent.com/gps-cs-s/AC9h4npTxqsofSGhf0ACK_llMAlYzpuIl51sLtBkVD4IEENUDeAKN2j8Aa_fLPY06eWYPufppX39sMQum8twG8zVQoXiI0GuEvCy5OLVnddrN2hEuvfuerxm3kExgGANW1PBrklM8VLV=w408-h410-k-no,2.0,1,2025-05-29T00:53:38.559Z,comercio
Despensa Cambalache,Tienda de alimentaci칩n,,Av. Salenave 198-150,,Benito Ju치rez,Provincia de Buenos Aires,-37.6806079,-59.8068907,4.9,5,https://lh3.googleusercontent.com/p/AF1QipNPO5_VBUO9qfgzSVxez6gDArgL5GZwOGXf-VvK=w408-h906-k-no,2.0,11,2025-05-29T00:53:38.559Z,comercio
La esperanza,Tienda de alimentaci칩n,,Labriola 275,,Benito Ju치rez,Provincia de Buenos Aires,-37.6807915,-59.8044511,4.5,7,https://lh3.googleusercontent.com/gps-cs-s/AC9h4nqDSs9aYs7-fPUwAdGgUD3JPKtT6e3g9JYQWltv3CgRLBh6a-6nFy7K3Pwu1yJQmAnRM7OGPPz6S1jyseDihBs9BguTn-tXh7lu7zD8Qv4w5e-UeWy8cgYRFI0BDU1JB4Eed8Q=w408-h306-k-no,37.0,2,2025-05-29T00:53:38.559Z,comercio
Despensa Las abuelas,Kiosco,,Leuvuco 196,,Benito Ju치rez,Provincia de Buenos Aires,-37.6832111,-59.8015336,,8,,,0,2025-05-29T00:53:38.559Z,comercio
El novillo colorado carniceria,Comercio,,Av. Mu침iz 206,+54 2281 46-2196,Benito Ju치rez,Provincia de Buenos Aires,-37.6814599,-59.8040506,5.0,9,https://streetviewpixels-pa.googleapis.com/v1/thumbnail?panoid=lCFMzqLf5wRPSDgKxWpRvA&cb_client=search.gws-prod.gps&w=408&h=240&yaw=123.29136&pitch=0&thumbfov=100,1.0,9,2025-05-29T00:53:38.559Z,comercio
Supermercado San Martin,Supermercado,,Av. San Mart칤n 161,,Benito Ju치rez,Provincia de Buenos Aires,-37.676535,-59.8088125,4.4,11,https://lh3.googleusercontent.com/gps-cs-s/AC9h4nqu4ac3-1oUo0zM7XkkABRE3NsIj1-EPYByYlUPGuZiADuIN-79o_dsM8ADt5dPXkm-_wD01QWEku66G9rP4u5LLnAEWHCxWZAC6oPoflt7BVQl09GDAC4hN3g1h57_tJuNbZEDPA=w408-h544-k-no,3.0,11,2025-05-29T00:53:38.559Z,comercio
Supermercado Asia,Tienda de alimentaci칩n,,Av. Pres. Juan Domingo Per칩n 377-399,,Benito Ju치rez,Provincia de Buenos Aires,-37.6795852,-59.7995975,4.1,12,https://lh3.googleusercontent.com/gps-cs-s/AC9h4npZBPXfUqrAOyqU6DQuq31xnDmRwjOo116_uf4lq2QvdOrlSkIDCDLubXqJEyybC0ZhBwj4TNXicFCVLrNNg4R_PkDfg6Ya8f3ReS5p9xhO0BeofxTdeEwQv35Kf9rnG2KyBlzA=w408-h906-k-no,7.0,39,2025-05-29T00:53:38.559Z,comercio
Autoservicio Chiozza,Supermercado,,Av. Constituci칩n 294,,Benito Ju치rez,Provincia de Buenos Aires,-37.6751032,-59.8163134,4.7,13,https://streetviewpixels-pa.googleapis.com/v1/thumbnail?panoid=6mJ5cOO5yhqRIB_OqzrI6Q&cb_client=search.gws-prod.gps&w=408&h=240&yaw=123.960625&pitch=0&thumbfov=100,2.0,31,2025-05-29T00:53:38.559Z,comercio
kiosco molina,Tienda de alimentaci칩n,,Labriola 334,,Benito Ju치rez,Provincia de Buenos Aires,-37.6815708,-59.8032649,,14,https://streetviewpixels-pa.googleapis.com/v1/thumbnail?panoid=uRu7FefZDIpbcC4K6w6r0Q&cb_client=search.gws-prod.gps&w=408&h=240&yaw=47.292347&pitch=0&thumbfov=100,1.0,0,2025-05-29T00:53:38.559Z,comercio
Almac칠n NATURAL,Tienda de alimentaci칩n,,"B7020, Mariano Moreno 241",+54 2281 31-2818,Benito Ju치rez,Provincia de Buenos Aires,-37.6758356,-59.8128329,4.3,15,https://lh3.googleusercontent.com/gps-cs-s/AC9h4nrhxDIGLVkKwDPt6noU5rOv6aBC17XNHtQCZRfySrs_Fi4tro3zkavM6eIGkBmMtpe7Y2mtDf_RoPJQVfzYKlUXETJqHEVrV6IW6sR3IbhYRXZWoeuwtcS_xVXzd6VuHiIuQlWK=w408-h306-k-no,11.0,4,2025-05-29T00:53:38.559Z,comercio
Distribuidora MAGICA,Tienda de alimentaci칩n,,,,Benito Ju치rez,Provincia de Buenos Aires,-37.677326,-59.8047054,,16,https://streetviewpixels-pa.googleapis.com/v1/thumbnail?panoid=ZGJS7ZAQE2rg6MLpvGBW1w&cb_client=search.gws-prod.gps&w=408&h=240&yaw=229.91794&pitch=0&thumbfov=100,1.0,0,2025-05-29T00:53:38.559Z,comercio
Cooperativa Obrera,Tienda de alimentaci칩n,http://www.cooperativaobrera.coop/,Bartolom칠 Mitre 87,+54 2292 45-2480,Benito Ju치rez,Provincia de Buenos Aires,-37.6756251,-59.806056,4.5,17,https://lh3.googleusercontent.com/gps-cs-s/AC9h4nr8AgWve5jCiI7HA7kTPIkiwuL0RjWmRqCKrs6DX14PBOf_i5rPtz0_jjIxq9_crChkfflchA3_BHoEZm6KARC0HuUe5MbQq-pOws2di85wwV8Y3kwP4ZRVSuIAfB8aKaaa2o19=w493-h240-k-no,31.0,386,2025-05-29T00:53:38.559Z,comercio
Carniceria LAS 2 M,Carnicer칤a,,Gral. Paz 151-199,,Benito Ju치rez,Provincia de Buenos Aires,-37.6789863,-59.8046969,4.6,18,https://streetviewpixels-pa.googleapis.com/v1/thumbnail?panoid=jeVB9f9ZAK2sZxrFTLm3hw&cb_client=search.gws-prod.gps&w=408&h=240&yaw=274.39352&pitch=0&thumbfov=100,1.0,38,2025-05-29T00:53:38.559Z,comercio
Miguelito,Tienda de alimentaci칩n,,Av. Saavedra 227,+54 9 223 438-0849,Benito Ju치rez,Provincia de Buenos Aires,-37.6750009,-59.8142016,4.7,20,https://lh3.googleusercontent.com/gps-cs-s/AC9h4noC5SSt2la-D8N3kYNnHeAAyJBiRaKJmyRZud5pItN_pDU8oAylx9cgyKJgM1cPn_TnLo5OR7XUCEC01G9S7eLHAh3uvu5XBc5DEOQLQxzHsNcazfFufAMfz5WfYpHcOrOWby2D=w408-h306-k-no,2.0,47,2025-05-29T00:53:38.559Z,comercio
A comerla,Tienda de alimentaci칩n,,Av. Fortabat 219,+54 2281 58-4539,Benito Ju치rez,Provincia de Buenos Aires,-37.6737056,-59.7975654,5.0,10,https://streetviewpixels-pa.googleapis.com/v1/thumbnail?panoid=zNw9QJZC0wAmL-ihYQ5qjg&cb_client=search.gws-prod.gps&w=408&h=240&yaw=313.82605&pitch=0&thumbfov=100,1.0,1,2025-05-29T00:53:41.539Z,comercio
El Gauchito,Tienda general,,C칩rdoba 447,,Benito Ju치rez,Provincia de Buenos Aires,-37.6687087,-59.7902813,,19,,,0,2025-05-29T00:53:41.539Z,comercio
Shopping LUZMAR,Tienda de ropa,,"Catamarca, Lavalle",,Benito Ju치rez,Provincia de Buenos Aires,-37.6755806,-59.8090547,,20,https://lh3.googleusercontent.com/p/AF1QipNq6Li1A4Pk_r75OdfY6k5pOxMJjmKFgclbgh-V=w408-h306-k-no,3.0,0,2025-05-29T00:53:41.539Z,comercio
La Cayetana Blanqueria,Tienda de art칤culos para el hogar,,Av. Libertad 70,+54 2281 37-0541,Benito Ju치rez,Provincia de Buenos Aires,-37.6727352,-59.8060762,5.0,17,https://lh3.googleusercontent.com/gps-cs-s/AC9h4np99JuyaIlR0zM2k_ShOIe_VzcSJrdOv1giQcR9neav9bwtePbIFx_Fre0Vtt16iGr7a5Heu1La3PemQmIP1zRXDzB0ugK53h5jAJRLFMK_2V1mNmKjOsrf8En7xXDGS4oikOdNPA=w408-h408-k-no,15.0,3,2025-05-29T00:53:43.816Z,comercio
Rf motos,Taller de reparaci칩n de motos,,La Rioja 29,+54 2281 57-9260,Benito Ju치rez,Provincia de Buenos Aires,-37.6757431,-59.8003798,,18,https://lh3.googleusercontent.com/p/AF1QipPCjzX0LTnnQa6coxgGAbPt50kq1kMKUlxKJtia=w408-h541-k-no,37.0,0,2025-05-29T00:53:46.013Z,repuestos
Angeles y demonios bellusci julieta,Tienda general,,Av. Artigas 249,+54 2281 55-0711,Benito Ju치rez,Provincia de Buenos Aires,-37.6703849,-59.7924759,4.3,11,https://lh3.googleusercontent.com/gps-cs-s/AC9h4noONj7mL8UVfqcrszl5pAoXxAFv9kIBIE3vvXAgPBV5aCEMDT1pn1tWZbSS008Y_5tYK0s-Oav2iEa2pCoQAxWao4iKeH4lA69gDRSrsXQ5pILoXIriGFFiBK4QDPRYczn_k2l2=w408-h725-k-no,1.0,3,2025-05-29T00:53:46.520Z,comercio
Supermercados DIA,Supermercado,https://diaonline.supermercadosdia.com.ar/,"B7020AOA, Mariano Moreno 1-49",,Benito Ju치rez,Provincia de Buenos Aires,-37.6714923,-59.8076854,4.2,12,https://lh3.googleusercontent.com/p/AF1QipNy6jM4dO2LZK1Z64uFJ0VZsVWX_dIY8RZX-MO4=w408-h306-k-no,59.0,359,2025-05-29T00:53:46.520Z,comercio
Grafig Soluci칩nes Gr치ficas,Comercio,https://instagram.com/grafig_?igshid=YmMyMTA2M2Y=,Mendoza 195,,Benito Ju치rez,Provincia de Buenos Aires,-37.6715363,-59.795996,4.9,13,https://lh3.googleusercontent.com/gps-cs-s/AC9h4nph1SQcPcvgrPUNHeT_6WqnW5hh2U_mU_Apff915qrfj_DeyINlyHMBLQjMZPgS084Xio-7nv5euckjoVgw8Uxuyu5pX2R82eoV8E0zG56oii2sDO6GoYLH4nVHQqxaWWq_7a-O=w408-h306-k-no,3.0,8,2025-05-29T00:53:46.520Z,comercio
Esa maldita costilla,Carnicer칤a,,,+54 2281 55-6325,Benito Ju치rez,Provincia de Buenos Aires,-37.676428,-59.7985142,4.5,17,https://lh3.googleusercontent.com/gps-cs-s/AC9h4npmaUW20qoZAc5Ak71Jq0qniQyFFiRDQQKTucIOM41Vq7pL_OFMVdexnaM3Dd8OZE4J8WgeFoB9SaFQbTZ5TaIgP2T_3Lpt7VV0f0uyMV_PfBt77-61tyreu0pOgsjY1j_SSC_2=w426-h240-k-no,4.0,17,2025-05-29T00:53:46.520Z,comercio
Lubricentro El Abuelo,Tienda de accesorios para autom칩viles,,"B7020AKD, Domingo Faustino Sarmiento 2-48",+54 2281 49-2729,Benito Ju치rez,Provincia de Buenos Aires,-37.6692968,-59.8112703,4.6,20,https://lh3.googleusercontent.com/gps-cs-s/AC9h4nrJdFzLhgpYzxN-fyKmi5AU7buPSWaNLH9T8bk7Kh9E-jSzvZWrHx_OQdM53gSXLeZrbWyWEmHqDPww5eeE0mWIcJPVF6TVNl_nHSDAAQgMDNNVhV4pVhVixdmMaqVceHLrr5dLcg=w426-h240-k-no,25.0,21,2025-05-29T00:53:46.520Z,comercio
GENESIS FRUTAS Y VERDURAS,Tienda de alimentaci칩n,,Av. Mu침iz,,Benito Ju치rez,Provincia de Buenos Aires,-37.6846424,-59.8080524,,26,https://streetviewpixels-pa.googleapis.com/v1/thumbnail?panoid=H1AnoVm8-tQu08EUiGVNxg&cb_client=search.gws-prod.gps&w=408&h=240&yaw=160.80098&pitch=0&thumbfov=100,1.0,0,2025-05-29T00:53:50.740Z,tienda
Elegante sport,Tienda de ropa de deportes,https://www.instagram.com/elegante_sport_bj?igsh=MWVwY3NoOGc4aWM1NA==,Ameghino 25,+54 2281 30-1465,Benito Ju치rez,Provincia de Buenos Aires,-37.6817221,-59.8157086,,28,https://lh3.googleusercontent.com/p/AF1QipPPZN8u8l-N_miIEf4iAEN3EEzXcArZ7F8mkCCM=w408-h306-k-no,2.0,0,2025-05-29T00:53:50.740Z,tienda
BICICLETERIA Marito,Tienda de bicicletas,,,,Benito Ju치rez,Provincia de Buenos Aires,-37.6812689,-59.8060434,,29,https://streetviewpixels-pa.googleapis.com/v1/thumbnail?panoid=577ich5-aZUIkyLK9Z5Ujw&cb_client=search.gws-prod.gps&w=408&h=240&yaw=61.467&pitch=0&thumbfov=100,1.0,0,2025-05-29T00:53:50.740Z,tienda
Dorinzi Materiales de Daniela a Dorinzi,Proveedor de materiales de construcci칩n,http://www.dorinzimateriales.com/,Laprida 354,+54 2281 32-5252,Benito Ju치rez,Provincia de Buenos Aires,-37.6867835,-59.8082963,4.9,30,https://lh3.googleusercontent.com/p/AF1QipMesODtxXWBLX2SKl5RCrz63IvdpmU4ENwKn95i=w426-h240-k-no,17.0,24,2025-05-29T00:53:50.740Z,tienda
Deco Jard칤n,Vivero,https://decojardin.mitiendanube.com/,Av. Pres. Juan Domingo Per칩n 587 NRO 571,+54 2281 53-7050,Benito Ju치rez,Provincia de Buenos Aires,-37.6823485,-59.7959775,3.5,32,https://lh3.googleusercontent.com/p/AF1QipNo-sKzza2libZLKIveKjj8DJxP0u5xO76BAvCb=w408-h725-k-no,3.0,4,2025-05-29T00:53:50.740Z,tienda
El Rinc칩n de Maria,Mercer칤a,,Domingo Faustino Sarmiento 155,,Benito Ju치rez,Provincia de Buenos Aires,-37.671735,-59.8145708,4.7,18,https://lh3.googleusercontent.com/gps-cs-s/AC9h4npdidoxA6WpejvxjylMw_QmiQx_CcJ0Z1A3V-59_c1QJLNzH5cH2WJBxb-l2a-aZlMKD3gJccRcwE-NdSG7eVzzEKvYtxuw_Z3DQz10sDosT1hIGDXRZezfcswYo_QS2Pvs1BJT=w408-h305-k-no,32.0,37,2025-05-29T00:53:51.534Z,comercio
Embutidos Don Alejandro,,,7020,+54 2281 49-3192,Benito Ju치rez,Provincia de Buenos Aires,-37.6788855,-59.8146241,4.9,15,https://lh3.googleusercontent.com/p/AF1QipOWdvPk4nTBtWg5jAdFgw4uDx8y-UauVqvj7GSC=w408-h544-k-no,16.0,10,2025-05-29T00:53:54.349Z,comercio
Maxikiosco Gudi,Kiosco,,"Zibechi, Almte. Brown y",+54 2281 55-4900,Benito Ju치rez,Provincia de Buenos Aires,-37.6719382,-59.8047361,5.0,14,https://lh3.googleusercontent.com/p/AF1QipPNlBBpmIYk1hCONSzx0buDW4l2PZU1y7Lr6gU-=w425-h240-k-no,2.0,1,2025-05-29T00:53:56.835Z,comercio
OCE츼NICA INDUMENTARIA,Tienda de ropa,,C. Zibecchi 23,,Benito Ju치rez,Provincia de Buenos Aires,-37.6724552,-59.8050582,,38,https://streetviewpixels-pa.googleapis.com/v1/thumbnail?panoid=gzBpkl5lqo8LUSbarxsuGw&cb_client=search.gws-prod.gps&w=408&h=240&yaw=146.29002&pitch=0&thumbfov=100,1.0,0,2025-05-29T00:53:57.907Z,comercio
Panader칤a La Nueva Estrella,Tienda de alimentaci칩n,,"Av. San Mart칤n, Catamarca y",,Benito Ju치rez,Provincia de Buenos Aires,-37.6762355,-59.8081908,4.6,29,https://lh3.googleusercontent.com/gps-cs-s/AC9h4nr-kqdyMq9wukoVp2P4y52mcj78TGEV-48Flem-0gVWe5CAtVOd42Iyk9Jxx7Tvyhec6y_XBwf_ZBAnrbYAgazzVdOrBpZa_-F6rC59iXjLIdQrXLKCX_-LP8VisDlKL-jCUM6UWg=w408-h306-k-no,14.0,21,2025-05-29T00:53:58.697Z,tienda
"Ensaladas ""La fruta Prohibida""",Tienda de alimentos naturales,,"Mu침iz, San Antonio y",+54 2355 64-5320,Benito Ju치rez,Provincia de Buenos Aires,-37.6800664,-59.8029837,4.8,34,https://lh3.googleusercontent.com/p/AF1QipOVpUy0YWKCDmP0dCu7eCmdg09P-UCQTvdHEkuq=w426-h240-k-no,17.0,15,2025-05-29T00:53:58.697Z,tienda
Confiteria Las Delicias,Pasteler칤a francesa,,Almte. Brown 172,+54 2292 45-2382,Benito Ju치rez,Provincia de Buenos Aires,-37.6703318,-59.8067146,3.9,35,https://streetviewpixels-pa.googleapis.com/v1/thumbnail?panoid=UpO-0SPMj3NnnmxdSJCJ6A&cb_client=search.gws-prod.gps&w=408&h=240&yaw=240.31569&pitch=0&thumbfov=100,2.0,12,2025-05-29T00:53:58.697Z,tienda
Supermercado Chi - Envios A Domicilio,Supermercado,,Av. Urquiza 7,+54 2292 45-1535,Benito Ju치rez,Provincia de Buenos Aires,-37.6732735,-59.8045161,4.1,36,https://lh3.googleusercontent.com/gps-cs-s/AC9h4noXH5KkgDc6zzR_ReF5Oaz3QR8bxgnoURgK9hiAXBkE0d9_1-vS1W6Rxyjct1cUlihddHrR4oUK-YEqu7F4rAJK6AeDq2WO7663cssBG1qwAFeDYm_BUTJnxgZxgGXOR9piD2rN=w408-h306-k-no,3.0,175,2025-05-29T00:53:58.697Z,tienda
Supermercado Apolo 11,Supermercado,https://www.bento.me/apoloatumedida,"Almirante Brown 10, Almte. Brown 18",+54 2281 47-5090,Benito Ju치rez,Provincia de Buenos Aires,-37.67244,-59.8039665,4.4,37,https://lh3.googleusercontent.com/gps-cs-s/AC9h4nq1aOBCmqoqGwnxQUwEbBaVtkSDtv4YfwagsheONdtuBZNdidt4a5bKBT1siZ9HYJtTA4m3-gt7onGdZjFJH_75islpOfZzjnxL3If8a-C1PCShwXaYXAsFhtHMceG37osD2qDohA=w408-h544-k-no,25.0,115,2025-05-29T00:53:58.697Z,tienda
Supermercado Luna,Supermercado,,Av. Pres. Juan Domingo Per칩n 377-399,,Benito Ju치rez,Provincia de Buenos Aires,-37.6795268,-59.7996733,3.8,40,https://lh3.googleusercontent.com/gps-cs-s/AC9h4nr5DDK9R78b0K0w70wbWxtKDkHFssNcRgBQPbMFuC9Wa3zcrIbLJ0JnhE6-uJQAJP1HfcCNT14OrboZkw_uJTdFlyNV8hSk3XXBHlkvmKBQDGZRdcLhEVSOKRvZWS8w6mb8YWzpaw=w493-h240-k-no,23.0,118,2025-05-29T00:53:58.697Z,tienda
Farmacia Sindical Centro de Empleados de Comercio,Farmacia,,Av. Otamendi 9,+54 2292 45-2082,Benito Ju치rez,Provincia de Buenos Aires,-37.674712,-59.8058124,5.0,46,https://streetviewpixels-pa.googleapis.com/v1/thumbnail?panoid=pdMphrWIXljzQ7APPNLwwA&cb_client=search.gws-prod.gps&w=408&h=240&yaw=210.00316&pitch=0&thumbfov=100,1.0,5,2025-05-29T00:53:58.870Z,comercio
Coqueterias la pa침alera de Benito Ju치rez/ Distribuidor de Biogreen,Tienda de accesorios de moda,http://www.coqueterias.com.ar/,Av. Libertad 76,+54 2281 41-7481,Benito Ju치rez,Provincia de Buenos Aires,-37.672542,-59.8061842,5.0,52,https://lh3.googleusercontent.com/p/AF1QipNA5CsY3wW85ASpV4mxnoUG5Mkpd6Yv5pMLXov4=w408-h244-k-no,113.0,23,2025-05-29T00:53:58.871Z,comercio
Pasteleria CENTRO,Panader칤a,,Av. Libertad 146,,Benito Ju치rez,Provincia de Buenos Aires,-37.671761,-59.8072516,,54,https://streetviewpixels-pa.googleapis.com/v1/thumbnail?panoid=kn2YhsokJlfxTMksLXdkEw&cb_client=search.gws-prod.gps&w=408&h=240&yaw=219.97778&pitch=0&thumbfov=100,1.0,0,2025-05-29T00:53:58.871Z,comercio
Rockin sublimaciones,Tienda de art칤culos para el hogar,,"BYB, San Juan 80",,Benito Ju치rez,Provincia de Buenos Aires,-37.6733074,-59.8012609,,55,https://lh3.googleusercontent.com/gps-cs-s/AC9h4np47t6DulDQhX56ZrsK42IOOpW9mWPUN44k-uGC7APaYxxLDpVmoVygJro62Y5VRoSwMLb42nMZeWprLpb5c3DoVZQMHQJ7hPzk0PtOltSE0jPsBNfQBbWYEG_NR0jQNlSkbJZ8VQ=w426-h240-k-no,2.0,0,2025-05-29T00:53:58.871Z,comercio
Indumentaria Danae,Tienda de ropa,,Av. Alsina 18,,Benito Ju치rez,Provincia de Buenos Aires,-37.6736603,-59.8043434,,57,https://streetviewpixels-pa.googleapis.com/v1/thumbnail?panoid=VkhTyfUGyMcr6AbBt0xZbA&cb_client=search.gws-prod.gps&w=408&h=240&yaw=49.48276&pitch=0&thumbfov=100,1.0,0,2025-05-29T00:53:58.871Z,comercio
Masivo,Tienda de ropa,,Av. Libertad 17,,Benito Ju치rez,Provincia de Buenos Aires,-37.6731257,-59.8050243,,58,https://streetviewpixels-pa.googleapis.com/v1/thumbnail?panoid=7oJgfqyjDyRls-2IBLofqg&cb_client=search.gws-prod.gps&w=408&h=240&yaw=62.926907&pitch=0&thumbfov=100,1.0,0,2025-05-29T00:53:58.871Z,comercio
Bicicleter칤a Bustamante,Comercio,,Lavalle 217,+54 2281 59-8732,Benito Ju치rez,Provincia de Buenos Aires,-37.6767922,-59.8105301,5.0,59,https://lh3.googleusercontent.com/gps-cs-s/AC9h4no7bvn6ZSCfjb_X4mENYLFEeDRRXK7DVE_ggM0ZeTD5QPLCkoiN8M2xqxRsk-UuT_JHa8GOt2wx8rUZLB1EqO4KtUrNH9fGH_YME2XGTc1N1mspGv5BZ416uk2c1D_hCB4ElYbnrg=w408-h906-k-no,4.0,6,2025-05-29T00:53:58.871Z,comercio
Puente Alsina,Panader칤a,,Av. Alsina 277,,Benito Ju치rez,Provincia de Buenos Aires,-37.6773229,-59.8000742,4.8,43,https://lh3.googleusercontent.com/gps-cs-s/AC9h4noo6zV209jeyU7CJunUxeewER290pZV65ZEX0Q-S2n7rxSzk9VpgSQRZf0rO7EgB4EQP1-I1fCcDlt4Kr9jaOE_RKNztHUhgbt8ljAE_zZxb9vVbCxHZ4xSTxr3MIqS8SdfRohb=w408-h306-k-no,5.0,5,2025-05-29T00:53:59.547Z,tienda
Heladeria Reina 2,Helader칤a,,"199,, Labriola 151",,Benito Ju치rez,Provincia de Buenos Aires,-37.6793905,-59.8065742,4.0,44,https://lh3.googleusercontent.com/gps-cs-s/AC9h4nriyF8Ljbdyn7OKeh6Wnm25xKlt21Qlept-9MdEwBz9wcII27PJzipInWyMezM52xBdmLS78lg3mcDjn2agZYFLAbaPvNJL36g7BeKibxoqrKCiGFx-aOQvmxakWa0YRpPqLZbT=w408-h544-k-no,9.0,11,2025-05-29T00:53:59.547Z,tienda
Grido Helado Benito Ju치rez,Helader칤a,https://wa.me/5492281524407/,Av. Zabalza 250,+54 2281 52-4407,Benito Ju치rez,Provincia de Buenos Aires,-37.6713095,-59.8102516,4.4,45,https://lh3.googleusercontent.com/gps-cs-s/AC9h4np1RySJzWXBBUMb6l_eA7zl0h-82Y72LGBWRRQmubSnO0sGc1o1wXxCZ1WJaR2VOY0bsdYlChBvgImqNd_ilRvXEBNAVo7tZe12_mvA0uh_AvvJY3NQ8ywzH2EXF7cvOfUwPSmd1Q=w408-h306-k-no,47.0,379,2025-05-29T00:53:59.547Z,tienda
Helader칤a Igl칰,Helader칤a,,Av. Alsina 2,+54 2292 45-1175,Benito Ju치rez,Provincia de Buenos Aires,-37.6735134,-59.8045283,4.2,47,https://lh3.googleusercontent.com/gps-cs-s/AC9h4npOXGgEB3n2iJIoZmlnWyxeNV7B8i3OFTzI1fDXNlqc_dBH6U-2AHLB5WNES04jGFB6yQsxoPWXCAiHbsaINR-7BLu926fY1MAyo9a0x37qRmthsYI9AIkMmafwlgr6uAQFWWeH=w408-h306-k-no,8.0,42,2025-05-29T00:53:59.547Z,tienda
LA MODERNA,Panader칤a,https://www.facebook.com/La-Moderna-134742707325272/,Ituzaing칩 100,+54 2292 45-2152,Benito Ju치rez,Provincia de Buenos Aires,-37.677396,-59.8042046,4.5,48,https://lh3.googleusercontent.com/p/AF1QipPqVzIgvilHhzlF4Ve1F_LV82HuJkqfmhCQqM_H=w426-h240-k-no,3.0,61,2025-05-29T00:53:59.547Z,tienda
Confeccionessonia,Tienda de ropa,,9 de Julio 360,+54 2281 40-3752,Benito Ju치rez,Provincia de Buenos Aires,-37.6705851,-59.8133977,4.5,50,https://lh3.googleusercontent.com/gps-cs-s/AC9h4npLbpVaV2KeCVqNc56Wkccg6-ji1O1DP42J7JIxpNBORyVtE732V6M-r0PnJTO6Gqj3Wp2KZprz_NWg4eaHdbiXiC7wjdpSxZEu0fSGFEYI7hPJOoGLOMi7McVP_7kfLFKTkoCi=w408-h306-k-no,2.0,6,2025-05-29T00:53:59.547Z,tienda
"MIEL Sr. Tino, de Campos Naturales Argentinos",Tienda de alimentos naturales,http://www.facebook.com/mielsrtino,25 de Mayo 2,+54 2292 45-2310,Benito Ju치rez,Provincia de Buenos Aires,-37.67166,-59.802693,3.0,51,https://streetviewpixels-pa.googleapis.com/v1/thumbnail?panoid=DhNhEmzg9jMozEcYwrOp-Q&cb_client=search.gws-prod.gps&w=408&h=240&yaw=202.89743&pitch=0&thumbfov=100,1.0,1,2025-05-29T00:53:59.547Z,tienda
Quita Penas,Tienda de ropa,,Av. Libertad 191,+54 2292 45-4754,Benito Ju치rez,Provincia de Buenos Aires,-37.6708781,-59.8079298,1.0,52,https://lh3.googleusercontent.com/gps-cs-s/AC9h4noK8MRVQtajlCoV6BhDAFNXXKS_UXP6sYMAYe-FocMC3LyNdAlTPKMo6wnJcLO2yfXjlMBwHhyStOonq5nHHCTMGFEf0A7GGxdPPhtMXRgaGsaBChHRhOPES0j_4dHiE1dZL0elqg=w426-h240-k-no,4.0,1,2025-05-29T00:53:59.547Z,tienda
Diet칠tica La Delfina,Tienda de alimentos naturales,,Av. Urquiza 50 98,,Benito Ju치rez,Provincia de Buenos Aires,-37.6724172,-59.8036993,4.8,53,https://streetviewpixels-pa.googleapis.com/v1/thumbnail?panoid=Gh6jpDMFxS3XPNiN9yQ9vQ&cb_client=search.gws-prod.gps&w=408&h=240&yaw=292.46152&pitch=0&thumbfov=100,1.0,5,2025-05-29T00:53:59.547Z,tienda
BOUQUET |Vinos y Sabores|,Tienda de vinos,https://www.facebook.com/Bouquet.BJ/,Av. Libertad 86,+54 2292 45-4706,Benito Ju치rez,Provincia de Buenos Aires,-37.6724444,-59.8063459,5.0,54,https://streetviewpixels-pa.googleapis.com/v1/thumbnail?panoid=yBtEEv6Dl1p39nAwB5qZrw&cb_client=search.gws-prod.gps&w=408&h=240&yaw=241.24928&pitch=0&thumbfov=100,3.0,1,2025-05-29T00:53:59.547Z,tienda
Naldo,Tienda de electrodom칠sticos,https://www.naldo.com.ar/,Av. Libertad 71,+54 2292 45-4997,Benito Ju치rez,Provincia de Buenos Aires,-37.6723753,-59.8057408,4.2,56,https://lh3.googleusercontent.com/p/AF1QipOl0DZnlhvAOIpSitEhN7qg-O0c74hIVYEFvhkV=w426-h240-k-no,2.0,58,2025-05-29T00:53:59.547Z,tienda
Limpia Bien,Tienda de art칤culos para el hogar,,"Corrientes, Maip칰 &",+54 2292 45-4121,Benito Ju치rez,Provincia de Buenos Aires,-37.6735879,-59.7999261,4.6,60,https://streetviewpixels-pa.googleapis.com/v1/thumbnail?panoid=6nZS90jxixafjyB4tbr-eg&cb_client=search.gws-prod.gps&w=408&h=240&yaw=44.440723&pitch=0&thumbfov=100,1.0,105,2025-05-29T00:53:59.547Z,tienda
*La Gloria* vivero,Centro de jardiner칤a,,San Juan 67,+54 2281 40-5435,Benito Ju치rez,Provincia de Buenos Aires,-37.6737239,-59.8012417,4.9,61,https://lh3.googleusercontent.com/gps-cs-s/AC9h4nrZo6596E-PuLcStHORz64CyerTvO1WXtkQmlFNXTMD8NAS9UtoMt2kdusONzsL7DsKZv5cufoVTO_ChRo7ewwd1ueuyq565TNOne3JEJ83SZTbwTvntS_65196rE5phcx37Zn9=w408-h839-k-no,131.0,23,2025-05-29T00:53:59.591Z,comercio
FRUTAS EMANUEL YOEL,Tienda de alimentaci칩n,,Av. Zabalza 233,,Benito Ju치rez,Provincia de Buenos Aires,-37.6712993,-59.809779,,64,https://streetviewpixels-pa.googleapis.com/v1/thumbnail?panoid=p0V1ySvIyubVCB50U8ZVsg&cb_client=search.gws-prod.gps&w=408&h=240&yaw=22.066666&pitch=0&thumbfov=100,1.0,0,2025-05-29T00:53:59.591Z,comercio
Diet칠tica San Mart칤n,Tienda de alimentos naturales,https://www.instagram.com/dietetica_san_martin/,Av. Libertad 26,,Benito Ju치rez,Provincia de Buenos Aires,-37.6732396,-59.805353,4.8,65,https://streetviewpixels-pa.googleapis.com/v1/thumbnail?panoid=SxFNQLxOo76zWrpr9UI8iw&cb_client=search.gws-prod.gps&w=408&h=240&yaw=209.87254&pitch=0&thumbfov=100,1.0,35,2025-05-29T00:53:59.591Z,comercio
Bazar David.,Tienda de art칤culos para el hogar,,Av. Otamendi 149,,Benito Ju치rez,Provincia de Buenos Aires,-37.676512,-59.8036685,,66,https://lh3.googleusercontent.com/gps-cs-s/AC9h4nr85QdaLyc5vNdOyt9A8Rpexbuzq5lKkOg1516URgWDaZ2_v3YDHNYC5X7hp7HkrJS0mo-ikGUUGoX7wDxpqFMrC5tJMWJ9BEuybAUfwla8mjwYtYGk5_lsxfCw9xBVexV0Bvvn=w408-h544-k-no,2.0,0,2025-05-29T00:53:59.591Z,comercio
Sani-Gas,Tienda de art칤culos relacionados con el gas,,"B7020BTB 54, BTB, Sgto. Cabral",+54 2281 53-4476,Benito Ju치rez,Provincia de Buenos Aires,-37.6704869,-59.8060712,4.5,67,https://lh3.googleusercontent.com/p/AF1QipMaQuGEUsgG5vHNzBzObZv8xwWE034VKD9NrnCS=w408-h306-k-no,220.0,33,2025-05-29T00:53:59.591Z,comercio
J&L FERRETERIA,Tienda de herramientas,,Av. Saavedra 151,+54 2281 31-0063,Benito Ju치rez,Provincia de Buenos Aires,-37.6758401,-59.813088,4.5,68,https://lh3.googleusercontent.com/p/AF1QipMJhjlbfTjfxw-X7ZkIHp9qBzp28oZX5l22WDK9=w408-h725-k-no,36.0,28,2025-05-29T00:53:59.591Z,comercio
Joyero Relojero,Joyer칤a,,Av. Libertad 70,,Benito Ju치rez,Provincia de Buenos Aires,-37.672731,-59.8059855,,69,https://streetviewpixels-pa.googleapis.com/v1/thumbnail?panoid=93A0CGKjtJ-lpNpL84dzGA&cb_client=search.gws-prod.gps&w=408&h=240&yaw=227.22826&pitch=0&thumbfov=100,1.0,0,2025-05-29T00:53:59.591Z,comercio
DESPENSA ROM-BAU 游놃,Tienda general,,Avellaneda 76,,Benito Ju치rez,Provincia de Buenos Aires,-37.6680048,-59.8005746,,70,https://lh3.googleusercontent.com/gps-cs-s/AC9h4nq5Te60LlD3dckLMo-SRdpjLB5ehwhhJAXUBy1qhBDJO3zZk1nXMoLaHm6GpsenGs5ikVA5HaDIwfEFi13DPStl1KBRrmae6jfWmg68O7RPetUvFxjv-QbSP40ft556ptMMq6T2yw=w408-h725-k-no,2.0,0,2025-05-29T00:53:59.591Z,comercio
MINIMERCADO EL PAISA,Tienda de alimentaci칩n,,,,Benito Ju치rez,Provincia de Buenos Aires,-37.6723151,-59.7996525,,72,https://streetviewpixels-pa.googleapis.com/v1/thumbnail?panoid=a2eveH-xMNHmLEqKgfoBaQ&cb_client=search.gws-prod.gps&w=408&h=240&yaw=124.35906&pitch=0&thumbfov=100,1.0,0,2025-05-29T00:53:59.591Z,comercio
MINIMERCADO EL PAISA,Tienda de alimentaci칩n,,,,Benito Ju치rez,Provincia de Buenos Aires,-37.6707138,-59.8132244,,73,https://streetviewpixels-pa.googleapis.com/v1/thumbnail?panoid=z47TZTRwR4idAr2zRNlV-g&cb_client=search.gws-prod.gps&w=408&h=240&yaw=347.1494&pitch=0&thumbfov=100,1.0,0,2025-05-29T00:53:59.591Z,comercio
Fruteria La Sole,Tienda de alimentaci칩n,,Av. Alsina 88,+54 9 2281 55-1468,Benito Ju치rez,Provincia de Buenos Aires,-37.674564,-59.8029164,4.8,74,https://streetviewpixels-pa.googleapis.com/v1/thumbnail?panoid=0ay9pOGN8JXeHoFbTc2mhg&cb_client=search.gws-prod.gps&w=408&h=240&yaw=35.408787&pitch=0&thumbfov=100,1.0,8,2025-05-29T00:53:59.591Z,comercio
Tienda Nican,Tienda de ropa,,Av. Alsina 108,+54 2281 54-9252,Benito Ju치rez,Provincia de Buenos Aires,-37.6749023,-59.8027317,5.0,75,https://lh3.googleusercontent.com/p/AF1QipN1j-8wIbKs695v_CuSyNVm3KqeeIAZpqDJ4UG3=w408-h544-k-no,4.0,4,2025-05-29T00:53:59.591Z,comercio
LIBRERIA KIOSCO Libertad,Librer칤a,,Av. Otamendi,,Benito Ju치rez,Provincia de Buenos Aires,-37.6784738,-59.8009817,,76,https://streetviewpixels-pa.googleapis.com/v1/thumbnail?panoid=Ig0WtdFM3C9JgYPrgiDWPQ&cb_client=search.gws-prod.gps&w=408&h=240&yaw=246.08508&pitch=0&thumbfov=100,1.0,0,2025-05-29T00:53:59.592Z,comercio
Don Hector,Tienda de accesorios para autom칩viles,,"7020, Juan Bautista Alberdi 18",+54 2281 30-9292,Benito Ju치rez,Provincia de Buenos Aires,-37.6691112,-59.8097359,,77,https://lh3.googleusercontent.com/gps-cs-s/AC9h4nrv8E0xg1nWeB8jeJclA9SR4Mq6VC61I2B8HvJ1ZHTiRXr7cE7FE4_gMesqdDIw75pQuQDcVA9JMGsvO6xM5m7oBKXgEhx3QF5wsrnQNsBZNp1rAWVFZsK2YbYQm8woXxTHLyr5=w408-h544-k-no,4.0,0,2025-05-29T00:53:59.592Z,comercio
Okelyon,Tienda de ropa,,Av. Libertad 73,,Benito Ju치rez,Provincia de Buenos Aires,-37.6724064,-59.8059168,,78,https://streetviewpixels-pa.googleapis.com/v1/thumbnail?panoid=pWx2dt4ztCMGeKBlI2vHxw&cb_client=search.gws-prod.gps&w=408&h=240&yaw=41.58287&pitch=0&thumbfov=100,1.0,0,2025-05-29T00:53:59.592Z,comercio
Tienda Lopez,Tienda de ropa,https://www.facebook.com/tiendas.lopez.1?mibextid=ZbWKwL,Av. Libertad 115,,Benito Ju치rez,Provincia de Buenos Aires,-37.6717951,-59.8065604,3.0,80,https://streetviewpixels-pa.googleapis.com/v1/thumbnail?panoid=AJZ_vplewjHSAmC07hkilQ&cb_client=search.gws-prod.gps&w=408&h=240&yaw=38.549927&pitch=0&thumbfov=100,1.0,2,2025-05-29T00:53:59.592Z,comercio
Cittadini Vinicio,,,Av. Uruguay 8,+54 2292 45-2226,Benito Ju치rez,Provincia de Buenos Aires,-37.6740483,-59.8037377,3.1,10,https://streetviewpixels-pa.googleapis.com/v1/thumbnail?panoid=l-g86WTcpE1MdQVfstZQyw&cb_client=search.gws-prod.gps&w=408&h=240&yaw=8.442884&pitch=0&thumbfov=100,1.0,8,2025-05-29T00:54:00.308Z,repuestos
Reino del sabor,Panader칤a,,San Antonio 306B7020,,Benito Ju치rez,Provincia de Buenos Aires,-37.6802872,-59.8029567,,61,https://streetviewpixels-pa.googleapis.com/v1/thumbnail?panoid=HW-xIZxs4UbPkGr4SX-KrQ&cb_client=search.gws-prod.gps&w=408&h=240&yaw=44.354256&pitch=0&thumbfov=100,1.0,0,2025-05-29T00:54:00.429Z,tienda
Grangy's Alimenta La Vida,Tienda de alimentaci칩n,,,,Benito Ju치rez,Provincia de Buenos Aires,-37.6710107,-59.803281,,65,https://streetviewpixels-pa.googleapis.com/v1/thumbnail?panoid=o2bezwmHR2_t53J4KLljfA&cb_client=search.gws-prod.gps&w=408&h=240&yaw=14.853&pitch=0&thumbfov=100,1.0,0,2025-05-29T00:54:00.429Z,tienda
Dietetica NatureHouse,Tienda de alimentaci칩n,,Gral. Paz 217,,Benito Ju치rez,Provincia de Buenos Aires,-37.6800305,-59.8063037,,66,https://streetviewpixels-pa.googleapis.com/v1/thumbnail?panoid=_C7O8OmJhPJe08ahQmHHNw&cb_client=search.gws-prod.gps&w=408&h=240&yaw=323.79053&pitch=0&thumbfov=100,1.0,0,2025-05-29T00:54:00.429Z,tienda
Lacteos Lu Za Zul,Tienda de alimentaci칩n,,Av. Libertad 274,,Benito Ju치rez,Provincia de Buenos Aires,-37.6699527,-59.8095821,,68,https://streetviewpixels-pa.googleapis.com/v1/thumbnail?panoid=GS91f0nEcu0WHVV0YyOk0g&cb_client=search.gws-prod.gps&w=408&h=240&yaw=216.27542&pitch=0&thumbfov=100,1.0,0,2025-05-29T00:54:00.430Z,tienda
Casa Silvia (Art. para el hogar),Tienda de art칤culos para el hogar,,Av. Libertad 260,+54 810-222-2424,Benito Ju치rez,Provincia de Buenos Aires,-37.6702266,-59.8092574,4.6,70,https://lh3.googleusercontent.com/p/AF1QipMU5C9ubq-uJycXfvuLaSOw-en55dHtlTCfXAY=w426-h240-k-no,27.0,166,2025-05-29T00:54:00.430Z,tienda
Polleria Acuarela,Tienda de aves de corral,,Av. Alsina 203,+54 2281 55-1267,Benito Ju치rez,Provincia de Buenos Aires,-37.6762295,-59.8012266,4.5,71,https://lh3.googleusercontent.com/p/AF1QipMDf8qUMqlTIfsjuj9poyFUugk1b_okfAbG7V9E=w408-h306-k-no,6.0,28,2025-05-29T00:54:00.430Z,tienda
Don Felipe,Panader칤a,,Mariano Moreno,,Benito Ju치rez,Provincia de Buenos Aires,-37.672246,-59.8085162,,72,https://streetviewpixels-pa.googleapis.com/v1/thumbnail?panoid=eO08bFLQxmtSNuxhMq9S9Q&cb_client=search.gws-prod.gps&w=408&h=240&yaw=309.5754&pitch=0&thumbfov=100,1.0,0,2025-05-29T00:54:00.430Z,tienda
Minimercado Italia,Tienda de alimentaci칩n,,,,Benito Ju치rez,Provincia de Buenos Aires,-37.6700732,-59.807064,,75,https://streetviewpixels-pa.googleapis.com/v1/thumbnail?panoid=v1_Ijmqg7n5lsjGEPG-Jhg&cb_client=search.gws-prod.gps&w=408&h=240&yaw=126.90739&pitch=0&thumbfov=100,1.0,0,2025-05-29T00:54:00.430Z,tienda
Modas Flori-Sur,Tienda de ropa,,,,Benito Ju치rez,Provincia de Buenos Aires,-37.6770778,-59.8022271,,76,https://streetviewpixels-pa.googleapis.com/v1/thumbnail?panoid=u5mcSVwFBE2jiM3UGyyOpw&cb_client=search.gws-prod.gps&w=408&h=240&yaw=96.35756&pitch=0&thumbfov=100,1.0,0,2025-05-29T00:54:00.430Z,tienda
Guapa's indumentaria,Tienda de ropa de mujer,https://instagram.com/guapass_indumentaria?utm_source=ig_profile_share&igshid=163isy3d66jdj,Gral. Paz 213,,Benito Ju치rez,Provincia de Buenos Aires,-37.6799813,-59.8061542,4.8,77,https://lh3.googleusercontent.com/p/AF1QipNJLErfcGH6dKn2bTWqRFzeOV1nDI1HPSiNVDX-=w408-h544-k-no,1023.0,26,2025-05-29T00:54:00.430Z,tienda
Pa alera Heidi,Tienda de ropa,,Chacabuco 42,+54 2292 45-1817,Benito Ju치rez,Provincia de Buenos Aires,-37.6730999,-59.8028112,4.0,80,https://streetviewpixels-pa.googleapis.com/v1/thumbnail?panoid=gYaF6yY0cXGY3ku4UKKPow&cb_client=search.gws-prod.gps&w=408&h=240&yaw=64.39609&pitch=0&thumbfov=100,1.0,2,2025-05-29T00:54:00.430Z,tienda
JAULA,Tienda de ropa,,Av. Zabalza 163,,Benito Ju치rez,Provincia de Buenos Aires,-37.6721583,-59.8086549,,82,https://streetviewpixels-pa.googleapis.com/v1/thumbnail?panoid=BPO9Hiokd5jdYUMjLd340A&cb_client=search.gws-prod.gps&w=408&h=240&yaw=32.313118&pitch=0&thumbfov=100,1.0,0,2025-05-29T00:54:00.617Z,comercio
FRUTERIA VERDULERIA CENZO,Tienda de alimentaci칩n,,,,Benito Ju치rez,Provincia de Buenos Aires,-37.6679824,-59.8048236,,85,https://streetviewpixels-pa.googleapis.com/v1/thumbnail?panoid=379CHlkSbSAgEZNaUanDgQ&cb_client=search.gws-prod.gps&w=408&h=240&yaw=307.65277&pitch=0&thumbfov=100,1.0,0,2025-05-29T00:54:00.617Z,comercio
EUREKA,Librer칤a,,Av. Zabalza 81,,Benito Ju치rez,Provincia de Buenos Aires,-37.6732056,-59.8071787,,86,https://streetviewpixels-pa.googleapis.com/v1/thumbnail?panoid=OUevyB-U-4_26lNcvj8CEA&cb_client=search.gws-prod.gps&w=408&h=240&yaw=32.255497&pitch=0&thumbfov=100,1.0,0,2025-05-29T00:54:00.617Z,comercio
Carnicerias Belio,Carnicer칤a,,Av. Alsina 178,+54 2292 45-3104,Benito Ju치rez,Provincia de Buenos Aires,-37.6758347,-59.8015327,2.0,87,https://lh3.googleusercontent.com/gps-cs-s/AC9h4nqVPPddk1Bv-IhF4zenaGIm6Eldvp03e7_eUpxYcBljpXVqwRViP0fbJaUwuyOdP_QHUAS_NUFp6E3xJIH4f4xKXvTYuBu_RptA49UwdyqmeWYX6EfNA3oJ9k7JbAWTV7jYzGMaEA=w408-h544-k-no,2.0,2,2025-05-29T00:54:00.617Z,comercio
La Librer칤a,Librer칤a,,Av. Libertad 125,,Benito Ju치rez,Provincia de Buenos Aires,-37.6717171,-59.806677,4.7,91,https://lh3.googleusercontent.com/gps-cs-s/AC9h4nouo23HgvP8zQIVXSFvYpxElIg_Ve_gN3F0HOpUVimwnOPcUB384HE7_NS0ioawIk75xlVz3AIqwJsCBZDwczXWbc4ypbhVqp6qWmHGZtDwbFrs8wkFV3T4KBIAXrLpC7CSP6LV_g=w428-h240-k-no,2.0,78,2025-05-29T00:54:00.617Z,comercio
Retaceria Morenito Precios Directo de Fabrica,Tienda de telas,,Av. Urquiza 28,+54 2292 45-1803,Benito Ju치rez,Provincia de Buenos Aires,-37.6728039,-59.804355,,92,https://streetviewpixels-pa.googleapis.com/v1/thumbnail?panoid=dDsO0jnqmfV7ETCXi6RRMA&cb_client=search.gws-prod.gps&w=408&h=240&yaw=316.3885&pitch=0&thumbfov=100,1.0,0,2025-05-29T00:54:00.617Z,comercio
Ego,Tienda de ropa,,C. Zibecchi 55,,Benito Ju치rez,Provincia de Buenos Aires,-37.67185,-59.8043096,,95,https://streetviewpixels-pa.googleapis.com/v1/thumbnail?panoid=ZedHpOK6UIEzJ4gUiog5_w&cb_client=search.gws-prod.gps&w=408&h=240&yaw=123.58505&pitch=0&thumbfov=100,1.0,0,2025-05-29T00:54:00.617Z,comercio
Puelche Sport,Tienda de deportes,https://wa.me/message/ABDOKR2S2FCMB1,Av. Constituci칩n,+54 2281 32-1971,Benito Ju치rez,Provincia de Buenos Aires,-37.6747343,-59.8163911,,96,https://lh3.googleusercontent.com/p/AF1QipOEP7IthIZ3vdcbzm4ficA_GgSq8YRGYA_dz8I9=w408-h725-k-no,5.0,0,2025-05-29T00:54:00.617Z,comercio
Salderia Raul,Tienda de telas,https://www.facebook.com/salderia.raul,Av. Constituci칩n 1 49,+54 11 7081-2863,Benito Ju치rez,Provincia de Buenos Aires,-37.6696373,-59.8102872,4.4,97,https://lh3.googleusercontent.com/p/AF1QipMQhA5dtQJnk6FX7m2QR_akMmW2EQzfMHioMJrP=w408-h499-k-no,227.0,112,2025-05-29T00:54:00.617Z,comercio
Copii Libreria,Tienda de material escolar,,Av. Libertad 93,+54 2281 30-0345,Benito Ju치rez,Provincia de Buenos Aires,-37.6721801,-59.8062507,5.0,98,https://streetviewpixels-pa.googleapis.com/v1/thumbnail?panoid=nMXxRAVryNRrwIwP-dV91A&cb_client=search.gws-prod.gps&w=408&h=240&yaw=51.087883&pitch=0&thumbfov=100,1.0,1,2025-05-29T00:54:00.617Z,comercio
Carnes Dagusan,Carnicer칤a,,Av. Libertad 300-348,,Benito Ju치rez,Provincia de Buenos Aires,-37.6689359,-59.8106867,5.0,81,https://streetviewpixels-pa.googleapis.com/v1/thumbnail?panoid=HsCuMSqNT5o8jbFdrByp3A&cb_client=search.gws-prod.gps&w=408&h=240&yaw=345.48904&pitch=0&thumbfov=100,1.0,2,2025-05-29T00:54:01.274Z,tienda
El Sue o de Tu Bebe Nanos,Tienda de ropa,,C. Zibecchi 26,+54 2292 45-4959,Benito Ju치rez,Provincia de Buenos Aires,-37.6723109,-59.8052314,5.0,82,https://streetviewpixels-pa.googleapis.com/v1/thumbnail?panoid=gzBpkl5lqo8LUSbarxsuGw&cb_client=search.gws-prod.gps&w=408&h=240&yaw=307.6427&pitch=0&thumbfov=100,1.0,1,2025-05-29T00:54:01.274Z,tienda
del centro PINTURER칈AS,Tienda de pinturas,,,,Benito Ju치rez,Provincia de Buenos Aires,-37.6737944,-59.8070288,,85,https://streetviewpixels-pa.googleapis.com/v1/thumbnail?panoid=gVilwInFULZeiiUlUhidWg&cb_client=search.gws-prod.gps&w=408&h=240&yaw=242.92087&pitch=0&thumbfov=100,1.0,0,2025-05-29T00:54:01.274Z,tienda
"Panader칤a ""mi muneca""",Panader칤a,,Av. San Mart칤n 161,+54 2281 55-0146,Benito Ju치rez,Provincia de Buenos Aires,-37.6764033,-59.8089231,4.1,87,https://streetviewpixels-pa.googleapis.com/v1/thumbnail?panoid=JRLMWMwAbB2RE29UzzOzHQ&cb_client=search.gws-prod.gps&w=408&h=240&yaw=308.22653&pitch=0&thumbfov=100,1.0,8,2025-05-29T00:54:01.274Z,tienda
malaika,Tienda de ropa,,,,Benito Ju치rez,Provincia de Buenos Aires,-37.6773059,-59.8025122,,88,https://streetviewpixels-pa.googleapis.com/v1/thumbnail?panoid=89BPfdOxhHBZLfChnDHMAw&cb_client=search.gws-prod.gps&w=408&h=240&yaw=163.83302&pitch=0&thumbfov=100,1.0,0,2025-05-29T00:54:01.274Z,tienda
Besema Store,Tienda de ropa,,Mariano Moreno 270,+54 2281 59-3478,Benito Ju치rez,Provincia de Buenos Aires,-37.6764807,-59.813458,,89,https://lh3.googleusercontent.com/p/AF1QipOXiqOdu5Y5Wnv1L1H5ZbWBuEBUGc_-MZt8d4qP=w408-h306-k-no,6.0,0,2025-05-29T00:54:01.274Z,tienda
Perfumer칤a Fix,Perfumer칤a,,Av. Libertad 149,,Benito Ju치rez,Provincia de Buenos Aires,-37.6716195,-59.8069953,5.0,90,https://lh3.googleusercontent.com/p/AF1QipNolwx7anR5AgTZmu6dGwLQSB4JG3CZ97nN3ByV=w408-h306-k-no,18.0,2,2025-05-29T00:54:01.274Z,tienda
Panaderia La terminal,Panader칤a,,Rivadavia 249,,Benito Ju치rez,Provincia de Buenos Aires,-37.6767262,-59.8120955,4.1,91,https://streetviewpixels-pa.googleapis.com/v1/thumbnail?panoid=aRpOQuNYCxOQZUGOIikD5A&cb_client=search.gws-prod.gps&w=408&h=240&yaw=83.10007&pitch=0&thumbfov=100,1.0,42,2025-05-29T00:54:01.274Z,tienda
"Gelateria la italiana, helader칤a artesanal",Helader칤a,https://www.instagram.com/gelaterialaitaliana?igsh=emV2c25pY21vbjg3&utm_source=qr,Av. Libertad 179,+54 9 2281 31-4404,Benito Ju치rez,Provincia de Buenos Aires,-37.6709532,-59.8076172,5.0,92,https://lh3.googleusercontent.com/p/AF1QipOzRMrmHK1GMc0BnTIB971d-5rtPXjLmJnsvsEH=w408-h544-k-no,10.0,2,2025-05-29T00:54:01.274Z,tienda
Picos DEPORTES,Tienda de ropa de deportes,,C. Zibecchi 2-48,,Benito Ju치rez,Provincia de Buenos Aires,-37.6723491,-59.8051948,4.0,93,https://streetviewpixels-pa.googleapis.com/v1/thumbnail?panoid=gzBpkl5lqo8LUSbarxsuGw&cb_client=search.gws-prod.gps&w=408&h=240&yaw=295.80972&pitch=0&thumbfov=100,1.0,36,2025-05-29T00:54:01.274Z,tienda
PUMBA,Tienda de ropa interior,,Gral. las Heras 19 B7020BRA,,Benito Ju치rez,Provincia de Buenos Aires,-37.6699504,-59.8084252,,95,https://streetviewpixels-pa.googleapis.com/v1/thumbnail?panoid=yY7AXD2gfG4VCUfwxgm_mw&cb_client=search.gws-prod.gps&w=408&h=240&yaw=139.25922&pitch=0&thumbfov=100,1.0,0,2025-05-29T00:54:01.274Z,tienda
Pintureria Colorshop,Tienda de pinturas,http://www.colorshop.com.ar/,Av. Libertad 333,+54 2281 49-0870,Benito Ju치rez,Provincia de Buenos Aires,-37.6690601,-59.810311,4.8,96,https://lh3.googleusercontent.com/gps-cs-s/AC9h4nq2iE2kRdQoYLnRYL4HD4CM-YAMT5Il0HAa3wss2haprCRe1K3dXqvm-Cvsut4ndMgiNUce1o29Fl_wlxzf0qUt9mBb280uGyem7aNBsvGMLof0hvM3giN5Rqqk9ad2AWFlGdwZrQ=w408-h306-k-no,12.0,25,2025-05-29T00:54:01.274Z,tienda
Algo Bonito,Tienda de ropa,,Av. Libertad 19,,Benito Ju치rez,Provincia de Buenos Aires,-37.673081,-59.8050437,1.0,97,https://lh3.googleusercontent.com/gps-cs-s/AC9h4nrlOMhxqYlxBPdPoOjY9svoL56dyH8XTlmmVuJbcCexzMQcm1Abew-SP-jpjQ4O-w2G52-vO56M2bBIQtaxMKh_XG5mEFguRbJow5Zhj6UwbtE0ynD7I9fczk_W19C_2GfpP1WwXQ=w408-h306-k-no,4.0,2,2025-05-29T00:54:01.274Z,tienda
Diaz Martin J,Carnicer칤a,,Chacabuco 290,+54 2292 45-3300,Benito Ju치rez,Provincia de Buenos Aires,-37.6764386,-59.7984998,4.0,99,https://lh3.googleusercontent.com/gps-cs-s/AC9h4nqlTdHm3kgpiQbwSt7zAUCwrAtq1BbJ61cFYfFXLNA3tX3lPHd4cevycYBScjHRxO_Fj6qG5W1ijCbYvd4plwSHrOwLw6bpEQCDn5fQb1ORthYovEetSiNjSQoK8HghdQfPgsxq=w408-h544-k-no,16.0,1,2025-05-29T00:54:01.274Z,tienda
Black Fleece,Tienda de ropa,,Pedro Diaz Pumara 27,+54 2292 45-2181,Benito Ju치rez,Provincia de Buenos Aires,-37.670527,-59.809664,4.5,100,https://lh3.googleusercontent.com/p/AF1QipPQlGUmhZr-2n4A3U9LPBbZsgtK9YNIEZlMypiv=w408-h509-k-no,5.0,47,2025-05-29T00:54:01.275Z,tienda
Ador칠 Boutique,Tienda de ropa de mujer,https://www.instagram.com/adoreboutiqueok?igsh=cHJ2bGNvaXAwemky&utm_source=qr,Av. Libertad 97,,Benito Ju치rez,Provincia de Buenos Aires,-37.6722279,-59.806176,5.0,101,https://streetviewpixels-pa.googleapis.com/v1/thumbnail?panoid=6V_VyaugdZASiSYQ5UHXuQ&cb_client=search.gws-prod.gps&w=408&h=240&yaw=42.622433&pitch=0&thumbfov=100,1.0,1,2025-05-29T00:54:01.424Z,comercio
La Pulga Loca,Tienda de ropa,,Av. Libertad 59,,Benito Ju치rez,Provincia de Buenos Aires,-37.6725581,-59.8057621,,102,https://streetviewpixels-pa.googleapis.com/v1/thumbnail?panoid=93A0CGKjtJ-lpNpL84dzGA&cb_client=search.gws-prod.gps&w=408&h=240&yaw=43.93377&pitch=0&thumbfov=100,1.0,0,2025-05-29T00:54:01.425Z,comercio
Ms moda unisex,Tienda de ropa,,Av. Libertad 247,+54 2281 32-3967,Benito Ju치rez,Provincia de Buenos Aires,-37.6702043,-59.8090044,,103,https://lh3.googleusercontent.com/p/AF1QipOWYvwDocbyNo1ze7TDpJ9VFdNVrExc1WJFk6ik=w408-h725-k-no,6.0,0,2025-05-29T00:54:01.425Z,comercio
Cotillon MICKEY,Tienda de alimentaci칩n,,"B7020CZA, Almte. Brown 1-49",,Benito Ju치rez,Provincia de Buenos Aires,-37.6724185,-59.8036875,4.5,106,https://streetviewpixels-pa.googleapis.com/v1/thumbnail?panoid=4tH0inT9WMyqf6O0aNil-g&cb_client=search.gws-prod.gps&w=408&h=240&yaw=13.722517&pitch=0&thumbfov=100,1.0,4,2025-05-29T00:54:01.425Z,comercio
Dulces Sue침os - Sheila Vaccarezza,Tienda de art칤culos para decoraci칩n en pasteler칤a,,,+54 2281 40-8286,Benito Ju치rez,Provincia de Buenos Aires,-37.6694428,-59.8094838,,107,https://lh3.googleusercontent.com/gps-cs-s/AC9h4nrV4PTj4lQ90ObycWCqNclWrTFF-OlGF00c8hEmHcBBMMU56fxtfDaAOCALUpM3qH-vSAxz9HV1bNK5HeFAiq2f881JsxyCkDp_ejpMt7AS5K0fc8O--J-qGrsRGcIluxAz3hy07Q=w408-h544-k-no,5.0,0,2025-05-29T00:54:01.425Z,comercio
Ethel Modas,Tienda de ropa,,Av. Libertad 14,+54 2292 45-4243,Benito Ju치rez,Provincia de Buenos Aires,-37.673391,-59.8051381,,108,https://streetviewpixels-pa.googleapis.com/v1/thumbnail?panoid=OFIPTlmASCjzRCHnyOXdBg&cb_client=search.gws-prod.gps&w=408&h=240&yaw=234.93643&pitch=0&thumbfov=100,1.0,0,2025-05-29T00:54:01.425Z,comercio
EN SUE칌OS,Tienda de ropa,,Gral. Paz 185,+54 249 460-0790,Benito Ju치rez,Provincia de Buenos Aires,-37.6795179,-59.8055314,,110,https://lh3.googleusercontent.com/gps-cs-s/AC9h4no-pfR4LhvnlKXTzbro8ZYTkPpr1gsxM9VkHdNdmg5bmw9p-61wTVCzzhmnJc1rlktdsNL-hcUKIg9_bDkr8aEc-P5jh0ANwQT5Wa6x0RMjBM9lorTnByU4h6CDTqKFMHKWr8DN=w408-h306-k-no,8.0,0,2025-05-29T00:54:01.425Z,comercio
Carioca,Zapater칤a,,Av. Libertad 131,,Benito Ju치rez,Provincia de Buenos Aires,-37.6716816,-59.8069044,,111,https://streetviewpixels-pa.googleapis.com/v1/thumbnail?panoid=OMKDg8E4_EsjT7Q48eOf_A&cb_client=search.gws-prod.gps&w=408&h=240&yaw=32.573494&pitch=0&thumbfov=100,1.0,0,2025-05-29T00:54:01.425Z,comercio
Rodriggi,Tienda de ropa,,Av. Zabalza 381,+54 2281 30-2905,Benito Ju치rez,Provincia de Buenos Aires,-37.6692071,-59.8122821,5.0,112,https://lh3.googleusercontent.com/gps-cs-s/AC9h4nrn4IeA46pMmaSsdwe1aCHV_PruOLyVdPVQCy7_RFIGi8wsmvkNcodv9g6wOaRgmaKcrcz_nyu6eB4KmAQeNVZAdpuv9VcEs7Az98t1f2b4hBemui8A7DzQ8Y3XPHyOL7vNV0BN=w408-h725-k-no,2.0,1,2025-05-29T00:54:01.425Z,comercio
LOS PEQUES,Zapater칤a,https://cutt.ly/kfaF1bh,Corrientes 287,+54 2281 56-8487,Benito Ju치rez,Provincia de Buenos Aires,-37.6703058,-59.7951539,,118,https://lh3.googleusercontent.com/p/AF1QipPuQhnHXN6JjDnEfuGCkWSb_kRB2BCw7_oNVb-o=w427-h240-k-no,2.0,0,2025-05-29T00:54:01.425Z,comercio
"Ferreteria ""El Negro""",Ferreter칤a,https://www.facebook.com/elnegroferreteria,Almte. Brown 49,,Benito Ju치rez,Provincia de Buenos Aires,-37.6719749,-59.8045663,4.9,119,https://lh3.googleusercontent.com/p/AF1QipNr29lYxm6D1muR0njUJWSKK2s75r3aIpw1H247=w408-h272-k-no,2.0,62,2025-05-29T00:54:01.425Z,comercio
Cientochenta춿,Cafeter칤a,http://cientochentagrados.com.ar/menu/,Almte. Brown 2,+54 2281 31-7816,Benito Ju치rez,Provincia de Buenos Aires,-37.6725812,-59.8038007,4.4,120,https://lh3.googleusercontent.com/p/AF1QipNNq-ziGky7ovus1jBva6Q9vtVueLH4akk6rGBR=w408-h544-k-no,567.0,224,2025-05-29T00:54:01.425Z,comercio
La Herreria,Proveedor de equipos agr칤colas,https://www.facebook.com/La-Herreria-104610158703202/,Bartolom칠 Mitre 194,+54 2292 45-1291,Benito Ju치rez,Provincia de Buenos Aires,-37.6778282,-59.8083288,4.8,121,https://lh3.googleusercontent.com/p/AF1QipPHKE7tdJS73W-HPDY3b0F1x959hQ3fmDZE2yPf=w426-h240-k-no,13.0,6,2025-05-29T00:54:02.235Z,comercio
Maderas Elizalde,Establecimiento de venta de madera,https://www.oblak.com.ar/,"Domingo Faustino Sarmiento 17, B7020AKC",+54 2281 65-9364,Benito Ju치rez,Provincia de Buenos Aires,-37.6689899,-59.8114013,4.7,122,https://lh3.googleusercontent.com/gps-cs-s/AC9h4noDHz1OOD5S1VccIaEZ4hAvDFQZm0UY81P5kO6Jn03xzSaLcdUTk3RTYc_gcNWmrMVfLDYO6amt-2zYm2_ma6JxkTMSaQRwvfzCKwfcL8sIyI4viZKkydeFnCEn8NhsR5_zULEV=w426-h240-k-no,16.0,15,2025-05-29T00:54:02.235Z,comercio
SC sal칩n de belleza y perfumeria,Centro de est칠tica,,Av. Libertad 191 Local 1,+54 2281 55-6110,Benito Ju치rez,Provincia de Buenos Aires,-37.670846,-59.8078541,5.0,123,https://lh3.googleusercontent.com/gps-cs-s/AC9h4nphO5J7S05fLcLhztMvtFfGdsjEbgJeSKwiYxAgqX2bkh2XRUf_xpao8a0eDvGvK4ofxPJeNpJhMw6Pbj7I5NzzBbsE_5XiEzgG3W_jIzE2veowERBHBtHlx2S9z0d0g6XBVjkYtQ=w408-h577-k-no,5.0,1,2025-05-29T00:54:02.235Z,comercio
"TIENDA ""FLORIDA""",Tienda de ropa,,"Alsina, Av. Uruguay y",+54 2983 46-4555,Benito Ju치rez,Provincia de Buenos Aires,-37.6742031,-59.8036601,,126,https://streetviewpixels-pa.googleapis.com/v1/thumbnail?panoid=bRybQCLIZXf64Ul3WwPYBw&cb_client=search.gws-prod.gps&w=408&h=240&yaw=102.32737&pitch=0&thumbfov=100,1.0,0,2025-05-29T00:54:02.235Z,comercio
Suma Cr칠ditos Benito Ju치rez,Instituci칩n financiera,,Av. Alsina 75,+54 2292 40-0053,Benito Ju치rez,Provincia de Buenos Aires,-37.6746023,-59.803721,1.0,128,https://lh3.googleusercontent.com/p/AF1QipM2yXMQpTJHYDuQjnhOrRnfe7QhSkZoLKEOacxK=w426-h240-k-no,5.0,1,2025-05-29T00:54:02.235Z,comercio
Divas Original,Tienda de ropa de mujer,https://www.instagram.com/divas.original/,Av. Libertad 41,+54 2281 50-0432,Benito Ju치rez,Provincia de Buenos Aires,-37.6727778,-59.8053275,,129,https://lh3.googleusercontent.com/p/AF1QipOHAiYCGk0L5imnAxQIPgEcVTvPLIOc_Qfc79Vx=w408-h408-k-no,3.0,0,2025-05-29T00:54:02.235Z,comercio
Pekes ropa para chicos,Tienda de ropa,,Av. Libertad 133,,Benito Ju치rez,Provincia de Buenos Aires,-37.6715248,-59.8068872,,130,https://streetviewpixels-pa.googleapis.com/v1/thumbnail?panoid=_EEsp7jUrXO8XYfJkn0ykg&cb_client=search.gws-prod.gps&w=408&h=240&yaw=34.36223&pitch=0&thumbfov=100,1.0,0,2025-05-29T00:54:02.235Z,comercio
Farmacia Moreno,Farmacia,,Av. Libertad 280,+54 2292 45-2001,Benito Ju치rez,Provincia de Buenos Aires,-37.6699339,-59.8097242,4.7,133,https://lh3.googleusercontent.com/gps-cs-s/AC9h4nr-NuT3VeoGBqCOerq10OEglqRDVmOGGJyy-LQIarUBOjKloTMuPWDXzP--BoqyiO5M83WuWDRx1SlLEBtGz7G-d4pecW4RamTJsho8VcJhP1g_axsdwfcOK2EUsH_vknGMtKo=w408-h306-k-no,2.0,15,2025-05-29T00:54:02.235Z,comercio
Pintureria Urroz,Tienda de pinturas,,Av. Libertad 184,+54 2281 46-4247,Benito Ju치rez,Provincia de Buenos Aires,-37.6712805,-59.8079939,5.0,134,https://lh3.googleusercontent.com/gps-cs-s/AC9h4nqnHsU5GXHplLGXndD4PSZUIjVqlI5QI6LsqZGXkBIZ8MkG9rPAKDQFERPCF8MSqD3e_gtWMLHVJwWcaNojCfVkcmuEQjn7ZTZQltInv9rDnNBr9DQ0vB8qVQGUsBWI_KtJZ83M=w408-h408-k-no,2.0,1,2025-05-29T00:54:02.236Z,comercio
Lubricentro Sarmiento,Tienda de accesorios para autom칩viles,,Domingo Faustino Sarmiento 28,+54 9 2281 49-2729,Benito Ju치rez,Provincia de Buenos Aires,-37.6695464,-59.8112157,5.0,135,https://streetviewpixels-pa.googleapis.com/v1/thumbnail?panoid=mJJ6I9Z1wcPsOJ9lCYk03g&cb_client=search.gws-prod.gps&w=408&h=240&yaw=130.28769&pitch=0&thumbfov=100,1.0,1,2025-05-29T00:54:02.236Z,comercio
VALENTINO Calzados&Accesorios,Zapater칤a,,Cayetano Zibecchi 16,,Buenos Aires,Provincia de Buenos Aires,-37.6724374,-59.8053239,,136,https://streetviewpixels-pa.googleapis.com/v1/thumbnail?panoid=HYpZyK2LpOIBMfDgOWp8JQ&cb_client=search.gws-prod.gps&w=408&h=240&yaw=341.30997&pitch=0&thumbfov=100,1.0,0,2025-05-29T00:54:02.236Z,comercio
Rodriguez Pesca,Tienda de art칤culos de pesca,https://www.facebook.com/rodriguez.pesca.16,"ASA, Lavalle 11",+54 2281 34-9212,Benito Ju치rez,Provincia de Buenos Aires,-37.672968,-59.8059941,4.3,138,https://lh3.googleusercontent.com/p/AF1QipMUzd_sDmftmzNzl0CP-Ppe4FABbO1trk-CELFW=w408-h277-k-no,59.0,21,2025-05-29T00:54:02.236Z,comercio
Manda'le Fruta. Fruteria Verduleria Y Almac칠n,Fruter칤a,,Av. Libertad y,+54 2281 59-7238,alberti,Provincia de Buenos Aires,-37.6693375,-59.8099709,4.2,139,https://lh3.googleusercontent.com/gps-cs-s/AC9h4novc5iYIR4ugzMfJnvFtDsEP6EBJLosP1YbfkGw1eUvJ13U2pZcgbSDRL6fYXNPRxI_I6w8DgyeblY8cMHWPwGdak0CCj4OxKg9ZjDf_QsovSZbn6oKls1P0fSmRgIyH5JDjmjC=w408-h306-k-no,753.0,9,2025-05-29T00:54:02.236Z,comercio
Chalas Music Store,Tienda de instrumentos musicales,http://instagram.com/chalasmusicstore,Av. Libertad 141,+54 2292 45-1409,Benito Ju치rez,Provincia de Buenos Aires,-37.6714538,-59.8069848,4.7,140,https://lh3.googleusercontent.com/gps-cs-s/AC9h4noVlI8hucoBXXSz9bfXumW1D6kwjEtSwhcwqG0aCnkDfJNTF1bW2U1Qt1h8Z0KP6AXxYfBsQvnosZscS3PoulGEf5Qj0GjyWccrTHT9IC1DImYrYE8OIh6S-DhzaYdBrkNqaFfS=w408-h263-k-no,41.0,21,2025-05-29T00:54:02.236Z,comercio
DECO-MUEBLES EL SALMON,Tienda de art칤culos para el hogar,,Av. Libertad 249,+54 2292 45-4720,Benito Ju치rez,Provincia de Buenos Aires,-37.6701962,-59.8090081,4.7,103,https://lh3.googleusercontent.com/gps-cs-s/AC9h4nrI8hPas60mcfbsRXJnYzfFI7x9--jpD2YLne9J5BYZojm9fIdlPWwl57rXGW6i-AFQmK3b4ZzoYdqhPeYBYNVwZoWodaptI1Nzuz-Jgi7aHaAlWuXDtSWKqudLrdZ_fjcN2CmOmg=w408-h306-k-no,399.0,15,2025-05-29T00:54:02.383Z,tienda
Morgan telas,Tienda de telas,,Av. Libertad 6,+54 2281 59-3034,Benito Ju치rez,Provincia de Buenos Aires,-37.6735787,-59.8050702,3.5,104,https://lh3.googleusercontent.com/p/AF1QipMdSEcbFJz0Um9qUMKxGxdw-S3eDEc_FI2T-Y0U=w408-h306-k-no,216.0,2,2025-05-29T00:54:02.383Z,tienda
Panaderia La Espiga de Oro,Panader칤a,,Av. Fortabat,,Benito Ju치rez,Provincia de Buenos Aires,-37.6734816,-59.7981511,,105,https://streetviewpixels-pa.googleapis.com/v1/thumbnail?panoid=lbDDzMstwG4GktNKvl4pBg&cb_client=search.gws-prod.gps&w=408&h=240&yaw=238.32335&pitch=0&thumbfov=100,1.0,0,2025-05-29T00:54:02.383Z,tienda
Lenceria Victoria,Tienda de ropa,,Av. Libertad 26,+54 2292 45-4526,Benito Ju치rez,Provincia de Buenos Aires,-37.6732396,-59.805353,,108,https://streetviewpixels-pa.googleapis.com/v1/thumbnail?panoid=SxFNQLxOo76zWrpr9UI8iw&cb_client=search.gws-prod.gps&w=408&h=240&yaw=209.87254&pitch=0&thumbfov=100,1.0,0,2025-05-29T00:54:02.383Z,tienda
Heladeria Abuela Juana,Helader칤a,,"Av Constituci칩n, Av. Zabalza 50",+54 2292 45-4769,Benito Ju치rez,Provincia de Buenos Aires,-37.6707001,-59.8111009,4.5,115,https://lh3.googleusercontent.com/p/AF1QipOY90rDqFzRJgQsDNS3P_RiYNL1dU9TbyCT8quJ=w408-h906-k-no,81.0,190,2025-05-29T00:54:02.384Z,tienda
L치cteos Luz Azul,Queser칤a,https://luz-azul.com.ar/,Av. Uruguay 163,+54 9 2281 51-0099,Benito Ju치rez,Provincia de Buenos Aires,-37.6714087,-59.8000981,4.8,116,https://lh3.googleusercontent.com/p/AF1QipNUj3ae3sUCs7i4ykniUQ70YAbbnrO0LGIUgsmk=w408-h307-k-no,9.0,33,2025-05-29T00:54:02.384Z,tienda
Claro Agente Oficial,Proveedor de servicios de telecomunicaciones,https://agentes.com.ar/celtafone,"ALSINA, Adolfo Alsina 96",+54 800-123-0611,BENITO JUAREZ,Provincia de Buenos Aires,-37.674704,-59.802997,5.0,141,https://lh3.googleusercontent.com/p/AF1QipNoOqHXoAd5pxICZhnfnS9jMbF5caLG1D9bPAVF=w408-h306-k-no,5.0,115,2025-05-29T00:54:02.914Z,comercio
Kiwi Sistemas,Comercio,,Almte. Brown 73,+54 2292 45-1075,Benito Ju치rez,Provincia de Buenos Aires,-37.6714707,-59.8047716,4.5,144,https://lh3.googleusercontent.com/gps-cs-s/AC9h4npAEOt3_s_D7DRX2tJSzqbV5HCFckisS2wIOffLkch1Vp8TPCmL8NLVsHBJf7_KmgYx6JMzrHif0SGENpk6GdLHOpux0M3DpZNC7QEskiR4JdIL2Th492FUAQ1lYNNtNEfHTPl4vQ=w408-h544-k-no,6.0,34,2025-05-29T00:54:02.914Z,comercio
Moe,Tienda de bebidas alcoh칩licas,,"B7020BTB 54, BTB, Sgto. Cabral",,Benito Ju치rez,Provincia de Buenos Aires,-37.6703526,-59.8063427,,145,https://lh3.googleusercontent.com/p/AF1QipNsbs-C45GKsy4XPyCHBFvQGTZ88P-j7l_3NJJ6=w408-h544-k-no,18.0,0,2025-05-29T00:54:02.914Z,comercio
AMELIE,Tienda de regalos,,Mariano Moreno 172,+54 2281 53-4249,Benito Ju치rez,Provincia de Buenos Aires,-37.6746124,-59.8113007,5.0,146,https://lh3.googleusercontent.com/p/AF1QipMFmRksOMzmQS_Q2PmRp9jmkUj2C51IXsImixZx=w408-h543-k-no,3.0,2,2025-05-29T00:54:02.914Z,comercio
Florer칤a Daisy,Florister칤a,,Av. Libertad 144,,Benito Ju치rez,Provincia de Buenos Aires,-37.6714911,-59.8071687,,147,https://streetviewpixels-pa.googleapis.com/v1/thumbnail?panoid=PksMjr0kNOFYhphSvOhlYQ&cb_client=search.gws-prod.gps&w=408&h=240&yaw=19.088903&pitch=0&thumbfov=100,1.0,0,2025-05-29T00:54:02.915Z,comercio
MACANA - Bar y Cafe,Cafeter칤a,,Av. Constituci칩n 36,,Benito Ju치rez,Provincia de Buenos Aires,-37.669991,-59.8107146,5.0,124,https://lh3.googleusercontent.com/gps-cs-s/AC9h4noiBW-9c3Y70zg1g2fUxyrhsZQABdSYqt1QUQ4CAu4MCS5f8xEdo5i6yc-0mJiBonnrBRFvu03ZAV2OItuH9uAadDxVBppmpS53cZWK4qVmWp-BPraPSSLl8pTyVbY4p6zikQWmcA=w408-h544-k-no,5.0,7,2025-05-29T00:54:03.513Z,tienda
CARNICERIA El Zurdito,Carnicer칤a,,Av. Mu침iz,,Benito Ju치rez,Provincia de Buenos Aires,-37.6796958,-59.8024557,,126,https://streetviewpixels-pa.googleapis.com/v1/thumbnail?panoid=5Fu4c7NmakUlT9UIjHO7bQ&cb_client=search.gws-prod.gps&w=408&h=240&yaw=327.91708&pitch=0&thumbfov=100,1.0,0,2025-05-29T00:54:03.513Z,tienda
Pink Lencer칤a,Tienda de lencer칤a,,Av. Roque S치enz Pe침a 64,,Benito Ju치rez,Provincia de Buenos Aires,-37.6699585,-59.8027627,5.0,127,https://lh3.googleusercontent.com/p/AF1QipNOnQos2HGGYMWMstZ4EI6vJQctaGe6KyijCdfh=w408-h517-k-no,2.0,1,2025-05-29T00:54:03.513Z,tienda
CARNICERIA Nino,Carnicer칤a,,,,Benito Ju치rez,Provincia de Buenos Aires,-37.6715412,-59.8121591,,129,https://streetviewpixels-pa.googleapis.com/v1/thumbnail?panoid=-Uoe6xrkKLoZZLWuP3REeg&cb_client=search.gws-prod.gps&w=408&h=240&yaw=235.3862&pitch=0&thumbfov=100,1.0,0,2025-05-29T00:54:03.513Z,tienda
Armeria Alonso,Tienda de art칤culos de caza,https://www.instagram.com/cazaypesca.alonso/profilecard/?igsh=MWEycHNnZG9icjV5ZA==,Av. San Mart칤n 156,+54 2292 45-1313,Benito Ju치rez,Provincia de Buenos Aires,-37.6764595,-59.8082174,4.8,140,https://lh3.googleusercontent.com/gps-cs-s/AC9h4npeSw5bmgTjRhw_mHj8Obbd3VV2OiYOFf8hcknxokbyQNKNqmaBN_jhcDs0rYJGSTGlQUb8JfLUd6npP4Fwlu9APU4nEi6pX7k3R8rZkGcBJno8gx3yr_JZNVsw7FedFU9RO20m=w408-h725-k-no,10.0,183,2025-05-29T00:54:03.513Z,tienda
La Pasteleria,Panader칤a,https://www.facebook.com/lapasteleria.f,"San Juan 51-99,B7020BYA",+54 2281 68-3572,Benito Ju치rez,Provincia de Buenos Aires,-37.6738609,-59.801846,4.6,145,https://lh3.googleusercontent.com/p/AF1QipNm12jDVw010XSVZMrSSWHAsJX5sFNPqYviSkak=w408-h566-k-no,25.0,56,2025-05-29T00:54:04.945Z,tienda
Sommier & Living Luulu,Colchoner칤a,,Rivadavia,,Benito Ju치rez,Provincia de Buenos Aires,-37.6726557,-59.807261,,147,https://streetviewpixels-pa.googleapis.com/v1/thumbnail?panoid=ManAdp58s3t2X7A1gTTkEw&cb_client=search.gws-prod.gps&w=408&h=240&yaw=311.3888&pitch=0&thumbfov=100,1.0,0,2025-05-29T00:54:04.945Z,tienda
Piaf Beauty Shop,Perfumer칤a,https://www.piafbeauty.com/,Av. Libertad 54,+54 2281 32-9645,Benito Ju치rez,Provincia de Buenos Aires,-37.6728588,-59.8059871,5.0,148,https://lh3.googleusercontent.com/p/AF1QipMAIPdUQ82qwo0kc9Bjz1Z2zPS64obelAMCS8d2=w408-h262-k-no,2.0,1,2025-05-29T00:54:04.945Z,tienda
Sandra Mazzola Centro de est칠tica,Esteticista,,9 de Julio 69,+54 2281 53-3061,Benito Ju치rez,Provincia de Buenos Aires,-37.6744329,-59.8082687,5.0,149,https://streetviewpixels-pa.googleapis.com/v1/thumbnail?panoid=ub9AFa_e9Y9e53oJnh5dWw&cb_client=search.gws-prod.gps&w=408&h=240&yaw=313.60443&pitch=0&thumbfov=100,2.0,10,2025-05-29T00:54:04.945Z,tienda
CALIGRAMA Libros,Librer칤a,,Av. Libertad 284,+54 2281 50-0166,Benito Ju치rez,Provincia de Buenos Aires,-37.6698038,-59.8099561,,150,https://lh3.googleusercontent.com/gps-cs-s/AC9h4nrAFPB_AkhYa8iy7SQ9hDXkUie4zinqOjVFF6CZGCLQWn_fQr7u0skY1BOu9SXMthUlTG5kQH4fmoQInZrwL_hRyXbOuff8t4dr_0KBflWUFev9S6bRpUlT9Qvn8qwOHhh3E7WkxA=w408-h408-k-no,2.0,0,2025-05-29T00:54:04.946Z,tienda
Pinturer칤a Del Giorgio,Tienda de pinturas,,Av. San Mart칤n 143,+54 2292 45-2885,Benito Ju치rez,Provincia de Buenos Aires,-37.6760349,-59.8081346,4.5,151,https://lh3.googleusercontent.com/p/AF1QipNmLd0iPKkkr6u3RzJgjg_1WmrcfEiqit0nLhD8=w408-h408-k-no,5.0,15,2025-05-29T00:54:04.946Z,tienda
CARNICERIAS BELIO,Carnicer칤a,,Av. Libertad 184,,Benito Ju치rez,Provincia de Buenos Aires,-37.6712269,-59.8079428,,152,https://streetviewpixels-pa.googleapis.com/v1/thumbnail?panoid=KRQp3T7TSpXVeUQ340TKlA&cb_client=search.gws-prod.gps&w=408&h=240&yaw=233.5446&pitch=0&thumbfov=100,1.0,0,2025-05-29T00:54:04.946Z,tienda
FERRE-FLAC,Ferreter칤a,,Av. Libertad 285,+54 9 2281 57-8690,Benito Ju치rez,Provincia de Buenos Aires,-37.6696124,-59.8093873,4.9,159,https://lh3.googleusercontent.com/p/AF1QipP4FkAIXU-BEfXC_3ylkC4BIIMnZjvL0-87zEEF=w408-h725-k-no,5.0,21,2025-05-29T00:54:04.946Z,tienda
PUMA,Tienda de alimentaci칩n,,RN3,,Benito Ju치rez,Provincia de Buenos Aires,-37.6497995,-59.8607845,,13,https://streetviewpixels-pa.googleapis.com/v1/thumbnail?panoid=K5ois6-Owh4owT4PhYsE5Q&cb_client=search.gws-prod.gps&w=408&h=240&yaw=132.76385&pitch=0&thumbfov=100,1.0,0,2025-05-29T00:54:09.530Z,comercio
GNC & EESS - YPF Alonso,Gasolinera,,"Av Santana Zabalza 352, Esquina Sarmiento",+54 2292 45-2451,Benito Ju치rez,Provincia de Buenos Aires,-37.6699343,-59.8123577,4.3,10,https://lh3.googleusercontent.com/p/AF1QipM4PdDKfMI02_CkVjf36ryFVqIowANkIywE_MEv=w408-h544-k-no,32.0,523,2025-05-29T00:54:15.553Z,venta
Ta칰l Inmobiliaria,Agencia inmobiliaria,,Av. Uruguay 11,+54 2292 45-2186,Benito Ju치rez,Provincia de Buenos Aires,-37.6741723,-59.8033942,4.2,15,https://streetviewpixels-pa.googleapis.com/v1/thumbnail?panoid=TAaxYNvvFUZryWIxdSA4mA&cb_client=search.gws-prod.gps&w=408&h=240&yaw=131.90237&pitch=0&thumbfov=100,3.0,16,2025-05-29T00:54:15.553Z,venta
Perfiles Argentinos S.A.,,,Av. Otamendi 241,+54 2292 45-3029,Benito Ju치rez,Provincia de Buenos Aires,-37.677562,-59.801909,3.3,20,https://lh3.googleusercontent.com/gps-cs-s/AC9h4nq-YkWcop6LsRtxYsXSaVM5LiOYiFbOEtHAs8O4XjRWVfdoN3_KGf5Bjo8qCU9s0QFT0u2ZTmxpdYrxRnq8YMmsO_Ss962jhwaIvkAn5lMW41JPePCnw1XUxtpdFrCwdXmxfl9z=w408-h709-k-no,10.0,4,2025-05-29T00:54:15.553Z,venta
Minimercado Dominga,Tienda de alimentaci칩n,,Av. Fortabat 396,,Benito Ju치rez,Provincia de Buenos Aires,-37.6758928,-59.7943558,,34,https://streetviewpixels-pa.googleapis.com/v1/thumbnail?panoid=Du02zgTddASCUNh0FOMCog&cb_client=search.gws-prod.gps&w=408&h=240&yaw=41.345936&pitch=0&thumbfov=100,1.0,0,2025-05-29T00:54:16.410Z,tienda
Jose L Elizalde,Agencia inmobiliaria,http://www.inmobiliariajuarez.com.ar/,M Rold n 198,+54 2292 45-1820,Benito Ju치rez,Provincia de Buenos Aires,-37.6779325,-59.8036039,4.1,8,https://streetviewpixels-pa.googleapis.com/v1/thumbnail?panoid=SmEIOJ2YfSG7p1FFMOqu1g&cb_client=search.gws-prod.gps&w=408&h=240&yaw=38.591965&pitch=0&thumbfov=100,1.0,27,2025-05-29T00:54:17.245Z,venta
Lopez Propiedades,Agencia inmobiliaria,https://www.facebook.com/PropiedadesLopez,Av. Libertad 348,+54 2281 32-4655,Benito Ju치rez,Provincia de Buenos Aires,-37.66889,-59.810801,4.5,12,https://streetviewpixels-pa.googleapis.com/v1/thumbnail?panoid=ly0ph0ORIJPZRT3PdHdNUg&cb_client=search.gws-prod.gps&w=408&h=240&yaw=145.9294&pitch=0&thumbfov=100,4.0,6,2025-05-29T00:54:17.245Z,venta
Venta de camisetas f칰tbol,Centro comercial,,Pumara 126,+54 2281 58-5086,Benito Ju치rez,Provincia de Buenos Aires,-37.6726773,-59.8117608,,17,https://streetviewpixels-pa.googleapis.com/v1/thumbnail?panoid=M2vSf4_8GT9Une6uKtFYmw&cb_client=search.gws-prod.gps&w=408&h=240&yaw=133.69376&pitch=0&thumbfov=100,1.0,0,2025-05-29T00:54:17.246Z,venta
Donatta Mia,Tienda de ropa,https://www.instagram.com/donattamia?igsh=Y3ZwMnRidnM0ODd2&utm_source=qr,Rold치n 196,+54 2983 40-9003,Benito Ju치rez,Provincia de Buenos Aires,-37.6778919,-59.803648,,42,https://streetviewpixels-pa.googleapis.com/v1/thumbnail?panoid=UzrH6mzB4xMKlgLZ3srtUQ&cb_client=search.gws-prod.gps&w=408&h=240&yaw=61.253494&pitch=0&thumbfov=100,1.0,0,2025-05-29T00:54:17.265Z,tienda
Globalweb,Comercio,http://globalweb.live/cliente/,"248, Av. Otamendi 241",+54 2292 45-4612,Benito Ju치rez,Provincia de Buenos Aires,-37.6774257,-59.8017198,3.4,73,https://streetviewpixels-pa.googleapis.com/v1/thumbnail?panoid=HgFhM8z5yjF1XOLD2twyEA&cb_client=search.gws-prod.gps&w=408&h=240&yaw=39.736107&pitch=0&thumbfov=100,1.0,12,2025-05-29T00:54:17.944Z,tienda
Lemon indumentaria,Tienda de ropa,https://www.instagram.com/_lemon.indumentaria?igsh=MTM5ODZzeWtqemJ6Nw==,Av. Libertad 73,+54 2281 31-3949,Benito Ju치rez,Provincia de Buenos Aires,-37.6724089,-59.8058873,,74,https://streetviewpixels-pa.googleapis.com/v1/thumbnail?panoid=pWx2dt4ztCMGeKBlI2vHxw&cb_client=search.gws-prod.gps&w=408&h=240&yaw=48.768826&pitch=0&thumbfov=100,1.0,0,2025-05-29T00:54:17.944Z,tienda
Agus-TINA 2 de Eliseo Martinez,Comercio,,Acosta 칌u 231,+54 2281 57-3357,Benito Ju치rez,Provincia de Buenos Aires,-37.669386,-59.7918331,,32,,,0,2025-05-29T00:54:18.227Z,comercio
Bello Rinc칩n Sabrina Figliuolo,Tienda de costura,,Gral. Mart칤n Rodr칤guez 364,+54 2281 53-0035,Benito Ju치rez,Provincia de Buenos Aires,-37.6746319,-59.7937939,5.0,84,https://lh3.googleusercontent.com/p/AF1QipNwnI1AH_Jt_kGDgXo-HozmNZf3yUyA0UdiXnen=w408-h542-k-no,22.0,1,2025-05-29T00:54:18.631Z,tienda
Cotill칩n Alegr칤a,Tienda de art칤culos de fiesta,,Av. Alsina 4,+54 2281 31-7784,Benito Ju치rez,Provincia de Buenos Aires,-37.673497,-59.804549,,88,https://lh3.googleusercontent.com/gps-cs-s/AC9h4nrMMoD7KJ3jLWe0QExYp9WyTv_08qOLTbzTevTvtSH-6CqbKiKPa-zXnXIa0GVtjkDPsacq15Tb1WhU1IisnnK3c6E83FE91o7twAe-cKqN9ARL43BRPkFmJIj8XpYYGfT3R8YF=w408-h543-k-no,5.0,0,2025-05-29T00:54:18.631Z,tienda
Sentite Unica Lenceria,Tienda de ropa,,,+54 2281 32-4894,Benito Ju치rez,Provincia de Buenos Aires,-37.6745688,-59.7934929,,93,https://streetviewpixels-pa.googleapis.com/v1/thumbnail?panoid=MDlDxNCEZGVg1I2REn82Zg&cb_client=search.gws-prod.gps&w=408&h=240&yaw=169.20338&pitch=0&thumbfov=100,2.0,0,2025-05-29T00:54:18.631Z,tienda
Blanqueria Ju치rez,Tienda de art칤culos para el hogar,,Gral. Paz 186 150,+54 9 2281 31-9602,Benito Ju치rez,Provincia de Buenos Aires,-37.6796679,-59.8054331,5.0,98,https://streetviewpixels-pa.googleapis.com/v1/thumbnail?panoid=1jNiwKE2Zg4XwAD6KlwaWQ&cb_client=search.gws-prod.gps&w=408&h=240&yaw=140.36996&pitch=0&thumbfov=100,1.0,6,2025-05-29T00:54:18.632Z,tienda
Lo de rosa,Kiosco,,Palacio 164,,Benito Ju치rez,Provincia de Buenos Aires,-37.675689,-59.7942867,,103,https://lh3.googleusercontent.com/p/AF1QipPaXld_BLLTWc_u9a0SEW4JG_owVodQD5ZHzZZj=w408-h542-k-no,8.0,0,2025-05-29T00:54:19.687Z,tienda
Farmacia Aguilera,Farmacia,,Rold치n 266,+54 2292 45-3866,Benito Ju치rez,Provincia de Buenos Aires,-37.6788679,-59.8023289,4.8,124,https://lh3.googleusercontent.com/gps-cs-s/AC9h4norydFOLzAinCPMLe1OsbtkIoE2gVP_pNI48zsfPu20Dl6m6kIjWjMCwVSGYZW9KDGUJc_nI2-WPBHamhnBTswg05rx2UGSfrqLrKcO74FXCiHt392Du9uxKp9_x-1JDnaX22VP=w426-h240-k-no,2.0,20,2025-05-29T00:54:20.663Z,tienda
"Cafe budines, L P.",Pasteler칤a,,Mario Qui침ones 370,+54 2281 57-1531,Benito Ju치rez,Provincia de Buenos Aires,-37.6743212,-59.7931931,4.3,127,https://streetviewpixels-pa.googleapis.com/v1/thumbnail?panoid=MDlDxNCEZGVg1I2REn82Zg&cb_client=search.gws-prod.gps&w=408&h=240&yaw=127.505356&pitch=0&thumbfov=100,2.0,3,2025-05-29T00:54:20.663Z,tienda
Farmacia Dellavalle,Farmacia,https://www.elfenixdigital.com/farmacias.php,,+54 2292 45-4181,Benito Ju치rez,Provincia de Buenos Aires,-37.675384,-59.8020535,4.2,128,https://lh3.googleusercontent.com/gps-cs-s/AC9h4no7uVN_Dn-YginfuuKHPZ4-VfRhPkyDJ0WeB3uXd6neJG5dY2MGQXHBuqFrxO8tscP3seJQHcXkRc-sJTIPWp9VYXly50RgStFIpUlhX3GGf7_n1kQbJRTU9drNz8dWPZGZfLJC=w426-h240-k-no,2.0,29,2025-05-29T00:54:20.663Z,tienda
CASA IROULEGUY,Agencia de viajes,,Av. Libertad 10,+54 2292 45-1227,Benito Ju치rez,Provincia de Buenos Aires,-37.6735373,-59.8051227,,129,https://streetviewpixels-pa.googleapis.com/v1/thumbnail?panoid=5EjlBEZdpIFvk7vQ47dC5Q&cb_client=search.gws-prod.gps&w=408&h=240&yaw=226.24098&pitch=0&thumbfov=100,1.0,0,2025-05-29T00:54:20.663Z,tienda
POLIAUTOMOTORES,Concesionario de autom칩viles,,Chacabuco,,Benito Ju치rez,Provincia de Buenos Aires,-37.6737394,-59.8019752,,130,https://streetviewpixels-pa.googleapis.com/v1/thumbnail?panoid=yhOp2NppExjg5G9g4r-PBQ&cb_client=search.gws-prod.gps&w=408&h=240&yaw=62.827095&pitch=0&thumbfov=100,1.0,0,2025-05-29T00:54:20.663Z,tienda
JUAREZ CARS,Concesionario de autom칩viles,,Av. Pres. Juan Domingo Per칩n,,Benito Ju치rez,Provincia de Buenos Aires,-37.6794107,-59.7997973,,131,https://streetviewpixels-pa.googleapis.com/v1/thumbnail?panoid=Cqpv1fwH6D3TL6Q5eucYJA&cb_client=search.gws-prod.gps&w=408&h=240&yaw=214.77074&pitch=0&thumbfov=100,1.0,0,2025-05-29T00:54:20.663Z,tienda
OPTICA HORIZONTE,칍ptica,,Av. Libertad 39,,Benito Ju치rez,Provincia de Buenos Aires,-37.6729108,-59.8052938,,132,https://streetviewpixels-pa.googleapis.com/v1/thumbnail?panoid=hlHs5FUCFUlNyEpc_BuOkw&cb_client=search.gws-prod.gps&w=408&h=240&yaw=50.676346&pitch=0&thumbfov=100,1.0,0,2025-05-29T00:54:20.663Z,tienda
Kiosco Dinos,Kiosco,,Av. Alsina 60,+54 2281 55-6363,Benito Ju치rez,Provincia de Buenos Aires,-37.6742035,-59.8033903,5.0,85,https://lh3.googleusercontent.com/p/AF1QipMr8gtpdhp6Es8mNFFv7ZFxcikpunJH0kLnInJf=w408-h544-k-no,6.0,5,2025-05-29T00:54:23.018Z,comercio
Gomeria y mojarras el ave,Tienda de cebos,,Av. Saavedra 370,,Benito Ju치rez,Provincia de Buenos Aires,-37.6732704,-59.816907,5.0,35,https://lh3.googleusercontent.com/gps-cs-s/AC9h4nrOX03lCLqXqAjSZ94kwQqt7eyyzPntOySk-5MWN7XupJA5EVRTuY5r80AfDHwdVQI3vetWIQ-jxyycBXLvTdM4msPFlAXPbyqoLla7KHGkkPZW66wQvBzu967qUcIBTtrM2CE=w408-h861-k-no,2.0,1,2025-05-29T00:54:25.463Z,comercio
Madeconst S.A,Tienda de materiales para la construcci칩n,https://www.instagram.com/madeconst_s.a/,Av. Constituci칩n 380,+54 2292 45-3188,Benito Ju치rez,Provincia de Buenos Aires,-37.6768031,-59.8184468,4.6,37,https://lh3.googleusercontent.com/p/AF1QipM89VHvDuQstlbvS33_oLI9ngl7DFzSWRFm7dVa=w408-h408-k-no,41.0,73,2025-05-29T00:54:25.463Z,comercio
Poca Madre (Arte y Tatuajes),Estudio de tatuajes,,Jos칠 Hern치ndez 233,,Benito Ju치rez,Provincia de Buenos Aires,-37.6758356,-59.8153931,4.4,38,,,8,2025-05-29T00:54:25.464Z,comercio
ARIELRODRIGUEZ AUTOMOTORES,Concesionario de autom칩viles,,Av. San Mart칤n,,Benito Ju치rez,Provincia de Buenos Aires,-37.6803751,-59.8134706,,40,https://streetviewpixels-pa.googleapis.com/v1/thumbnail?panoid=tjdAJJ9u0jvWxxLR6Ra6UA&cb_client=search.gws-prod.gps&w=408&h=240&yaw=318.98038&pitch=0&thumbfov=100,1.0,0,2025-05-29T00:54:25.464Z,comercio
Farmacia Garamendy,Farmacia,https://farmaciagaramendy.com.ar/,Av. Libertad 52,+54 2292 45-2258,Benito Ju치rez,Provincia de Buenos Aires,-37.6728507,-59.8058338,4.5,134,https://lh3.googleusercontent.com/p/AF1QipPERj0PdH0Ga9KPMac_D2exgCLA1KMhWQ2k-5z0=w408-h365-k-no,6.0,11,2025-05-29T00:54:25.810Z,comercio
JOSE LUIS PAGE AUTOS,Concesionario de autom칩viles,,Av. Otamendi,,Benito Ju치rez,Provincia de Buenos Aires,-37.678196,-59.8008922,,135,https://streetviewpixels-pa.googleapis.com/v1/thumbnail?panoid=JvfXwB8uKJ-OS-eGLYNyBQ&cb_client=search.gws-prod.gps&w=408&h=240&yaw=30.471998&pitch=0&thumbfov=100,1.0,0,2025-05-29T00:54:25.810Z,comercio
Tribeca,Tienda de artesan칤as,,,+54 9 2281 53-6296,,,-37.6718331,-59.8283311,,138,https://lh3.googleusercontent.com/p/AF1QipN2CUpD5rjYLU69apcANifPFsuVPlDontX3eLoX=w408-h395-k-no,2.0,0,2025-05-29T00:54:25.810Z,comercio
LA CHACRA Tienda de Campo,Tienda de alimentaci칩n,,,+54 2281 47-5769,Benito Ju치rez,Provincia de Buenos Aires,-37.6520502,-59.8636616,5.0,23,https://lh3.googleusercontent.com/gps-cs-s/AC9h4nqi87X4sihSWhuu69orpoDxpbyvYzYFngPGGmTGk6M8zXygGBhpf5eaj3pmeEmSpxlYhc3LX1YDE6QWi5o8IRg4y6e-EwLpq5NixY8zwnkHnuAcosqvWK4En0QNyGDXMMkjUmpe=w408-h544-k-no,10.0,1,2025-05-29T00:54:30.728Z,comercio
PUMA ENERGY,Gasolinera,https://www.pumaenergyarg.com.ar/,"RN3 KM. 401,600",+54 2292 45-3110,Benito Ju치rez,Provincia de Buenos Aires,-37.64982,-59.8603,4.2,23,https://lh3.googleusercontent.com/gps-cs-s/AC9h4nrcuFqTgdTMn7dwloQ-steO7ayzsMJM5X3ykmAZfMARYZOJYbCptEYjh8qNpj3LgPVOwmnFo9BG5KPLf47ZxiJgckbX_bHQYn0LqMO2z7EPl2Pt_y9P6HpBna2jocy6e6CMbK0V=w426-h240-k-no,52.0,461,2025-05-29T00:54:32.637Z,tienda
