title,categoryName,website,street,phone,city,state,location/lat,location/lng,totalScore,rank,imageUrl,imagesCount,reviewsCount,scrapedAt,searchString
Agronomia y Vivero FANTINI,Ingeniero agrónomo,http://www.fantinihnos.com.ar/,"Ruta 86 y, Av. Constitución",+54 2281 40-8509,Benito Juárez,Provincia de Buenos Aires,-37.6780794,-59.8207548,5.0,13,https://lh3.googleusercontent.com/p/AF1QipOVmHkXN91RQi5QLABbtqpqu-MV1CyxWIpV-02u=w408-h306-k-no,3.0,2,2025-06-15T23:27:13.052Z,maquinaria
Lo de rosa,Kiosco,,Palacio 164,,Benito Juárez,Provincia de Buenos Aires,-37.675689,-59.7942867,,40,https://lh3.googleusercontent.com/p/AF1QipPaXld_BLLTWc_u9a0SEW4JG_owVodQD5ZHzZZj=w408-h542-k-no,8.0,0,2025-06-15T23:27:17.780Z,tienda
Distribuidora MAGICA,Tienda de alimentación,,,,Benito Juárez,Provincia de Buenos Aires,-37.677326,-59.8047054,,39,https://streetviewpixels-pa.googleapis.com/v1/thumbnail?panoid=ZGJS7ZAQE2rg6MLpvGBW1w&cb_client=search.gws-prod.gps&w=408&h=240&yaw=233.7666&pitch=0&thumbfov=100,1.0,0,2025-06-15T23:27:17.780Z,tienda
Diaz Martin J,Carnicería,,Chacabuco 290,+54 2292 45-3300,Benito Juárez,Provincia de Buenos Aires,-37.6764386,-59.7984998,4.0,60,https://lh3.googleusercontent.com/gps-cs-s/AC9h4nqRu8SkPfvpIS-e7l_tCl7k34zR83JTgIUOrdh9PksbYqv9LDKbm6RpNlvcNYIP_chJryOHc17BNBh8JafBXDILJYDS2G9lY-mr4897D3l5hYS1Go26bAu1JmRWndYvcQyM8jWZ=w408-h544-k-no,16.0,1,2025-06-15T23:27:19.011Z,tienda
Elegante sport,Tienda de ropa de deportes,https://www.instagram.com/elegante_sport_bj?igsh=MWVwY3NoOGc4aWM1NA==,Ameghino 25,+54 2281 30-1465,Benito Juárez,Provincia de Buenos Aires,-37.6817221,-59.8157086,,59,https://lh3.googleusercontent.com/p/AF1QipPPZN8u8l-N_miIEf4iAEN3EEzXcArZ7F8mkCCM=w408-h306-k-no,2.0,0,2025-06-15T23:27:19.011Z,tienda
Dietetica NatureHouse,Tienda de alimentación,,Gral. Paz 217,,Benito Juárez,Provincia de Buenos Aires,-37.6800305,-59.8063037,,58,https://streetviewpixels-pa.googleapis.com/v1/thumbnail?panoid=_C7O8OmJhPJe08ahQmHHNw&cb_client=search.gws-prod.gps&w=408&h=240&yaw=323.79053&pitch=0&thumbfov=100,1.0,0,2025-06-15T23:27:19.011Z,tienda
El novillo colorado carniceria,Comercio,,Av. Muñiz 206,+54 2281 46-2196,Benito Juárez,Provincia de Buenos Aires,-37.6814599,-59.8040506,5.0,57,https://streetviewpixels-pa.googleapis.com/v1/thumbnail?panoid=lCFMzqLf5wRPSDgKxWpRvA&cb_client=search.gws-prod.gps&w=408&h=240&yaw=123.29136&pitch=0&thumbfov=100,1.0,9,2025-06-15T23:27:19.011Z,tienda
EN SUEÑOS,Tienda de ropa,,Gral. Paz 185,+54 249 460-0790,Benito Juárez,Provincia de Buenos Aires,-37.6795179,-59.8055314,,56,https://lh3.googleusercontent.com/gps-cs-s/AC9h4np8iuzNzScRTTGCNYkJQkS3tEyTPFo_D0sALutBuA9DYzzI3CfP65WQZgBnBQGho7nAzGPvkd8qQHsr3NIHBlXx85RLakN3_raudWpHlwTicQo481R4hUcHmbbpBPRozA-WTaeT=w408-h306-k-no,8.0,0,2025-06-15T23:27:19.011Z,tienda
Besema Store,Tienda de ropa,,Mariano Moreno 270,+54 2281 59-3478,Benito Juárez,Provincia de Buenos Aires,-37.6764807,-59.813458,,55,https://lh3.googleusercontent.com/p/AF1QipOXiqOdu5Y5Wnv1L1H5ZbWBuEBUGc_-MZt8d4qP=w408-h306-k-no,6.0,0,2025-06-15T23:27:19.011Z,tienda
Shopping LUZMAR,Tienda de ropa,,"Catamarca, Lavalle",,Benito Juárez,Provincia de Buenos Aires,-37.6755806,-59.8090547,,54,https://lh3.googleusercontent.com/p/AF1QipNq6Li1A4Pk_r75OdfY6k5pOxMJjmKFgclbgh-V=w408-h306-k-no,3.0,0,2025-06-15T23:27:19.011Z,tienda
"Panadería ""mi muneca""",Panadería,,Av. San Martín 161,+54 2281 55-0146,Benito Juárez,Provincia de Buenos Aires,-37.6764033,-59.8089231,4.1,53,https://streetviewpixels-pa.googleapis.com/v1/thumbnail?panoid=JRLMWMwAbB2RE29UzzOzHQ&cb_client=search.gws-prod.gps&w=408&h=240&yaw=308.22653&pitch=0&thumbfov=100,1.0,8,2025-06-15T23:27:19.011Z,tienda
J&L FERRETERIA,Tienda de herramientas,,Av. Saavedra 151,+54 2281 31-0063,Benito Juárez,Provincia de Buenos Aires,-37.6758401,-59.813088,4.5,68,https://lh3.googleusercontent.com/p/AF1QipOmv9HYvxZBngbxftNbZ60YMG_Jh2HNB6TRKFdY=w408-h306-k-no,36.0,28,2025-06-15T23:27:20.430Z,tienda
LIBRERIA KIOSCO Libertad,Librería,,Av. Otamendi,,Benito Juárez,Provincia de Buenos Aires,-37.6784738,-59.8009817,,67,https://streetviewpixels-pa.googleapis.com/v1/thumbnail?panoid=dKX2L0RnvwoLljCnUDt0NQ&cb_client=search.gws-prod.gps&w=408&h=240&yaw=219.07417&pitch=0&thumbfov=100,1.0,0,2025-06-15T23:27:20.430Z,tienda
LA MODERNA,Panadería,https://www.facebook.com/La-Moderna-134742707325272/,Ituzaingó 100,+54 2292 45-2152,Benito Juárez,Provincia de Buenos Aires,-37.677396,-59.8042046,4.5,66,https://lh3.googleusercontent.com/gps-cs-s/AC9h4nrPuxshgC9bp1Syi3Gb369pkBf0LkxYpA13iZSF9Np7BcIHo73z71ifJR-jaWwUb1Xfbj6q99uoQSJN9enMl8A5FcuMVoVsXKDCN8BKGhUnwDg6UHP53z4r8S62VGe_t1xvHgXZ6xnI9ho=w408-h306-k-no,4.0,61,2025-06-15T23:27:20.430Z,tienda
Carnicerias Belio,Carnicería,,Av. Alsina 178,+54 2292 45-3104,Benito Juárez,Provincia de Buenos Aires,-37.6758347,-59.8015327,2.0,64,https://lh3.googleusercontent.com/gps-cs-s/AC9h4nqgN4rSlyau-6M8Ty8Qj5PS8cECFV-3Z0RkGtcbe54rZBRRye9VBIE1-vmySd-L01azrOICuiNFAOYJ7PG9X2nL4nYGdz7b1NcotwUdPMjl7fbZJZyFxdfUEb-uhNlkkD8Hj03JsA=w408-h544-k-no,2.0,2,2025-06-15T23:27:20.429Z,tienda
Blanqueria Juárez,Tienda de artículos para el hogar,,Gral. Paz 186 150,+54 9 2281 31-9602,Benito Juárez,Provincia de Buenos Aires,-37.6796679,-59.8054331,5.0,65,https://streetviewpixels-pa.googleapis.com/v1/thumbnail?panoid=1jNiwKE2Zg4XwAD6KlwaWQ&cb_client=search.gws-prod.gps&w=408&h=240&yaw=140.36996&pitch=0&thumbfov=100,1.0,6,2025-06-15T23:27:20.429Z,tienda
Puente Alsina,Panadería,,Av. Alsina 277,,Benito Juárez,Provincia de Buenos Aires,-37.6773229,-59.8000742,4.8,62,https://lh3.googleusercontent.com/gps-cs-s/AC9h4no7BAhhCqOT9hDVWP6HgDxu1eSpuCYkH9SHB9sNfM5T5tW6ZiJGs3pi1YWGH7cdDzAOZXfoEY1qKfN1PUp0z_HHCK7-2kwQycfyPoviwIoLgp_9aXLi746b_LnjxXmBQrnusSOJ=w408-h306-k-no,5.0,5,2025-06-15T23:27:20.429Z,tienda
Armeria Alonso,Tienda de artículos de caza,https://www.instagram.com/cazaypesca.alonso/profilecard/?igsh=MWEycHNnZG9icjV5ZA==,Av. San Martín 156,+54 2292 45-1313,Benito Juárez,Provincia de Buenos Aires,-37.6764595,-59.8082174,4.9,63,https://lh3.googleusercontent.com/gps-cs-s/AC9h4npZWmJa8DWBM0yq8hxjzChS3Oc3bNLnr68zNY1vEFtcg9CCkkslZL32FBTrCJZCuaOrJc2lbAdUtZPjUntQPoGTfIJh1-MtbMl_2d14ZOIstQmkGOFUkK6qR47lNVFmJtPHKE-3=w408-h725-k-no,10.0,193,2025-06-15T23:27:20.429Z,tienda
Embutidos Don Alejandro,,,7020,+54 2281 49-3192,Benito Juárez,Provincia de Buenos Aires,-37.6788855,-59.8146241,4.9,61,https://lh3.googleusercontent.com/p/AF1QipOWdvPk4nTBtWg5jAdFgw4uDx8y-UauVqvj7GSC=w408-h544-k-no,16.0,10,2025-06-15T23:27:20.429Z,tienda
Panaderia La terminal,Panadería,,Rivadavia 249,,Benito Juárez,Provincia de Buenos Aires,-37.6767262,-59.8120955,4.1,52,https://streetviewpixels-pa.googleapis.com/v1/thumbnail?panoid=aRpOQuNYCxOQZUGOIikD5A&cb_client=search.gws-prod.gps&w=408&h=240&yaw=83.10007&pitch=0&thumbfov=100,1.0,42,2025-06-15T23:27:19.011Z,tienda
Bazar David.,Tienda de artículos para el hogar,,Av. Otamendi 149,,Benito Juárez,Provincia de Buenos Aires,-37.676512,-59.8036685,,49,https://lh3.googleusercontent.com/gps-cs-s/AC9h4npegUBxlugnhTfoOz2zCgkxsnlczkjkuJeNAMOKI0TKoEam1-BghylgeRsBwF-J-8TeTUAOQnpT1N1gFo5LX1PeH-U3c-whprGW1UYSeYUG75cG9zqCv9P3jfTE7YP9ByHgnKbJ=w408-h544-k-no,2.0,0,2025-06-15T23:27:19.011Z,tienda
malaika,Tienda de ropa,,,,Benito Juárez,Provincia de Buenos Aires,-37.6773059,-59.8025122,,50,https://streetviewpixels-pa.googleapis.com/v1/thumbnail?panoid=89BPfdOxhHBZLfChnDHMAw&cb_client=search.gws-prod.gps&w=408&h=240&yaw=163.83302&pitch=0&thumbfov=100,1.0,0,2025-06-15T23:27:19.011Z,tienda
GENESIS FRUTAS Y VERDURAS,Tienda de alimentación,,Av. Muñiz,,Benito Juárez,Provincia de Buenos Aires,-37.6846424,-59.8080524,,48,https://streetviewpixels-pa.googleapis.com/v1/thumbnail?panoid=H1AnoVm8-tQu08EUiGVNxg&cb_client=search.gws-prod.gps&w=408&h=240&yaw=160.80098&pitch=0&thumbfov=100,1.0,0,2025-06-15T23:27:19.011Z,tienda
kiosco molina,Tienda de alimentación,,Labriola 334,,Benito Juárez,Provincia de Buenos Aires,-37.6815708,-59.8032649,,46,https://streetviewpixels-pa.googleapis.com/v1/thumbnail?panoid=uRu7FefZDIpbcC4K6w6r0Q&cb_client=search.gws-prod.gps&w=408&h=240&yaw=47.292347&pitch=0&thumbfov=100,1.0,0,2025-06-15T23:27:19.011Z,tienda
Modas Flori-Sur,Tienda de ropa,,,,Benito Juárez,Provincia de Buenos Aires,-37.6770778,-59.8022271,,47,https://streetviewpixels-pa.googleapis.com/v1/thumbnail?panoid=u5mcSVwFBE2jiM3UGyyOpw&cb_client=search.gws-prod.gps&w=408&h=240&yaw=96.35756&pitch=0&thumbfov=100,1.0,0,2025-06-15T23:27:19.011Z,tienda
JEM,Tienda de artículos para el hogar,,Cap. Ramos 161,+54 2281 46-5390,Benito Juárez,Provincia de Buenos Aires,-37.6810672,-59.8025139,5.0,44,https://lh3.googleusercontent.com/gps-cs-s/AC9h4nr5_scCHY3aKwBPdi89WvWRQ0nVaWk4EPQBvQmyqLqTeU8QaRw9DhUIJuG1o856D0vAoJT3F5qZIDeWqm3fiKE4Q_qu8zR5n_oSeFJQ2CGjq4xRDoMDF6t5EeRwL8iltgGFJvon=w408-h410-k-no,2.0,1,2025-06-15T23:27:19.011Z,tienda
Almacén NATURAL,Tienda de alimentación,,"B7020, Mariano Moreno 241",+54 2281 31-2818,Benito Juárez,Provincia de Buenos Aires,-37.6758356,-59.8128329,4.3,43,https://lh3.googleusercontent.com/gps-cs-s/AC9h4nrldCqKZpqmz4do7kebhhMP7qrVFbSRRDtjehBcKdOtGoWWPoAeuJ_VIp4_NkRmfG1_nNP5cSgQJKmJ9emisT1mm1v8oVcBVEgkTzQ6XeRvjq2j8cHlrUqT9Qa3-oxhe_r_Gpvw=w482-h240-k-no,11.0,4,2025-06-15T23:27:19.011Z,tienda
Globalweb,Comercio,http://globalweb.live/cliente/,"248, Av. Otamendi 241",+54 2292 45-4612,Benito Juárez,Provincia de Buenos Aires,-37.6774257,-59.8017198,3.4,51,https://streetviewpixels-pa.googleapis.com/v1/thumbnail?panoid=m0_RZA57pLOi9Outm1-BAQ&cb_client=search.gws-prod.gps&w=408&h=240&yaw=51.566998&pitch=0&thumbfov=100,1.0,12,2025-06-15T23:27:19.011Z,tienda
Zenon Gaston,Comercio,,Av. Saavedra 135,,Benito Juárez,Provincia de Buenos Aires,-37.6761833,-59.8125932,4.0,42,https://streetviewpixels-pa.googleapis.com/v1/thumbnail?panoid=zrLSTE2_eDsHNXuIGMtmVA&cb_client=search.gws-prod.gps&w=408&h=240&yaw=41.825115&pitch=0&thumbfov=100,1.0,2,2025-06-15T23:27:19.011Z,tienda
Guapa's indumentaria,Tienda de ropa de mujer,https://instagram.com/guapass_indumentaria?utm_source=ig_profile_share&igshid=163isy3d66jdj,Gral. Paz 213,,Benito Juárez,Provincia de Buenos Aires,-37.6799813,-59.8061542,4.8,41,https://lh3.googleusercontent.com/p/AF1QipNJLErfcGH6dKn2bTWqRFzeOV1nDI1HPSiNVDX-=w408-h544-k-no,1062.0,26,2025-06-15T23:27:19.010Z,tienda
Minimercado Dominga,Tienda de alimentación,,Av. Fortabat 396,,Benito Juárez,Provincia de Buenos Aires,-37.6758928,-59.7943558,,38,https://streetviewpixels-pa.googleapis.com/v1/thumbnail?panoid=Du02zgTddASCUNh0FOMCog&cb_client=search.gws-prod.gps&w=408&h=240&yaw=41.345936&pitch=0&thumbfov=100,1.0,0,2025-06-15T23:27:17.780Z,tienda
More-mar,Tienda de alimentación,,Muñoz,,Benito Juárez,Provincia de Buenos Aires,-37.6786455,-59.8011636,,36,https://streetviewpixels-pa.googleapis.com/v1/thumbnail?panoid=jHHirLp4I2gNTm3QNEiWVQ&cb_client=search.gws-prod.gps&w=408&h=240&yaw=297.178&pitch=0&thumbfov=100,1.0,0,2025-06-15T23:27:17.780Z,tienda
Donatta Mia,Tienda de ropa,https://www.instagram.com/donattamia?igsh=Y3ZwMnRidnM0ODd2&utm_source=qr,Roldán 196,+54 2983 40-9003,Benito Juárez,Provincia de Buenos Aires,-37.6778919,-59.803648,,35,https://streetviewpixels-pa.googleapis.com/v1/thumbnail?panoid=UzrH6mzB4xMKlgLZ3srtUQ&cb_client=search.gws-prod.gps&w=408&h=240&yaw=61.253494&pitch=0&thumbfov=100,1.0,0,2025-06-15T23:27:17.780Z,tienda
Daniel Fernandez,Comercio,,"Juarez 858, San Mart n, Buenos Aires",+54 11 4755-5808,Benito Juárez,Provincia de Buenos Aires,-37.6853838,-59.8193308,5.0,34,,,1,2025-06-15T23:27:17.780Z,tienda
Polleria Acuarela,Tienda de aves de corral,,Av. Alsina 203,+54 2281 55-1267,Benito Juárez,Provincia de Buenos Aires,-37.6762295,-59.8012266,4.5,33,https://lh3.googleusercontent.com/p/AF1QipMDf8qUMqlTIfsjuj9poyFUugk1b_okfAbG7V9E=w408-h306-k-no,6.0,28,2025-06-15T23:27:17.780Z,tienda
Esa maldita costilla,Carnicería,,,+54 2281 55-6325,Benito Juárez,Provincia de Buenos Aires,-37.676428,-59.7985142,4.5,32,https://lh3.googleusercontent.com/gps-cs-s/AC9h4noSet55Guc4ci1W3rsqtm07PhKSRlGJslQCtVE19ZuzY2XS3LgmI71gdWsP_DjkYP-Tyh53i6SVoIDfYIMz-TvSU04t0YBp2VJM5i0Z_SrTDni7HJJ4iicCUgaxjiZy0fj4HJyb=w426-h240-k-no,4.0,17,2025-06-15T23:27:17.780Z,tienda
Balanza las cuatro esquinas,Comercio,,RP86 122,+54 2314 62-7030,Henderson,Provincia de Buenos Aires,-37.6847868,-59.8117852,,30,https://streetviewpixels-pa.googleapis.com/v1/thumbnail?panoid=v9d2sFU9KIKBSkPwpSMTEg&cb_client=search.gws-prod.gps&w=408&h=240&yaw=245.386&pitch=0&thumbfov=100,1.0,0,2025-06-15T23:27:17.780Z,tienda
"Ensaladas ""La fruta Prohibida""",Tienda de alimentos naturales,,"Muñiz, San Antonio y",+54 2355 64-5320,Benito Juárez,Provincia de Buenos Aires,-37.6800664,-59.8029837,4.8,31,https://lh3.googleusercontent.com/p/AF1QipOVpUy0YWKCDmP0dCu7eCmdg09P-UCQTvdHEkuq=w426-h240-k-no,17.0,15,2025-06-15T23:27:17.780Z,tienda
Carniceria LAS 2 M,Carnicería,,Gral. Paz 151-199,,Benito Juárez,Provincia de Buenos Aires,-37.6789863,-59.8046969,4.6,29,https://streetviewpixels-pa.googleapis.com/v1/thumbnail?panoid=jeVB9f9ZAK2sZxrFTLm3hw&cb_client=search.gws-prod.gps&w=408&h=240&yaw=274.39352&pitch=0&thumbfov=100,1.0,39,2025-06-15T23:27:17.780Z,tienda
Panadería La Nueva Estrella,Tienda de alimentación,,"Av. San Martín, Catamarca y",,Benito Juárez,Provincia de Buenos Aires,-37.6762355,-59.8081908,4.6,27,https://lh3.googleusercontent.com/gps-cs-s/AC9h4noZ_yl5GgEJ7cFPg0QjSmUxv6VQW9UGbMsRceseyV_vIyh-GAo3EsajKXp44bNWe7m3YEFfAmVORnlZ1ismZWgvMFqi29-od_hflIguOYqa4SxbIOOrf4EEv4plah8i2Q0BD7aPug=w408-h306-k-no,14.0,21,2025-06-15T23:27:17.780Z,tienda
Despensa Las abuelas,Kiosco,,Leuvuco 196,,Benito Juárez,Provincia de Buenos Aires,-37.6832111,-59.8015336,,28,,,0,2025-06-15T23:27:17.780Z,tienda
La esperanza,Tienda de alimentación,,Labriola 275,,Benito Juárez,Provincia de Buenos Aires,-37.6807915,-59.8044511,4.5,26,https://lh3.googleusercontent.com/gps-cs-s/AC9h4npUZ_pl5MVKI3wpw5yRmcif4l2E7_bRR2R7k8JmQeswC-zyDaqIj-vJ93UcAG03_XqZqjCuDroWnTYo7ZsPCYDvGds1SXNnpFaJIId1YPziUKwjKuJx1M6rrdtv3s_30usqiKD1=w408-h306-k-no,37.0,2,2025-06-15T23:27:17.780Z,tienda
Supermercado San Martin,Supermercado,,Av. San Martín 161,,Benito Juárez,Provincia de Buenos Aires,-37.676535,-59.8088125,4.4,25,https://lh3.googleusercontent.com/gps-cs-s/AC9h4np6lGRo7NIgDghzllgLgSJrBxz2P79_VnDEaJE3SCUi-SPnAtiw2jI_skmllgiPHdap2EY8ixsBDrCHAKuOVhzamh4dVt3weviQ9f9S9iehU4ybyUS3S6NCoZdTE8d9SDswVEpq3w=w408-h544-k-no,3.0,11,2025-06-15T23:27:17.780Z,tienda
"""AgusTINA"" de Eliseo Martinez",Tienda de alimentación,,Av. Muñiz,+54 2284 39-9426,Benito Juárez,Provincia de Buenos Aires,-37.6821192,-59.8049606,4.6,24,https://lh3.googleusercontent.com/gps-cs-s/AC9h4nq9wrccjoAu_0z3bLtMVNJKPLkMkDY4UFsWoRVLMrpnd00Si4-EWfVJ1nZR8uWJLZw6OS7CdwZv9BCVX4Z910MkF2LsXBRrvhfMi8DTqtwhLqnAgQReQIYBKwHeQmgNC3NnoCkH=w520-h240-k-no,12.0,19,2025-06-15T23:27:17.779Z,tienda
Supermercado Asia,Tienda de alimentación,,Av. Pres. Juan Domingo Perón 377-399,,Benito Juárez,Provincia de Buenos Aires,-37.6795852,-59.7995975,4.1,23,https://lh3.googleusercontent.com/gps-cs-s/AC9h4norp34wa7_JvfdKMnIr_ANIfQG6wMC_jKrpdAQ-4ggtlzmKznuWZ6yOjq4J9Fj4JxEzp5FvyXyW-z9mb3HrYH5INo1Z06jkAwSGvrTO9DGTglU7GIsKW43Wk1yIDBUi3-1AoY2D=w408-h906-k-no,7.0,39,2025-06-15T23:27:17.779Z,tienda
Despensa Cambalache,Tienda de alimentación,,Av. Salenave 198-150,,Benito Juárez,Provincia de Buenos Aires,-37.6806079,-59.8068907,4.9,22,https://lh3.googleusercontent.com/p/AF1QipNPO5_VBUO9qfgzSVxez6gDArgL5GZwOGXf-VvK=w408-h906-k-no,2.0,11,2025-06-15T23:27:17.779Z,tienda
Supermercado Luna,Supermercado,,Av. Pres. Juan Domingo Perón 377-399,,Benito Juárez,Provincia de Buenos Aires,-37.6795268,-59.7996733,3.8,21,https://lh3.googleusercontent.com/gps-cs-s/AC9h4npkCK-PsSrPrVkIFfifka8RuMr4cefvvm7I3OR0au878Ih9VW7OogkGYnI6rF-qdZgQ2nxp6Chj6sAmRJxCAeN2lV9io6yr1XME6uT3roIbisN0V1AOuOpyaq6TdjAlXNguGWfv1g=w493-h240-k-no,23.0,118,2025-06-15T23:27:17.779Z,tienda
Maxi Kiosco! La Ventanita,Tienda de alimentación,,Av. Libertad 9 7020,+54 249 400-8149,Benito Juárez,Provincia de Buenos Aires,-37.6733209,-59.8047793,,7,https://streetviewpixels-pa.googleapis.com/v1/thumbnail?panoid=sbf5uR_lW4_8_ZZDpGvY3Q&cb_client=search.gws-prod.gps&w=408&h=240&yaw=30.716017&pitch=0&thumbfov=100,1.0,0,2025-06-15T23:27:16.452Z,tienda
Las Trees Nenas Frutas y verduras/ almacén,Tienda de alimentación,,Av. Juan Manuel de Rosas 236,+54 2281 60-6490,Benito Juárez,Provincia de Buenos Aires,-37.6731975,-59.7942312,5.0,2,https://lh3.googleusercontent.com/gps-cs-s/AC9h4nraqj3pXg7V1fNxVKM8WqBkqPBfNox3rjkxJ-ZVOpq9sGAQlS-IRSZpW5lxwQOGjrGg_vqx7YgawEpDD-BCekA-J3lCZqfqCTE5h5l-iUlVV-maCHlcOUtCa_gqoA76HcvYOZLirw=w408-h510-k-no,9.0,1,2025-06-15T23:27:16.451Z,tienda
Los Quesesitos,Tienda de alimentación,,Chile 249,,Benito Juárez,Provincia de Buenos Aires,-37.6756312,-59.7905513,,1,https://streetviewpixels-pa.googleapis.com/v1/thumbnail?panoid=jlyZ9ln17ni4D3wWVtEEnQ&cb_client=search.gws-prod.gps&w=408&h=240&yaw=44.03401&pitch=0&thumbfov=100,1.0,0,2025-06-15T23:27:16.451Z,tienda
Talleres Juarez mecanizado industrial,Taller de maquinaria,,Vélez Sársfield 232,+54 2281 50-2311,Benito Juárez,Provincia de Buenos Aires,-37.6668337,-59.8042679,,12,https://lh3.googleusercontent.com/p/AF1QipPRzzVk-1d-rx_CuvueLrRpdl3NbfL-sO3dehqc=w408-h545-k-no,20.0,0,2025-06-15T23:27:13.052Z,maquinaria
Hidráulica Manuel Pereyra,Taller de metalurgia,https://www.hidraulicamp.com.ar/,85HG+JR,+54 2281 55-3881,Benito Juárez,Provincia de Buenos Aires,-37.6708997,-59.8229753,5.0,5,https://lh3.googleusercontent.com/gps-cs-s/AC9h4nrTwWJWO0sgH44ua6joRAURx2_51ekhdmYg-2RhB9hXMbiiSK-Wp744Hwjkz-d39Q9wDYhjY8fB_en05CqIdHHZeWhI1oGlSUzGuNDT8j8P8Fp6Ster7RLCyPUtt6nWQs81tRra=w408-h306-k-no,26.0,6,2025-06-15T23:27:13.052Z,maquinaria
Del Giorgio Maquinarias,Servicio de reparación de maquinaria agrícola,,Av. Constitución 345,+54 2292 45-3834,Benito Juárez,Provincia de Buenos Aires,-37.6756492,-59.817902,5.0,1,https://lh3.googleusercontent.com/gps-cs-s/AC9h4nqCX6etHvdcviYpmvKA7Zm_WPSzrq9wO7ZEVleVTmVXF28Cf7hhErJ5gJdYf27Q8jFV_Jet3u8n2cxFe4EUFdupOD163u7UeqoFvH99xK3czZNPXJQLvZcfCghSuhnWajY-y02X=w408-h885-k-no,9.0,7,2025-06-15T23:27:13.050Z,maquinaria
"""El Galpón"" Compra - Venta",Centro de comercio y exhibiciones,,Av. Constitución 265,,Benito Juárez,Provincia de Buenos Aires,-37.6742112,-59.8159416,,1,https://streetviewpixels-pa.googleapis.com/v1/thumbnail?panoid=BvMOx-AZ6Y5hC6C8nPRFfQ&cb_client=search.gws-prod.gps&w=408&h=240&yaw=317.98672&pitch=0&thumbfov=100,1.0,0,2025-06-15T23:27:26.892Z,venta
Supermercado Acuario,Comercio,,Av. Zabalza 114,+54 2292 45-1209,Benito Juárez,Provincia de Buenos Aires,-37.6731326,-59.80791,4.5,1,https://lh3.googleusercontent.com/p/AF1QipNhfgUkvYm6b0304qYo_OaGKMJkHRmSzKOTmWhm=w427-h240-k-no,33.0,564,2025-06-15T23:27:27.942Z,venta online
Cooperativa Obrera,Tienda de alimentación,http://www.cooperativaobrera.coop/,Bartolomé Mitre 87,+54 2292 45-2480,Benito Juárez,Provincia de Buenos Aires,-37.6756251,-59.806056,4.5,45,https://lh3.googleusercontent.com/gps-cs-s/AC9h4nrCBUd8PhQieyQwDKHJWQF4CxQQ39qSgVz8UEhisVGfm7g0YWvI1ZbVH-AW9zRFeejgCuxV1rWpjfBSQSEJ6L5kcLD_d99Wx7mOytZtGNgRJKi8SHkeqEjEPwXxogvNWLppOtZ4=w493-h240-k-no,31.0,386,2025-06-15T23:27:19.011Z,tienda
Sommier & Living Luulu,Colchonería,,Rivadavia,,Benito Juárez,Provincia de Buenos Aires,-37.6726557,-59.807261,,5,https://streetviewpixels-pa.googleapis.com/v1/thumbnail?panoid=ManAdp58s3t2X7A1gTTkEw&cb_client=search.gws-prod.gps&w=408&h=240&yaw=311.3888&pitch=0&thumbfov=100,1.0,0,2025-06-15T23:27:30.845Z,muebles
Casa Merlino,Tienda de artículos para el hogar,,Av. Libertad 174,+54 2292 45-2079,Benito Juárez,Provincia de Buenos Aires,-37.6714364,-59.8077037,4.5,4,https://lh3.googleusercontent.com/gps-cs-s/AC9h4nreB3Th6LuTfiH_a1CDCa90YzFyCVtvFG7kjwHVL9W18k2lMhDAzojh7AYleo_1o-Y6CcXKPeZT-Qe-avpOojGMj8pAvOF6VTAPKNATDEiaUA3DKcw8L7vihZFQRQh_GgZnMuWzEg=w408-h725-k-no,11.0,106,2025-06-15T23:27:30.845Z,muebles
Pablo Guevara,Fábrica de muebles,,Yatasto 331,+54 2281 30-0084,Benito Juárez,Provincia de Buenos Aires,-37.6844995,-59.8069937,,3,,,0,2025-06-15T23:27:30.845Z,muebles
DECO-MUEBLES EL SALMON,Tienda de artículos para el hogar,,Av. Libertad 249,+54 2292 45-4720,Benito Juárez,Provincia de Buenos Aires,-37.6701962,-59.8090081,4.8,2,https://lh3.googleusercontent.com/gps-cs-s/AC9h4nqnyP3XOcVw9pcqX9umLgM6HHkjV-Iwv8sj9n0TGVwkivaf4WREt2neXlYGH8oemyVGoZj8mMRrN_iPATKCMbCFSx4QHgmRw_wFlO1uzakyYg6GM88OKaKZ8ynyIGEynQ6iTngi=w408-h544-k-no,399.0,16,2025-06-15T23:27:30.845Z,muebles
Casa Silvia (Art. para el hogar),Tienda de muebles,,Av. Libertad 260,+54 810-222-2424,Benito Juárez,Provincia de Buenos Aires,-37.6702266,-59.8092574,4.6,1,https://lh3.googleusercontent.com/p/AF1QipPAAMx7lKawZ0l00ap78YAI7GrGTu68IZx0ySY=w426-h240-k-no,27.0,167,2025-06-15T23:27:30.844Z,muebles
La Cayetana Blanqueria,Tienda de artículos para el hogar,,Av. Libertad 70,+54 2281 37-0541,Benito Juárez,Provincia de Buenos Aires,-37.6727352,-59.8060762,5.0,2,https://lh3.googleusercontent.com/gps-cs-s/AC9h4noCeiIYH78Dnvstsj80y5GJjiRPb1NK8ix3sMuKVIhwpqez9BieDVCi2nhsjVECf3zVGkOi_3BwtUoHctVMHV2zwqBfXjiEx-M1WHV6S04oJqsxoRVq63U5x-ru6KehuA7ZXD1SPA=w408-h408-k-no,15.0,3,2025-06-15T23:27:33.725Z,blanqueria
Eternet - Benito Juárez,Proveedor de servicios de Internet,https://www.eternet.com.ar/,Sgto. Cabral N° 42,+54 800-345-3737,Benito Juárez,Provincia de Buenos Aires,-37.6706366,-59.8064399,4.2,1,https://lh3.googleusercontent.com/p/AF1QipOgSlLf2JgiWoYkUE8h3qhqvvewR13RC27p8QuO=w408-h408-k-no,4.0,21,2025-06-15T23:27:28.920Z,telefonia
El Rincón de Maria,Mercería,,Domingo Faustino Sarmiento 155,,Benito Juárez,Provincia de Buenos Aires,-37.671735,-59.8145708,4.7,20,https://lh3.googleusercontent.com/gps-cs-s/AC9h4nritPwiWxCznq3T17n7CbjvDkDlZazAy1HmKH3CV-KGnQ4ieLMwzI0LJJnXdbriiMUCcc9jzemYjzTCo44jKgjcy7eEMz0eX2JlanruHDPlsJpb1oCR2QQrL4896V-iS0FlmAgf=w408-h305-k-no,32.0,37,2025-06-15T23:27:35.862Z,comercio
Autoservicio Chiozza,Supermercado,,Av. Constitución 294,,Benito Juárez,Provincia de Buenos Aires,-37.6751032,-59.8163134,4.7,19,https://streetviewpixels-pa.googleapis.com/v1/thumbnail?panoid=6mJ5cOO5yhqRIB_OqzrI6Q&cb_client=search.gws-prod.gps&w=408&h=240&yaw=123.960625&pitch=0&thumbfov=100,2.0,31,2025-06-15T23:27:35.862Z,comercio
El Limonero,Frutería,,C. Zibecchi 150-198,,Benito Juárez,Provincia de Buenos Aires,-37.6699501,-59.802022,4.7,18,https://lh3.googleusercontent.com/gps-cs-s/AC9h4nrF_hUwGp8dsBN9CFtx3ty8ktak5kE1lExcxF3OgHK3H_ICTiA5QI7NYIFdcZYD08blqMrb-bWwRRELdePs3LqN8p0SLragpkqenC0VznuupHQVSYBXl9gaQOTjowRr73z5hzVPjA=w408-h306-k-no,4.0,6,2025-06-15T23:27:35.862Z,comercio
DESPENSA ROM-BAU 👬,Tienda general,,Avellaneda 76,,Benito Juárez,Provincia de Buenos Aires,-37.6680048,-59.8005746,,60,https://lh3.googleusercontent.com/gps-cs-s/AC9h4noTWc5g7uOIlrf7S369JuXaihI--GsyysOu7EEyZ31_EWu9OrG7RADUiGgl5vTOaiGVKkWq9sgd0E3tJehlKj5mYQ8lsxvYqI6Ojzmj9-_XkkEfBAlGNrsZHtnB0FZgV6mp5w2D4Q=w408-h725-k-no,2.0,0,2025-06-15T23:27:37.264Z,comercio
Mataco,Tienda de alimentos para animales,,Juan Bautista Alberdi 106,+54 2281 53-2412,Benito Juárez,Provincia de Buenos Aires,-37.6674271,-59.8077599,5.0,71,https://streetviewpixels-pa.googleapis.com/v1/thumbnail?panoid=gctcJPzZA4_Us23xzOSivg&cb_client=search.gws-prod.gps&w=408&h=240&yaw=322.52878&pitch=0&thumbfov=100,1.0,7,2025-06-15T23:27:37.936Z,comercio
JAULA,Tienda de ropa,,Av. Zabalza 163,,Benito Juárez,Provincia de Buenos Aires,-37.6721583,-59.8086549,,70,https://streetviewpixels-pa.googleapis.com/v1/thumbnail?panoid=BPO9Hiokd5jdYUMjLd340A&cb_client=search.gws-prod.gps&w=408&h=240&yaw=32.313118&pitch=0&thumbfov=100,1.0,0,2025-06-15T23:27:37.935Z,comercio
Tienda Lopez,Tienda de ropa,https://www.facebook.com/tiendas.lopez.1?mibextid=ZbWKwL,Av. Libertad 115,,Benito Juárez,Provincia de Buenos Aires,-37.6717951,-59.8065604,3.0,69,https://streetviewpixels-pa.googleapis.com/v1/thumbnail?panoid=quAHdMWdoABenWubHol87w&cb_client=search.gws-prod.gps&w=408&h=240&yaw=45.24733&pitch=0&thumbfov=100,1.0,2,2025-06-15T23:27:37.935Z,comercio
Picos DEPORTES,Tienda de ropa de deportes,,C. Zibecchi 2-48,,Benito Juárez,Provincia de Buenos Aires,-37.6723491,-59.8051948,4.0,68,https://streetviewpixels-pa.googleapis.com/v1/thumbnail?panoid=gzBpkl5lqo8LUSbarxsuGw&cb_client=search.gws-prod.gps&w=408&h=240&yaw=295.80972&pitch=0&thumbfov=100,1.0,36,2025-06-15T23:27:37.935Z,comercio
Okelyon,Tienda de ropa,,Av. Libertad 73,,Benito Juárez,Provincia de Buenos Aires,-37.6724064,-59.8059168,,65,https://streetviewpixels-pa.googleapis.com/v1/thumbnail?panoid=rcKbgmfjZhv1XUxVzeXB-Q&cb_client=search.gws-prod.gps&w=408&h=240&yaw=33.380165&pitch=0&thumbfov=100,1.0,0,2025-06-15T23:27:37.935Z,comercio
Dietética La Delfina,Tienda de alimentos naturales,,Av. Urquiza 50 98,,Benito Juárez,Provincia de Buenos Aires,-37.6724172,-59.8036993,4.8,64,https://streetviewpixels-pa.googleapis.com/v1/thumbnail?panoid=Gh6jpDMFxS3XPNiN9yQ9vQ&cb_client=search.gws-prod.gps&w=408&h=240&yaw=292.46152&pitch=0&thumbfov=100,1.0,5,2025-06-15T23:27:37.935Z,comercio
MINIMERCADO EL PAISA,Tienda de alimentación,,,,Benito Juárez,Provincia de Buenos Aires,-37.6723151,-59.7996525,,63,https://streetviewpixels-pa.googleapis.com/v1/thumbnail?panoid=a2eveH-xMNHmLEqKgfoBaQ&cb_client=search.gws-prod.gps&w=408&h=240&yaw=124.35906&pitch=0&thumbfov=100,1.0,0,2025-06-15T23:27:37.935Z,comercio
MINIMERCADO EL PAISA,Tienda de alimentación,,,,Benito Juárez,Provincia de Buenos Aires,-37.6707138,-59.8132244,,62,https://streetviewpixels-pa.googleapis.com/v1/thumbnail?panoid=z47TZTRwR4idAr2zRNlV-g&cb_client=search.gws-prod.gps&w=408&h=240&yaw=347.1494&pitch=0&thumbfov=100,1.0,0,2025-06-15T23:27:37.935Z,comercio
Joyero Relojero,Joyería,,Av. Libertad 70,,Benito Juárez,Provincia de Buenos Aires,-37.672731,-59.8059855,,59,https://streetviewpixels-pa.googleapis.com/v1/thumbnail?panoid=HHNWfawT0AZjuRQ5xJWZWQ&cb_client=search.gws-prod.gps&w=408&h=240&yaw=235.85165&pitch=0&thumbfov=100,1.0,0,2025-06-15T23:27:37.264Z,comercio
"MIEL Sr. Tino, de Campos Naturales Argentinos",Tienda de alimentos naturales,http://www.facebook.com/mielsrtino,25 de Mayo 2,+54 2292 45-2310,Benito Juárez,Provincia de Buenos Aires,-37.67166,-59.802693,3.0,58,https://streetviewpixels-pa.googleapis.com/v1/thumbnail?panoid=DhNhEmzg9jMozEcYwrOp-Q&cb_client=search.gws-prod.gps&w=408&h=240&yaw=202.89743&pitch=0&thumbfov=100,1.0,1,2025-06-15T23:27:37.264Z,comercio
Sani-Gas,Tienda de artículos relacionados con el gas,,"B7020BTB 54, BTB, Sgto. Cabral",+54 2281 53-4476,Benito Juárez,Provincia de Buenos Aires,-37.6704869,-59.8060712,4.5,57,https://lh3.googleusercontent.com/p/AF1QipMaQuGEUsgG5vHNzBzObZv8xwWE034VKD9NrnCS=w408-h306-k-no,220.0,33,2025-06-15T23:27:37.264Z,comercio
FRUTAS EMANUEL YOEL,Tienda de alimentación,,Av. Zabalza 233,,Benito Juárez,Provincia de Buenos Aires,-37.6712993,-59.809779,,56,https://streetviewpixels-pa.googleapis.com/v1/thumbnail?panoid=p0V1ySvIyubVCB50U8ZVsg&cb_client=search.gws-prod.gps&w=408&h=240&yaw=22.066666&pitch=0&thumbfov=100,1.0,0,2025-06-15T23:27:37.264Z,comercio
Lubricentro El Abuelo,Tienda de accesorios para automóviles,,"B7020AKD, Domingo Faustino Sarmiento 2-48",+54 2281 49-2729,Benito Juárez,Provincia de Buenos Aires,-37.6692968,-59.8112703,4.6,55,https://lh3.googleusercontent.com/gps-cs-s/AC9h4noiQHdNBLEfx60_-h82f36ZZWmSl7Y1zfatuqo0wYH7vsLvfjQY0-Orz3NqfxrHryO_wFmDaRPc1zRfNGgZdS3P3o262SmvPDZ-V438BnaiLTEKFyNvfhCmIIssr5xO1SyP5DhpwA=w426-h240-k-no,25.0,21,2025-06-15T23:27:37.264Z,comercio
Confeccionessonia,Tienda de ropa,,9 de Julio 360,+54 2281 40-3752,Benito Juárez,Provincia de Buenos Aires,-37.6705851,-59.8133977,4.5,54,https://lh3.googleusercontent.com/gps-cs-s/AC9h4nodgxPWeptSVP7r9hlIPeL_ppM3BkjQWu8PXp6SlBOix-xycctwhukVUTYtotqvMBek3Q_XCeOmLvYK1OjxpQW2CjjYkfb3Ammp7gsUHgprtUVWZPvLPJQ_gEXIe_VzuKQFvrdp=w408-h306-k-no,2.0,6,2025-06-15T23:27:37.264Z,comercio
Ohana Fiambreria y Anexos,Tienda de fiambres,,Zibechi 214,+54 2281 68-0163,Benito Juárez,Provincia de Buenos Aires,-37.6688896,-59.8010542,4.8,53,https://streetviewpixels-pa.googleapis.com/v1/thumbnail?panoid=BdhWGRhP9OHKr7rjVngNJg&cb_client=search.gws-prod.gps&w=408&h=240&yaw=297.65173&pitch=0&thumbfov=100,1.0,17,2025-06-15T23:27:37.264Z,comercio
La desplumada,Tienda de aves de corral,,Juan Bautista Alberdi,,Buenos Aires,Provincia de Buenos Aires,-37.667865,-59.8078899,4.9,52,https://lh3.googleusercontent.com/gps-cs-s/AC9h4nqB3r9SogwzkECWvw-Kph_JA4hs5Uvy7NZjaNCOvwwB2mR_NM76R4dZRiC62Q4xu_46Yd5y7uIX2gAUvO8cNYItcs_X4ZdAckp63pj5MaCTDXVjHl6mKSXzuftOdOzRKVRvU5pqMg=w408-h300-k-no,5.0,25,2025-06-15T23:27:37.264Z,comercio
Maxikiosco Gudi,Kiosco,,"Zibechi, Almte. Brown y",+54 2281 55-4900,Benito Juárez,Provincia de Buenos Aires,-37.6719382,-59.8047361,5.0,50,https://lh3.googleusercontent.com/p/AF1QipPNlBBpmIYk1hCONSzx0buDW4l2PZU1y7Lr6gU-=w425-h240-k-no,2.0,1,2025-06-15T23:27:37.263Z,comercio
Coqueterias la pañalera de Benito Juárez/ Distribuidor de Biogreen,Tienda de accesorios de moda,http://www.coqueterias.com.ar/,Av. Libertad 76,+54 2281 41-7481,Benito Juárez,Provincia de Buenos Aires,-37.672542,-59.8061842,5.0,17,https://lh3.googleusercontent.com/p/AF1QipNA5CsY3wW85ASpV4mxnoUG5Mkpd6Yv5pMLXov4=w408-h244-k-no,113.0,23,2025-06-15T23:27:35.862Z,comercio
Rurales Chorengo,Ferretería,,Cam. del Bicentenario 575,+54 2281 46-1771,Benito Juárez,Provincia de Buenos Aires,-37.666736,-59.815693,4.6,49,https://lh3.googleusercontent.com/p/AF1QipPYCzmQ7Zu7QprZsSvm7tJEwC0GBICAsKIOi4cX=w408-h306-k-no,49.0,164,2025-06-15T23:27:37.263Z,comercio
EPIC² INFORMATIZACIONES,Tienda de informática,,Av. Uruguay 124,+54 2281 58-7408,Benito Juárez,Provincia de Buenos Aires,-37.6717464,-59.8012703,4.2,47,https://lh3.googleusercontent.com/gps-cs-s/AC9h4npxLnBz3PKlqG7ggXtFgj4OTwpmnaTVXUamVWKm7WDG6hrU7tl23n1HK_hAfnEu3mS2KK9dCpklEZu_eOs-VTbZeIochSe0DGawU-P8BQb8l7VV52cunlqCg8ti1lJJCPNuYTIL=w532-h240-k-no,393.0,6,2025-06-15T23:27:37.263Z,comercio
Magonia,Tienda de ropa,,Sgto. Cabral 229,+54 2281 58-7948,Benito Juárez,Provincia de Buenos Aires,-37.6673693,-59.8021659,4.7,48,https://lh3.googleusercontent.com/p/AF1QipNmKH_Sf7j36rcCIf6IYwhtSVq52-_c13u8o4B3=w408-h544-k-no,5.0,19,2025-06-15T23:27:37.263Z,comercio
El Deleite,Cafetería,,Av. Libertad 1-49,+54 2281 58-4757,Benito Juárez,Provincia de Buenos Aires,-37.6728757,-59.8055477,4.5,46,https://lh3.googleusercontent.com/gps-cs-s/AC9h4nrA2oQcnVrkOKNAGX8EaW854Pk1IZ_bfr08UiaEMzjqjNf9EmwSRyReLkJCGPVgmIiEjg0TfcFQKgNSjWl9qMUJ109WQCT_35EUkIa-XNpctH6Y5QThdUYkzACSfeiODR3Lk9YEcg=w426-h240-k-no,28.0,276,2025-06-15T23:27:37.263Z,comercio
PASEO DE COMPRAS ALAK,Tienda de ropa,,"B7020AMA, Pumara 49",+54 2292 45-1001,Benito Juárez,Provincia de Buenos Aires,-37.6710116,-59.8101753,4.5,45,https://lh3.googleusercontent.com/gps-cs-s/AC9h4nqaIi6WEgEWJk2gQ2ETNobHH77k2EurPwk2RarlsjxjJIZTN91pUjo2SAxowb7YlcvHpp_vIOx2T99evM6jpx8MjKnkdb0hOU_4h3NoZhy66tBGjAbONgN6SbbHG3xUf1d7wkKz5dFEB0T_=w408-h306-k-no,2.0,24,2025-06-15T23:27:37.263Z,comercio
Angeles y demonios bellusci julieta,Tienda general,,Av. Artigas 249,+54 2281 55-0711,Benito Juárez,Provincia de Buenos Aires,-37.6703849,-59.7924759,4.3,44,https://lh3.googleusercontent.com/gps-cs-s/AC9h4nqNOSgt1gHLHiHN4gr7EfF39OrkB8Y_-lNzlM8vsL-14ovVt_Wj6WYOZIWDrX7nJKqZ_okyF2w8rHjVpn0uIW1kQmNsJVyphIfvb2p6KAAsJCKmfPgsk-d4IzzihYPBzhYidMxJ=w408-h725-k-no,1.0,3,2025-06-15T23:27:37.263Z,comercio
Ladran Sancho,Frutería,,7020,+54 2281 68-1989,Benito Juárez,Provincia de Buenos Aires,-37.6661884,-59.8029673,4.8,43,https://lh3.googleusercontent.com/gps-cs-s/AC9h4nqcairF7iXjKOiWisDEpdsFLN6rl94ihP-wlG_Df-qmzZMh34qo_2P_SAUl5Wm0-0ILOJNeEoI97QoffFpTJV_wq2Lv-UMDyCRJ9-zS7qmk8t_XQ-hBvIaYevYStFcGlwwVfuzR=w408-h544-k-no,2.0,6,2025-06-15T23:27:37.263Z,comercio
Regaleria Felices Fiestas Bazar,,,Av. Zabalza 344,,Benito Juárez,Provincia de Buenos Aires,-37.6699592,-59.8119812,,2,https://streetviewpixels-pa.googleapis.com/v1/thumbnail?panoid=ILTAaP9ycuI049ERlfIH3w&cb_client=search.gws-prod.gps&w=408&h=240&yaw=246.5447&pitch=0&thumbfov=100,1.0,0,2025-06-15T23:27:36.840Z,regaleria
Cuatro Cositas Bazar & Regaleria,,,Av. Muñiz,,Benito Juárez,Provincia de Buenos Aires,-37.6797739,-59.8025699,,1,https://streetviewpixels-pa.googleapis.com/v1/thumbnail?panoid=XziNZsEs0dNDWWezTGP8JA&cb_client=search.gws-prod.gps&w=408&h=240&yaw=316.52246&pitch=0&thumbfov=100,1.0,0,2025-06-15T23:27:36.840Z,regaleria
OCEÁNICA INDUMENTARIA,Tienda de ropa,,C. Zibecchi 23,,Benito Juárez,Provincia de Buenos Aires,-37.6724552,-59.8050582,,36,https://streetviewpixels-pa.googleapis.com/v1/thumbnail?panoid=gzBpkl5lqo8LUSbarxsuGw&cb_client=search.gws-prod.gps&w=408&h=240&yaw=146.29002&pitch=0&thumbfov=100,1.0,0,2025-06-15T23:27:36.700Z,comercio
El Gauchito,Tienda general,,Córdoba 447,,Benito Juárez,Provincia de Buenos Aires,-37.6687087,-59.7902813,,39,,,0,2025-06-15T23:27:36.701Z,comercio
Proveeduria Avenida,Tienda de alimentación,,Av. Libertad 301,+54 2292 45-2671,Benito Juárez,Provincia de Buenos Aires,-37.6693352,-59.809968,,32,https://streetviewpixels-pa.googleapis.com/v1/thumbnail?panoid=cUBoE9fcHsXdAmHEk82WTg&cb_client=search.gws-prod.gps&w=408&h=240&yaw=29.220526&pitch=0&thumbfov=100,1.0,0,2025-06-15T23:27:36.700Z,comercio
Pasteleria CENTRO,Panadería,,Av. Libertad 146,,Benito Juárez,Provincia de Buenos Aires,-37.671761,-59.8072516,5.0,15,https://streetviewpixels-pa.googleapis.com/v1/thumbnail?panoid=YdQSMznvfGgFMWUsrbYQbg&cb_client=search.gws-prod.gps&w=408&h=240&yaw=238.65422&pitch=0&thumbfov=100,1.0,1,2025-06-15T23:27:35.862Z,comercio
La Union de Benito Juarez SRL Panificadora - Autoservicio,Panadería,,Av. Libertad 268,+54 2292 45-4333,Benito Juárez,Provincia de Buenos Aires,-37.6700753,-59.809615,4.5,14,https://lh3.googleusercontent.com/gps-cs-s/AC9h4nohDon1ayQ_iX_74cPSjna-djVvHqYz-bWfxMW8-ic7fNwnsh9jfcCZWMA8wBUv2acy53hHn90wcY75jrcTKkQ3eO55HqEBw4tAQfoaz_P-wojfxgnOf5jVh2GpuBA1bvKCJBre=w408-h725-k-no,6.0,34,2025-06-15T23:27:35.862Z,comercio
Agus-TINA 2 de Eliseo Martinez,Comercio,,Acosta Ñu 231,+54 2281 57-3357,Benito Juárez,Provincia de Buenos Aires,-37.669386,-59.7918331,,13,,,0,2025-06-15T23:27:35.862Z,comercio
Quiniela Agencia Casino y Rapipago,Comercio,,Delgiorgiogiuliano@gmail.com,+54 2281 38-6280,Benito Juárez,Provincia de Buenos Aires,-37.6726371,-59.808081,4.2,12,https://lh3.googleusercontent.com/p/AF1QipPjbsGyZG_5uf6ez3di1AA2T86lWJcxv99rxxF4=w408-h810-k-no,9.0,10,2025-06-15T23:27:35.862Z,comercio
Mercado Natural GAIA,Tienda de alimentación,,"Zibecchi, 25 de Mayo y",+54 2281 31-1177,Benito Juárez,Provincia de Buenos Aires,-37.6709081,-59.8034105,5.0,11,https://lh3.googleusercontent.com/gps-cs-s/AC9h4nrjNsR4FtnVllTmV6dVWh_1aJVomnRGItsxuGjwsX0n3RVZhfGNOSlhvHIXOiY36SdUxHR92BLfIqfcIqO_NlL6I1yCjf7NTAkIolzhLmSpDIbvjelkZg5o-e1spENZP-H6EB_f=w408-h252-k-no,38.0,6,2025-06-15T23:27:35.862Z,comercio
Locutorio Dos Avenidas,Locutorio,,Av. Urquiza 151,+54 2292 45-2919,Benito Juárez,Provincia de Buenos Aires,-37.6707517,-59.8013103,4.5,10,https://streetviewpixels-pa.googleapis.com/v1/thumbnail?panoid=9RReRw9-43jKcdb-kkOgVA&cb_client=search.gws-prod.gps&w=408&h=240&yaw=187.44424&pitch=0&thumbfov=100,1.0,2,2025-06-15T23:27:35.862Z,comercio
Sicar Hogar,Comercio,,Av. Libertad 91,+54 2292 45-4510,Benito Juárez,Provincia de Buenos Aires,-37.6721949,-59.8062252,4.7,9,https://streetviewpixels-pa.googleapis.com/v1/thumbnail?panoid=0sW3EBjyf9lATkT8eCjmqg&cb_client=search.gws-prod.gps&w=408&h=240&yaw=51.50472&pitch=0&thumbfov=100,1.0,6,2025-06-15T23:27:35.862Z,comercio
Supermercado LOS PAQUITOS,Supermercado,,Av. Constitución 165,+54 2284 62-1393,Benito Juárez,Provincia de Buenos Aires,-37.6725469,-59.8136506,4.5,8,https://lh3.googleusercontent.com/gps-cs-s/AC9h4nr2DJmhYQ7JVNjgODnWAsVOM1TNH-NAYVAvak4yBpAt39OaWGMhQabu-emCzhZbFedgUxcEfuRMUHY_zvknAQY-tu40A_napjywaAV0-BjLPGFAxB8Lff3KVhwP4ObF7VhYj7Wc=w408-h408-k-no,2.0,157,2025-06-15T23:27:35.862Z,comercio
Direfren,Comercio,,Gral. las Heras 117,+54 2281 57-7180,Benito Juárez,Provincia de Buenos Aires,-37.6681056,-59.80637,,7,https://lh3.googleusercontent.com/p/AF1QipOn6cjBMME4xeO2cLISLaLclAr7UrijMMSh3R0D=w408-h544-k-no,8.0,0,2025-06-15T23:27:35.862Z,comercio
EL MENDOCINO,Tienda de alimentación,,Juan Bautista Alberdi 5 B7020BQA,+54 2281 63-3151,Benito Juárez,Provincia de Buenos Aires,-37.6694773,-59.8096518,4.8,6,https://streetviewpixels-pa.googleapis.com/v1/thumbnail?panoid=5kIcfM-HF9H0kO3djmbJcQ&cb_client=search.gws-prod.gps&w=408&h=240&yaw=136.16508&pitch=0&thumbfov=100,1.0,4,2025-06-15T23:27:35.862Z,comercio
Kiosko La Favorita,Tienda de alimentación,,Av. Constitución 32,,Benito Juárez,Provincia de Buenos Aires,-37.6700894,-59.8102473,4.7,5,https://lh3.googleusercontent.com/gps-cs-s/AC9h4nobPFVu637zsS5eRRyFCQuZCat0sZvC3l6-ur6ANC5uMLUm1G03Mshf1Wnq8jPbZYGhVp_GP4TeRqfM3rJ5tsJXcQ_RJCPjkHLzc8vW5W8vwCq4Hd0iRXhB4AbDvtFIJ3yampTkiQ=w408-h306-k-no,4.0,29,2025-06-15T23:27:35.862Z,comercio
Lo De Vil,Supermercado,,Av. Roque Sáenz Peña 201-249,+54 2281 58-7429,Benito Juárez,Provincia de Buenos Aires,-37.6678542,-59.8049482,4.6,4,https://lh3.googleusercontent.com/p/AF1QipOFQM802ET3o9uX8Xoua8_AlZrj1DZzL2Dsnbfh=w408-h874-k-no,23.0,134,2025-06-15T23:27:35.861Z,comercio
Lo Ramito,Comercio,,Almte. Brown 226,+54 2281 59-2124,Benito Juárez,Provincia de Buenos Aires,-37.6697144,-59.8076846,5.0,3,https://lh3.googleusercontent.com/p/AF1QipOQcLOpg6LVRc_5XaLGPpXO9J3-Tnu-3ejkOB_3=w408-h379-k-no,11.0,3,2025-06-15T23:27:35.861Z,comercio
D&S INDUSTRIAS,Fábrica de maquinaria,https://www.dys-industrias.com.ar/,"parque industrial, RP86",+54 2281 55-0789,Benito Juárez,Provincia de Buenos Aires,-37.6984941,-59.7911858,,3,https://lh3.googleusercontent.com/p/AF1QipOmc3JbR0RLEt65pV6tZ-VUW8j2s-kdSQVyolTh=w408-h906-k-no,38.0,0,2025-06-15T23:27:13.052Z,maquinaria
Polipez,Comercio,http://www.polipez.com.ar/,Av. Zabalza 146,+54 2281 46-6009,Benito Juárez,Provincia de Buenos Aires,-37.6726039,-59.8085706,4.6,2,https://streetviewpixels-pa.googleapis.com/v1/thumbnail?panoid=tzEZNr76wR4721qwSW2jCQ&cb_client=search.gws-prod.gps&w=408&h=240&yaw=230.97806&pitch=0&thumbfov=100,1.0,57,2025-06-15T23:27:35.861Z,comercio
Supermercado Apolo 11,Supermercado,https://www.bento.me/apoloatumedida,"Almirante Brown 10, Almte. Brown 18",+54 2281 47-5090,Benito Juárez,Provincia de Buenos Aires,-37.67244,-59.8039665,4.4,66,https://lh3.googleusercontent.com/p/AF1QipNTPwzTCWbmYG7PK8Kp7RSDBaTo86h8G85j9t-F=w408-h273-k-no,25.0,115,2025-06-15T23:27:37.935Z,comercio
Naldo,Tienda de electrodomésticos,https://www.naldo.com.ar/,Av. Libertad 71,+54 2292 45-4997,Benito Juárez,Provincia de Buenos Aires,-37.6723753,-59.8057408,4.2,35,https://lh3.googleusercontent.com/p/AF1QipOl0DZnlhvAOIpSitEhN7qg-O0c74hIVYEFvhkV=w426-h240-k-no,2.0,58,2025-06-15T23:27:36.700Z,comercio
Polipez,Comercio,http://www.polipez.com.ar/,Av. Uruguay 75,+54 249 455-1387,Benito Juárez,Provincia de Buenos Aires,-37.6729732,-59.8019717,4.8,1,https://lh3.googleusercontent.com/p/AF1QipOmHm5a6otCYqwzR9gWNq0j2TGQ--ymAQEKyHe7=w426-h240-k-no,5.0,74,2025-06-15T23:27:35.861Z,comercio
HumuS Servicios Gastronómicos,Restaurante de comida para llevar,,Av. Constitución 12,+54 2281 30-5045,Benito Juárez,Provincia de Buenos Aires,-37.6698504,-59.8098782,5.0,2,https://lh3.googleusercontent.com/gps-cs-s/AC9h4noEy-BXKV2TA5e02in44yc0RlnumtNgGNZtZriOH9kFnIyzSQvjvfhX_zvsG-J8-ZXHjRAX6yUXgAP5tnhlwVGniyKbX1I8w5k2MQyQze-yjfT3F4qAlTo_vhvBo3EWpj3aZAAj=w426-h240-k-no,4.0,19,2025-06-15T23:27:47.279Z,venta
La casa del motor,Tienda de repuestos para automóviles,,Rivadavia 201 249,+54 2281 32-4932,Benito Juárez,Provincia de Buenos Aires,-37.6765364,-59.8117461,,7,https://streetviewpixels-pa.googleapis.com/v1/thumbnail?panoid=rXzUIF_wHo6oZpxojWbOSg&cb_client=search.gws-prod.gps&w=408&h=240&yaw=149.67026&pitch=0&thumbfov=100,2.0,0,2025-06-15T23:27:46.559Z,repuestos
Carlos REYNOSO REPUESTOS AGRICOLAS,Tienda de repuestos para coches de carreras,,Av. Muñiz 251-299,,Benito Juárez,Provincia de Buenos Aires,-37.6823028,-59.8057421,4.9,6,https://streetviewpixels-pa.googleapis.com/v1/thumbnail?panoid=vp4kjEzYM-JH0c__-_D-dA&cb_client=search.gws-prod.gps&w=408&h=240&yaw=298.29306&pitch=0&thumbfov=100,1.0,11,2025-06-15T23:27:46.559Z,repuestos
Serantes Accesorios,Tienda de repuestos de automóviles usados,,Av. Muñiz 49,+54 2281 46-6108,Benito Juárez,Provincia de Buenos Aires,-37.6784356,-59.8006522,4.6,5,https://lh3.googleusercontent.com/gps-cs-s/AC9h4nq3Alj5Ac0wBG_HlvVgQKTDL6opunO8s7ZWHQX9dKYsD9M0WThOscWXz4ACxB39VjCg1_1hOFezrkH7JiPjy3d6LjsHCBxUshqNBbm8ceGN1eRNLL2giXNYr1TDJ-Z0VbLarRrt=w408-h306-k-no,2.0,66,2025-06-15T23:27:46.559Z,repuestos
MD accesorios BJ,Tienda de repuestos para automóviles,,Juan Bautista Alberdi 120,,Benito Juárez,Provincia de Buenos Aires,-37.6671091,-59.8073864,5.0,4,https://streetviewpixels-pa.googleapis.com/v1/thumbnail?panoid=9RVXcIL9qdnc6Y-KwTsO8A&cb_client=search.gws-prod.gps&w=408&h=240&yaw=316.8743&pitch=0&thumbfov=100,1.0,2,2025-06-15T23:27:46.558Z,repuestos
Venta de camisetas fútbol,Centro comercial,,Pumara 126,+54 2281 58-5086,Benito Juárez,Provincia de Buenos Aires,-37.6726773,-59.8117608,,3,https://streetviewpixels-pa.googleapis.com/v1/thumbnail?panoid=M2vSf4_8GT9Une6uKtFYmw&cb_client=search.gws-prod.gps&w=408&h=240&yaw=133.69376&pitch=0&thumbfov=100,1.0,0,2025-06-15T23:27:47.279Z,venta
M.H. Sanz Repuestos,Tienda de repuestos para automóviles,,,,Benito Juárez,Provincia de Buenos Aires,-37.6726027,-59.8104677,,3,https://streetviewpixels-pa.googleapis.com/v1/thumbnail?panoid=DOCqR-fZ1nneKNIZ0ZGBBg&cb_client=search.gws-prod.gps&w=408&h=240&yaw=343.599&pitch=0&thumbfov=100,1.0,0,2025-06-15T23:27:46.558Z,repuestos
Repuestos Perco,Tienda de repuestos de automóviles usados,,Av. Urquiza 41,+54 2281 53-2090,Benito Juárez,Provincia de Buenos Aires,-37.6728965,-59.8036928,4.6,2,https://streetviewpixels-pa.googleapis.com/v1/thumbnail?panoid=1nnz39CMBIbhdYJccqcPDA&cb_client=search.gws-prod.gps&w=408&h=240&yaw=123.82189&pitch=0&thumbfov=100,1.0,5,2025-06-15T23:27:46.558Z,repuestos
Repuestos lo de migue,Tienda de accesorios para automóviles,,San Juan 126,+54 2281 53-2680,Benito Juárez,Provincia de Buenos Aires,-37.6724408,-59.8003032,4.6,1,https://lh3.googleusercontent.com/gps-cs-s/AC9h4nqEmd3W42vC0FmEDmmH6EadGDTbuqZ1xgVaGG3Qe4paqJiSjf_CyAdBj36c7Yw0vPHEvz1OZJIXgGkE1ByU65HDUXNqPuekS48SPnaV6W-NbQwDKGzBhVHR40JUCJyeH81Yjr70=w408-h544-k-no,4.0,17,2025-06-15T23:27:46.558Z,repuestos
Cientochenta°,Cafetería,http://cientochentagrados.com.ar/menu/,Almte. Brown 2,+54 2281 31-7816,Benito Juárez,Provincia de Buenos Aires,-37.6725812,-59.8038007,4.4,51,https://lh3.googleusercontent.com/p/AF1QipNNq-ziGky7ovus1jBva6Q9vtVueLH4akk6rGBR=w408-h544-k-no,567.0,225,2025-06-15T23:27:37.263Z,comercio
Decoartemano,Interiorista,,Pellegrini 40,+54 2281 55-6958,Benito Juárez,Provincia de Buenos Aires,-37.6689459,-59.8124722,5.0,4,https://lh3.googleusercontent.com/p/AF1QipPslLy9boG3b1YpfnrN6gYoFG14rTL8d5xou3Ng=w408-h408-k-no,123.0,1,2025-06-15T23:27:49.522Z,muebles
Maderas Elizalde,Establecimiento de venta de madera,https://www.oblak.com.ar/,"Domingo Faustino Sarmiento 17, B7020AKC",+54 2281 65-9364,Benito Juárez,Provincia de Buenos Aires,-37.6689899,-59.8114013,4.7,6,https://lh3.googleusercontent.com/p/AF1QipMcNK7rLJukpb6CyWI3ADEJLOFh-0d7C1rmPmI=w426-h240-k-no,16.0,15,2025-06-15T23:27:49.522Z,muebles
Acoplados Juarez - Repuestos acoplados y semirremolques,Proveedor de repuestos de carrocería de automóviles,https://www.guia-dorada.com.ar/guia/aviso-repuestos-para-acoplados-y-semirremolques-en-benito-juarez-buenos-aires-25514.html,"Ruta Provincial 86, Suipacha y",+54 9 249 463-4600,Benito Juárez,Provincia de Buenos Aires,-37.6794468,-59.8186845,5.0,8,https://lh3.googleusercontent.com/gps-cs-s/AC9h4nqOc9eCpAHc9Ia0mSYYlFAy0mCrP7oluQzE5tBS8tY24nBTpe-ZTc_1ozasqYbeb2RehJf4Yw6AgWt85L4Ldll6ogG3DkXjL92N8HI8Sg1dfgg2mcfxkU_f4QQzU_XFXH0Abm_I=w408-h306-k-no,26.0,2,2025-06-15T23:27:46.559Z,repuestos
Rf motos,Taller de reparación de motos,,La Rioja 29,+54 2281 57-9260,Benito Juárez,Provincia de Buenos Aires,-37.6757431,-59.8003798,,12,https://lh3.googleusercontent.com/p/AF1QipPCjzX0LTnnQa6coxgGAbPt50kq1kMKUlxKJtia=w408-h541-k-no,38.0,0,2025-06-15T23:27:55.583Z,repuestos
Cittadini Vinicio,,,Av. Uruguay 8,+54 2292 45-2226,Benito Juárez,Provincia de Buenos Aires,-37.6740483,-59.8037377,3.1,10,https://streetviewpixels-pa.googleapis.com/v1/thumbnail?panoid=l-g86WTcpE1MdQVfstZQyw&cb_client=search.gws-prod.gps&w=408&h=240&yaw=8.442884&pitch=0&thumbfov=100,1.0,8,2025-06-15T23:27:55.583Z,repuestos
Repuestos Agricolas De Alberto Daniel Gallardo,,,,,Benito Juárez,Provincia de Buenos Aires,-37.6812826,-59.8168047,,7,https://streetviewpixels-pa.googleapis.com/v1/thumbnail?panoid=zfZ23-W1v4dj8Sn6cMzprA&cb_client=search.gws-prod.gps&w=408&h=240&yaw=232.04332&pitch=0&thumbfov=100,1.0,0,2025-06-15T23:27:55.583Z,repuestos
