title,categoryName,website,street,phone,city,state,location/lat,location/lng,totalScore,rank,imageUrl,imagesCount,reviewsCount,scrapedAt,searchString
EL BAQUEANO TANDIL,Tienda de delicatessen,http://www.elbaqueanotandil.com/,"1381, Tasende",,Tandil,Provincia de Buenos Aires,-37.3509083,-59.170069,4.8,8,https://lh3.googleusercontent.com/p/AF1QipP2-lzPSQGfKEB-nGTcYc5gwwOznhVxwuD5N-0=w426-h240-k-no,686.0,1408,2025-05-04T16:08:15.927Z,Comercio
Alquimia Artesan铆as,Tienda de artesan铆as,https://www.facebook.com/alquimia.artesanias.tandil,Icalma y Tasende Acceso Cerro El Centinela,,Tandil,Provincia de Buenos Aires,-37.3558333,-59.1722222,4.5,9,https://lh3.googleusercontent.com/p/AF1QipPXrhqd3el5t1Zy0kCGrI5036hQgo1Z10Ir06kG=w408-h272-k-no,40.0,43,2025-05-04T16:08:15.927Z,Comercio
mercado Jorge,Tienda de alimentaci贸n,,Sandino 468,+54 249 444-3579,Tandil,Provincia de Buenos Aires,-37.3380404,-59.1261145,4.5,10,https://streetviewpixels-pa.googleapis.com/v1/thumbnail?panoid=rSGMGo-ywHkDXrBdaTN2LA&cb_client=search.gws-prod.gps&w=408&h=240&yaw=68.29262&pitch=0&thumbfov=100,1.0,13,2025-05-04T16:08:15.927Z,Comercio
"Vale la Pena ""Almac茅n""",Tienda de alimentaci贸n,,Av. Estrada 468,,Tandil,Provincia de Buenos Aires,-37.3394896,-59.1475034,4.6,11,https://lh3.googleusercontent.com/p/AF1QipPz_6LEDOJTTtU3hOwsqUuvrlQsWxjiDEQfJiBZ=w408-h725-k-no,3.0,17,2025-05-04T16:08:15.927Z,Comercio
Sec Tandil - Sociedad Emp de Comercio Tandil,Sindicato,http://www.sectandil.org.ar/,San Mart铆n 785,,Tandil,Provincia de Buenos Aires,-37.3254577,-59.1340935,1.0,12,https://streetviewpixels-pa.googleapis.com/v1/thumbnail?panoid=maz7Q6vXfTynCdzhY6x9WQ&cb_client=search.gws-prod.gps&w=408&h=240&yaw=149.7049&pitch=0&thumbfov=100,1.0,2,2025-05-04T16:08:15.927Z,Comercio
Mercado Artesanal,Mercado,,Paseo Lago del Fuerte,,Tandil,Provincia de Buenos Aires,-37.350459,-59.131085,4.1,13,https://lh3.googleusercontent.com/p/AF1QipPNs5yz3c774eSvM_gwINNTtEYVND7DdYtD_MLH=w426-h240-k-no,1288.0,3117,2025-05-04T16:08:15.927Z,Comercio
Almacen Emanuel,Tienda de alimentaci贸n,,Av. Alvear 147,+54 249 442-1569,Tandil,Provincia de Buenos Aires,-37.3355053,-59.1319382,2.0,15,https://streetviewpixels-pa.googleapis.com/v1/thumbnail?panoid=8d8eQ1IQw3iM4-LhAdTyiA&cb_client=search.gws-prod.gps&w=408&h=240&yaw=59.244385&pitch=0&thumbfov=100,1.0,1,2025-05-04T16:08:15.927Z,Comercio
Los Criollos - Cuchiller铆a Artesanal de Tandil,Cuchiller铆a,,Dr. Saavedra Lamas 7000,+54 249 462-4521,Tandil,Provincia de Buenos Aires,-37.350421,-59.1310493,4.0,16,https://lh3.googleusercontent.com/p/AF1QipNON4U4aDpBOvPsZ8KlaV5gL9Aq6xhcjkc7Kc39=w408-h806-k-no,18.0,2,2025-05-04T16:08:15.927Z,Comercio
Almac茅n Alicia,Supermercado,,Chacabuco 9,,Tandil,Provincia de Buenos Aires,-37.3343563,-59.1348529,4.4,17,https://lh3.googleusercontent.com/p/AF1QipMnKaTZfO_bSDOGsP7CNvksOGsB3MPoQ4k8RrrU=w408-h305-k-no,2.0,7,2025-05-04T16:08:15.927Z,Comercio
DANIELA MARIANO,Tienda de alimentaci贸n,,,,Tandil,Provincia de Buenos Aires,-37.3415909,-59.183481,4.5,18,,,2,2025-05-04T16:08:15.927Z,Comercio
Almac茅n Serrano,Tienda de fiambres,https://www.pedidosya.com.ar/restaurantes/tandil/almacen-serrano-menu?origin=shop_list,"Gral Rodr铆guez 2, Av. Avellaneda 598",+54 249 401-1491,Tandil,Provincia de Buenos Aires,-37.3334755,-59.1326357,4.6,19,https://lh3.googleusercontent.com/p/AF1QipNyALYmsEu0_KNlDhCCxcydijof6OT6x8FvkScH=w408-h306-k-no,96.0,890,2025-05-04T16:08:15.927Z,Comercio
Soto Luis alejandro,Comercio,,25 de Mayo 305,,Tandil,Provincia de Buenos Aires,-37.3328002,-59.1375674,,20,https://streetviewpixels-pa.googleapis.com/v1/thumbnail?panoid=9kxa2LQSe20C10Pi00Q2bA&cb_client=search.gws-prod.gps&w=408&h=240&yaw=129.82785&pitch=0&thumbfov=100,1.0,0,2025-05-04T16:08:15.927Z,Comercio
Alma de Pueblo - Regionales,Comercio,,Larrea 580,+54 249 448-5543,Tandil,Provincia de Buenos Aires,-37.3406436,-59.1286026,4.6,2,https://lh3.googleusercontent.com/p/AF1QipMt_LCgK33TG4IkLvxBNstxZqA52dG2Kb7-R23B=w408-h306-k-no,10.0,24,2025-05-04T16:08:15.799Z,Comercio
Erasmo,Comercio,,,,Tandil,Provincia de Buenos Aires,-37.339663,-59.1293655,4.6,3,https://lh3.googleusercontent.com/p/AF1QipPgd4fGzDaBCsgo7AjZ2YtWs3K1pCAVd72N7-kk=w408-h725-k-no,3.0,7,2025-05-04T16:08:15.799Z,Comercio
Comercio,Tienda de herramientas,,Av. Marconi 1401,,Tandil,Provincia de Buenos Aires,-37.3164424,-59.1221675,5.0,4,https://streetviewpixels-pa.googleapis.com/v1/thumbnail?panoid=foM98y_7XpsViEwsE0ZBrw&cb_client=search.gws-prod.gps&w=408&h=240&yaw=123.85765&pitch=0&thumbfov=100,1.0,4,2025-05-04T16:08:15.799Z,Comercio
LAS DINAS Venta al p煤blico,Tienda de alimentaci贸n,,Francia,,Buenos Aires,Provincia de Buenos Aires,-37.3675345,-59.1324132,4.5,5,https://lh3.googleusercontent.com/p/AF1QipNvK89WebIFdgte29IHRxaBjS41bcTnQdokfNlb=w408-h306-k-no,279.0,487,2025-05-04T16:08:15.799Z,Comercio
Parque de La Industria y El Comercio,Parque,,Larrea,,Tandil,Provincia de Buenos Aires,-37.3423577,-59.1302617,4.6,6,https://lh3.googleusercontent.com/p/AF1QipPF1Y7qiyWPYrH4z25BZQ5lav-xDtSn7P8MkBeH=w408-h306-k-no,104.0,35,2025-05-04T16:08:15.799Z,Comercio
Mercado Arcoiris,Tienda de alimentaci贸n,http://mercadoarcoiristandil.com/,Av. Estrada,+54 249 450-1376,Tandil,Provincia de Buenos Aires,-37.3389598,-59.1461998,4.5,7,https://lh3.googleusercontent.com/p/AF1QipMb5yTmFvziKTtoTUZohmxjWXZfUkx73Q6Mf0wH=w426-h240-k-no,67.0,108,2025-05-04T16:08:15.799Z,Comercio
Epicureo regionales,Tienda de fiambres,,Av. Don Bosco 802,,Tandil,Provincia de Buenos Aires,-37.3535699,-59.1300836,4.5,8,https://lh3.googleusercontent.com/p/AF1QipMDgE9DtQPTJYexE9jJxNcZLu5SFr52gULhAkA6=w408-h544-k-no,25.0,24,2025-05-04T16:08:15.800Z,Comercio
Delicias Tatuli . kiosco y Almac茅n,Tienda general,,C. Ecuador 1511,,Tandil,Provincia de Buenos Aires,-37.3646254,-59.1149348,5.0,9,https://lh3.googleusercontent.com/p/AF1QipPjS_RtRbYN-MC9eNhFtFaCDSrc3dNNn7382rdl=w408-h725-k-no,20.0,4,2025-05-04T16:08:15.800Z,Comercio
GEMY polirubro pagofacil pago,Comercio,https://www.facebook.com/GemyPolirubro/,Tacuar铆 562,,Tandil,Provincia de Buenos Aires,-37.3346004,-59.1134752,4.7,10,https://lh3.googleusercontent.com/p/AF1QipNT3jRTeyCXGal57DyKm9luZAVzSJUy0-bymDjk=w648-h240-k-no,3.0,63,2025-05-04T16:08:15.800Z,Comercio
"Consultora Natura, Biogreen, Just, Bagu茅s",Comercio,https://www.facebook.com/biogreenentandil?mibextid=ZbWKwL,Basilico 875,+54 249 453-1475,Tandil,Provincia de Buenos Aires,-37.3056881,-59.133793,5.0,2,https://lh3.googleusercontent.com/p/AF1QipNTl0fSng0b8uFQINn92rRzDaXSuVgeCAqkxOpo=w408-h408-k-no,3.0,15,2025-05-04T16:08:17.580Z,Comercio
Estilo Exterior Tandil,Comercio,,Beir贸 671,+54 249 433-2240,Tandil,Provincia de Buenos Aires,-37.3029054,-59.138971,,3,https://streetviewpixels-pa.googleapis.com/v1/thumbnail?panoid=BZxV7AUD9wj3uLdT9wkfjw&cb_client=search.gws-prod.gps&w=408&h=240&yaw=40.88847&pitch=0&thumbfov=100,1.0,0,2025-05-04T16:08:17.581Z,Comercio
El Regional,Comercio,,Dinamarca 1311,+54 249 443-3397,Tandil,Provincia de Buenos Aires,-37.2998552,-59.1311823,,4,https://streetviewpixels-pa.googleapis.com/v1/thumbnail?panoid=gHBLzizInHTSzzrb2Gwt3g&cb_client=search.gws-prod.gps&w=408&h=240&yaw=131.38228&pitch=0&thumbfov=100,1.0,0,2025-05-04T16:08:17.581Z,Comercio
100%Argentino,Comercio,http://www.100arg.com/,Primera Junta 3055,+54 249 444-0813,Tandil,Provincia de Buenos Aires,-37.2948573,-59.1400343,,5,,,0,2025-05-04T16:08:17.581Z,Comercio
Zona Norte...botas de goma face,Comercio,,,,Tandil,Provincia de Buenos Aires,-37.2984882,-59.1399408,5.0,6,https://streetviewpixels-pa.googleapis.com/v1/thumbnail?panoid=LJGzV_U6hUZJ25bq9DwLRg&cb_client=search.gws-prod.gps&w=408&h=240&yaw=36.813545&pitch=0&thumbfov=100,1.0,2,2025-05-04T16:08:17.581Z,Comercio
Manjares Serranos,Comercio,,Av. Pujol 2200,+54 249 444-2737,Tandil,Provincia de Buenos Aires,-37.2936478,-59.1420746,4.9,7,https://streetviewpixels-pa.googleapis.com/v1/thumbnail?panoid=Q5WrYBLV9BuTKbsq2uNa3Q&cb_client=search.gws-prod.gps&w=408&h=240&yaw=323.70328&pitch=0&thumbfov=100,1.0,7,2025-05-04T16:08:17.581Z,Comercio
Dietetica y despensa todo natural,Comercio,,Pasteur 853,+54 249 437-0256,Tandil,Provincia de Buenos Aires,-37.3023987,-59.1386509,4.8,8,https://lh3.googleusercontent.com/p/AF1QipOx1GxEdOUhULXqOvim-Dt9DN06EBF2FExVYrVC=w408-h906-k-no,17.0,4,2025-05-04T16:08:17.581Z,Comercio
Barros Argentinos Villa Italia,Comercio,,Quintana 611,+54 249 445-4298,Tandil,Provincia de Buenos Aires,-37.3070133,-59.1430673,4.4,9,https://streetviewpixels-pa.googleapis.com/v1/thumbnail?panoid=Ssek029KgE26TSWrZcr-Iw&cb_client=search.gws-prod.gps&w=408&h=240&yaw=67.30714&pitch=0&thumbfov=100,1.0,9,2025-05-04T16:08:17.581Z,Comercio
Fameco Sca,Comercio,,Ijurco 1315,+54 249 451-7609,Tandil,Provincia de Buenos Aires,-37.3043773,-59.1277637,4.5,10,https://streetviewpixels-pa.googleapis.com/v1/thumbnail?panoid=QqcSubnpx7ZzaEuxNu2F5A&cb_client=search.gws-prod.gps&w=408&h=240&yaw=222.5251&pitch=0&thumbfov=100,1.0,6,2025-05-04T16:08:17.581Z,Comercio
Empoderadas,Tienda de ropa,https://wa.me/c/5492494475261,Bereterbide 1336,+54 249 447-5261,Tandil,Provincia de Buenos Aires,-37.295284,-59.1446139,,11,https://streetviewpixels-pa.googleapis.com/v1/thumbnail?panoid=S_z-004g-Olyvs9M1i_V4w&cb_client=search.gws-prod.gps&w=408&h=240&yaw=299.04428&pitch=0&thumbfov=100,1.0,0,2025-05-04T16:08:17.581Z,Comercio
LONERIA ELEMENTOS TANDIL,Comercio,,Pasteur 1022 Porton,+54 249 457-4400,Tandil,Provincia de Buenos Aires,-37.300629,-59.1369973,4.8,12,https://lh3.googleusercontent.com/p/AF1QipM2KtW-qNfjU1qcurl9MEV06gzriaWG1hXy9WMq=w426-h240-k-no,13.0,17,2025-05-04T16:08:17.581Z,Comercio
Loquita Linda,Comercio,,Ijurco 1562,+54 249 452-4999,Tandil,Provincia de Buenos Aires,-37.3011407,-59.1241018,5.0,13,https://lh3.googleusercontent.com/p/AF1QipOsSuDb7KUl7HaQt-0kuO6BIPY_-E9RF1hb0hMK=w408-h544-k-no,2.0,2,2025-05-04T16:08:17.581Z,Comercio
"FERRETERIA ""EL COSITO"" TANDIL",Tienda de herramientas,https://elgringopescaycamping.mercadoshops.com.ar/,Quintana 598,+54 249 436-9083,Tandil,Provincia de Buenos Aires,-37.3075298,-59.1428142,4.8,14,https://lh3.googleusercontent.com/p/AF1QipMzrKKUHSO-LgG5_vQtAQXvOheqa8lG4a1Speqc=w408-h544-k-no,9.0,18,2025-05-04T16:08:17.581Z,Comercio
Entre hilos y regalos,Comercio,,Int. Dufau 726,+54 249 446-8949,Tandil,Provincia de Buenos Aires,-37.3053918,-59.1432194,,15,https://lh3.googleusercontent.com/p/AF1QipN8y9oaNtoHR2MnC-2Im2Gvj6PqB9AfzFDqAkX5=w408-h906-k-no,2.0,0,2025-05-04T16:08:17.582Z,Comercio
Goitandia Santiago,Comercio,,La Movediza 1357,+54 249 445-0324,Tandil,Provincia de Buenos Aires,-37.2960056,-59.1457634,5.0,16,,,7,2025-05-04T16:08:17.582Z,Comercio
Zona Norte Shopping,Tienda de ropa,https://www.facebook.com/zonanortetandil,"IRR, Quintana 866",,Tandil,Provincia de Buenos Aires,-37.3051767,-59.1458206,4.4,17,https://lh3.googleusercontent.com/p/AF1QipP99Nc45glba45HZPmkKiA7keZ_ljX5yd1776px=w426-h240-k-no,13.0,436,2025-05-04T16:08:17.582Z,Comercio
Isa~Li,Kiosco,,Beir贸 1069,+54 249 421-5199,Tandil,Provincia de Buenos Aires,-37.2993682,-59.1433566,5.0,18,https://lh3.googleusercontent.com/p/AF1QipMJdvXYwnL5S3v9e_lX0_gIpvnpfBrFJ5aCloUs=w408-h541-k-no,15.0,1,2025-05-04T16:08:17.582Z,Comercio
Mojarras la Ruta,Tienda de art铆culos de pesca,,"B, Ju谩rez 1350",+54 249 434-2350,Tandil,Provincia de Buenos Aires,-37.3040385,-59.1254086,4.5,19,https://lh3.googleusercontent.com/p/AF1QipPGgH7OGOJnjbKPL84Y_Ibc_Wxs4Qaa0PUAOphi=w511-h240-k-no,11.0,35,2025-05-04T16:08:17.582Z,Comercio
FRUTISIMA,Fruter铆a,https://instagram.com/frutisima_tandil?igshid=YmMyMTA2M2Y=,Beir贸 570,+54 249 454-9688,Tandil,Provincia de Buenos Aires,-37.3041625,-59.1380507,5.0,20,https://lh3.googleusercontent.com/p/AF1QipNV02pzb3MSrnig1H0kmiR3lDxDbB0PtzsDhzIs=w427-h240-k-no,9.0,9,2025-05-04T16:08:17.582Z,Comercio
Cerros Y Sabores,Comercio,,Av. Estrada 235,+54 9 249 446-9969,Tandil,Provincia de Buenos Aires,-37.3379353,-59.1442819,4.6,5,https://lh3.googleusercontent.com/p/AF1QipNKZ7I4N8_xjDVG6KpQNpJDNwO-dNeY2BA7cQ4j=w408-h306-k-no,21.0,131,2025-05-04T16:08:17.797Z,Comercio
Alvear Store Tandil,Kiosco,,Av. Alvear 148,+54 249 446-7046,Tandil,Provincia de Buenos Aires,-37.335647,-59.131944,4.7,6,https://lh3.googleusercontent.com/p/AF1QipPOuAJoFsu-_bKdioKH6FeKATxdKMAY5WFbTeS8=w426-h240-k-no,4.0,66,2025-05-04T16:08:17.797Z,Comercio
Cuenca Mestiza Tandil,Tienda de regalos,http://www.tiendamestiza.com.ar/,Av. Sim贸n Bol铆var 283,+54 249 465-0168,Tandil,Provincia de Buenos Aires,-37.3347513,-59.1245972,4.7,7,https://lh3.googleusercontent.com/p/AF1QipOjkkxHVI7bH2UU5Vb9RK9cD0bzXuVzhY6uMZzv=w408-h725-k-no,72.0,23,2025-05-04T16:08:17.798Z,Comercio
Distribuidora Islas,Tienda de alimentaci贸n,,Payr贸 241,+54 249 464-8366,Tandil,Provincia de Buenos Aires,-37.3355123,-59.1467304,4.1,8,https://lh3.googleusercontent.com/p/AF1QipPJW7cyDKlA327VIJPmnuizX6CKn3kALVMVIzN8=w408-h306-k-no,22.0,19,2025-05-04T16:08:17.798Z,Comercio
Don Rosendo,Queser铆a,http://donrosendo.com/,Av. Rivadavia 2,+54 249 401-0150,Tandil,Provincia de Buenos Aires,-37.3366312,-59.1409768,4.6,9,https://lh3.googleusercontent.com/p/AF1QipPZiISwtHCrY5BTNlySRC7Ldc7mIzEmIYd86KIX=w426-h240-k-no,1133.0,3167,2025-05-04T16:08:17.798Z,Comercio
Quesos Por Mayor,Comercio,,Av. Rivadavia 2,,Tandil,Provincia de Buenos Aires,-37.3366175,-59.1409341,,12,https://streetviewpixels-pa.googleapis.com/v1/thumbnail?panoid=NLpki4Abp3Rb7UalqEdrKQ&cb_client=search.gws-prod.gps&w=408&h=240&yaw=249.80743&pitch=0&thumbfov=100,1.0,0,2025-05-04T16:08:17.798Z,Comercio
Commodity,Tienda de vinos,,Av. Sim贸n Bol铆var 79,,Tandil,Provincia de Buenos Aires,-37.3324286,-59.1259761,5.0,13,https://streetviewpixels-pa.googleapis.com/v1/thumbnail?panoid=PvDkk78uQMvUKpzANMm-zg&cb_client=search.gws-prod.gps&w=408&h=240&yaw=257.69128&pitch=0&thumbfov=100,1.0,1,2025-05-04T16:08:17.798Z,Comercio
Maxikiosco Cata,Tienda de alimentaci贸n,,Av. Rivadavia 54,,Tandil,Provincia de Buenos Aires,-37.3361274,-59.1412202,4.7,14,https://streetviewpixels-pa.googleapis.com/v1/thumbnail?panoid=4vSFrwLqxC6txnrnhoSK_g&cb_client=search.gws-prod.gps&w=408&h=240&yaw=244.28922&pitch=0&thumbfov=100,1.0,6,2025-05-04T16:08:17.798Z,Comercio
Entre Cerros Frutas y Verduras,Tienda de alimentaci贸n,,Av. Estrada 173,,Tandil,Provincia de Buenos Aires,-37.3372351,-59.1424516,5.0,17,https://streetviewpixels-pa.googleapis.com/v1/thumbnail?panoid=Pxk0uQbvEYS3wg7HnJ8l3g&cb_client=search.gws-prod.gps&w=408&h=240&yaw=323.41177&pitch=0&thumbfov=100,1.0,1,2025-05-04T16:08:17.798Z,Comercio
La Boutique frescura,Fruter铆a,,Av. Alvear 55,,Tandil,Provincia de Buenos Aires,-37.3345188,-59.1324986,4.0,18,https://lh3.googleusercontent.com/p/AF1QipNA81Qrcrs_fA7J-LRzFojYH1kpow1udbIlTCGZ=w408-h547-k-no,3.0,7,2025-05-04T16:08:17.798Z,Comercio
Minimercado Alma,Tienda general,,Av. Avellaneda 54,,Tandil,Provincia de Buenos Aires,-37.3363586,-59.1402029,,19,https://streetviewpixels-pa.googleapis.com/v1/thumbnail?panoid=tKa8f_DnOiqs0-G3HUKMXw&cb_client=search.gws-prod.gps&w=408&h=240&yaw=323.1201&pitch=0&thumbfov=100,1.0,0,2025-05-04T16:08:17.799Z,Comercio
Valku.Dietetica,Tienda general,,Lamadrid 312,,Tandil,Provincia de Buenos Aires,-37.3357102,-59.1255725,5.0,20,https://lh3.googleusercontent.com/p/AF1QipMyLhntknXjE7j-3GCG5xqNNNWMOZhOBXFzlsCU=w408-h544-k-no,4.0,12,2025-05-04T16:08:17.799Z,Comercio
Mercado El Reyno,Supermercado,,Darragueira 1737-1799,,Tandil,Provincia de Buenos Aires,-37.3026983,-59.1209122,3.9,30,https://lh3.googleusercontent.com/p/AF1QipM2M8upGHqOWMd3IKICcSz5yjGCWzGClpfuVATA=w408-h306-k-no,3.0,102,2025-05-04T16:08:18.416Z,Comercio
Pisos y Revestimientos Cooperativa El N煤cleo,Tienda de materiales para suelos,https://www.guia-dorada.com.ar/guia/aviso-cooperativa-el-nucleo-en-tandil-buenos-aires-25561.html,Colectora Nte. L. M. Macaya 1941,+54 9 249 450-0210,Tandil,Provincia de Buenos Aires,-37.302468,-59.124716,5.0,31,https://lh3.googleusercontent.com/p/AF1QipOD6WYowVoGcNvt8DGpHLWDmd_ybbIWQ0IpVNxj=w408-h408-k-no,191.0,9,2025-05-04T16:08:18.416Z,Comercio
La Super - Fabrica de Mosaicos de Gimenez Hugo,Tienda de materiales para la construcci贸n,,Vicente L贸pez 746,+54 249 455-7411,Tandil,Provincia de Buenos Aires,-37.3070805,-59.1458314,3.9,32,https://lh3.googleusercontent.com/p/AF1QipN540RuMZtuaOWS7EcDi7yuAtkLGpVDiTkgX39a=w408-h544-k-no,8.0,13,2025-05-04T16:08:18.416Z,Comercio
El Surtidor Tandil,Comercio,https://sites.google.com/view/el-surtidor-tandil/contacto,"Darragueira, Ijurco 1999",+54 249 462-2606,Tandil,Provincia de Buenos Aires,-37.3008453,-59.1232752,4.4,34,https://lh3.googleusercontent.com/p/AF1QipNqjAwwO2b1Moo8jpBkGbDOru9Q2tmw6Tv6tnEY=w408-h326-k-no,18.0,276,2025-05-04T16:08:18.416Z,Comercio
Exportaciones Miel Argentina,Tienda de alimentos naturales,,Maritorena 546,+54 249 435-1143,Tandil,Provincia de Buenos Aires,-37.3005035,-59.1480969,4.8,35,https://lh3.googleusercontent.com/p/AF1QipMu-fTbSgEMROVHCGm5rj7GPoqtLaKAVJBS7vxL=w427-h240-k-no,11.0,9,2025-05-04T16:08:18.416Z,Comercio
Mercado Si Gu,Tienda de alimentaci贸n,,Quintana 897,+54 249 445-1440,Tandil,Provincia de Buenos Aires,-37.3046289,-59.1461556,4.1,37,https://lh3.googleusercontent.com/p/AF1QipN_2rKqVeAlclS4Nby-B4UQEuFC1ceY-aF00VyM=w408-h278-k-no,15.0,377,2025-05-04T16:08:18.416Z,Comercio
Electricista tandil matriculado,Electricista,,S谩enz Pe帽a 1067,+54 249 464-7621,Tandil,Provincia de Buenos Aires,-37.3021067,-59.1448505,4.2,38,https://lh3.googleusercontent.com/p/AF1QipNISPdP1Hlj_1e2ztKx3OQsCX0F95ZAxRH1fARe=w426-h240-k-no,65.0,6,2025-05-04T16:08:18.416Z,Comercio
MB Tablitas Tandilenses,Tienda de alimentaci贸n,,Ricardo Gabriel del Rio 1324,,Tandil,Provincia de Buenos Aires,-37.2973484,-59.1471535,5.0,39,https://lh3.googleusercontent.com/p/AF1QipOrwXSFReEuwGjmSFqvoBuGkM2oCrGkSKb6NMu5=w426-h240-k-no,12.0,4,2025-05-04T16:08:18.416Z,Comercio
Carnadas Alejo Pesca,Tienda de art铆culos de pesca,,Beir贸 596,+54 249 448-3728,Tandil,Provincia de Buenos Aires,-37.3037668,-59.1382675,4.8,40,https://lh3.googleusercontent.com/p/AF1QipOg0zZrFNFNXDON7q0H3wgO5Bv2Yh_sQRRbluRl=w408-h544-k-no,21.0,17,2025-05-04T16:08:18.416Z,Comercio
A punto caramelo,Tienda general,,Alberdi 14,+54 249 451-0757,Tandil,Provincia de Buenos Aires,-37.3360568,-59.1395277,,28,https://streetviewpixels-pa.googleapis.com/v1/thumbnail?panoid=MIur9xrxc7QLuBvPFt2eZw&cb_client=search.gws-prod.gps&w=408&h=240&yaw=231.70178&pitch=0&thumbfov=100,1.0,0,2025-05-04T16:08:18.491Z,Comercio
Minimercado Alma,Tienda general,,Av. Rivadavia 54,,Tandil,Provincia de Buenos Aires,-37.3361373,-59.1412345,,32,https://streetviewpixels-pa.googleapis.com/v1/thumbnail?panoid=4vSFrwLqxC6txnrnhoSK_g&cb_client=search.gws-prod.gps&w=408&h=240&yaw=242.44687&pitch=0&thumbfov=100,1.0,0,2025-05-04T16:08:18.491Z,Comercio
Supermercado Asia Oriental,Supermercado,https://m.facebook.com/asiaoriental351/?ref=bookmarks,Av. Alvear 351,+54 249 444-0247,Tandil,Provincia de Buenos Aires,-37.3384982,-59.1318391,4.1,33,https://lh3.googleusercontent.com/p/AF1QipOEXWSQaf7GocZGYmNA8ZXaR1G4K69uKLTJzwaG=w408-h544-k-no,23.0,647,2025-05-04T16:08:18.491Z,Comercio
LA PALOMA despensa,Tienda de alimentaci贸n,,Av. Estrada 511,,Tandil,Provincia de Buenos Aires,-37.3397862,-59.1491047,4.2,34,https://lh3.googleusercontent.com/p/AF1QipOpQOrVfdZ9nyeNozaLrAJFe5MjsgURVPEKQTNZ=w408-h306-k-no,4.0,5,2025-05-04T16:08:18.491Z,Comercio
Mercado La Loma,Supermercado,,Bolivia 602,,Tandil,Provincia de Buenos Aires,-37.3413417,-59.1486431,4.7,35,https://lh3.googleusercontent.com/p/AF1QipO_QPeOkgLGdUUsghMbUqvMiKEpxlZphSAbicay=w408-h305-k-no,21.0,51,2025-05-04T16:08:18.491Z,Comercio
Frutas Y Verduras La Via 2,Tienda de alimentaci贸n,,Fugl 997,,Tandil,Provincia de Buenos Aires,-37.3362837,-59.1237727,3.8,37,https://streetviewpixels-pa.googleapis.com/v1/thumbnail?panoid=25nBzzfb2EtJ3H03QF1IoQ&cb_client=search.gws-prod.gps&w=408&h=240&yaw=148.72229&pitch=0&thumbfov=100,1.0,10,2025-05-04T16:08:18.491Z,Comercio
La Querencia,Comercio,,Payr贸 205,+54 249 400-1470,Tandil,Provincia de Buenos Aires,-37.335906,-59.146541,5.0,38,https://lh3.googleusercontent.com/p/AF1QipOqYs8TJgmSCvaK6BqKYHB1Q-loLmJjrJ8S0uPG=w408-h408-k-no,13.0,3,2025-05-04T16:08:18.492Z,Comercio
Kiosco Chipi,Kiosco,https://www.facebook.com/kioscochipi/,Chile 619,,Tandil,Provincia de Buenos Aires,-37.337157,-59.1298779,4.8,39,https://lh3.googleusercontent.com/p/AF1QipOTDWNb6Dy5kjz0EpH8TuXnLfWx3Eu184rFfZyJ=w408-h725-k-no,4.0,17,2025-05-04T16:08:18.492Z,Comercio
Vivero Entre Yuyos,Comercio,,Av. L贸pez de Osornio 1035,+54 249 435-3331,Tandil,Provincia de Buenos Aires,-37.3409327,-59.1206728,5.0,40,https://lh3.googleusercontent.com/p/AF1QipOms1XKstzKOPDRooisvbUWeZYlnK2lNci2S2_5=w408-h725-k-no,2.0,13,2025-05-04T16:08:18.492Z,Comercio
Independencia,Tienda de alimentaci贸n,,Fugl 688,+54 9 249 467-0586,Tandil,Provincia de Buenos Aires,-37.3376341,-59.1281229,,41,https://lh3.googleusercontent.com/gps-proxy/ALd4DhGSLI1G_KKCnat23MdndERHshhndGM3C8W17YpN7xxvZfjl44ryh3ge6PcgpmyVfl3zOu2iMkNXHrtPwVDYU75lL9SNwoj-OmoJx_Bl7WzzwRyRot-MoCaZZynGMGMqPrd3xY5wegY3Q0TOizzd2IOeg9vs4kVhwkkr0re4btprpwv-eDu7cLsVBb5t2vOJV7NNzIY=w408-h306-k-no,2.0,0,2025-05-04T16:08:19.025Z,Comercio
Deco madera,Tienda de art铆culos para el hogar,,Libertad 1193,+54 11 5726-6537,Tandil,Provincia de Buenos Aires,-37.3377543,-59.1316256,1.0,42,https://streetviewpixels-pa.googleapis.com/v1/thumbnail?panoid=4a1rklX7mj5W6az-jGfmyw&cb_client=search.gws-prod.gps&w=408&h=240&yaw=166.39636&pitch=0&thumbfov=100,1.0,2,2025-05-04T16:08:19.026Z,Comercio
Las Tunitas Tandil,Tienda de art铆culos para el hogar,,Del Libertador,,Tandil,Provincia de Buenos Aires,-37.3424944,-59.1444956,4.3,43,https://streetviewpixels-pa.googleapis.com/v1/thumbnail?panoid=mhQXcTf5XkRhEwyFVqr4bw&cb_client=search.gws-prod.gps&w=408&h=240&yaw=302.70853&pitch=0&thumbfov=100,2.0,9,2025-05-04T16:08:19.026Z,Comercio
ptima Limpieza,Comercio,,Fugl 985,+54 249 402-4445,Tandil,Provincia de Buenos Aires,-37.3364143,-59.1238494,,44,https://lh3.googleusercontent.com/p/AF1QipOgzYCMR8oRcibaMDAtK0kNv587omjuh4odTzTi=w408-h906-k-no,3.0,0,2025-05-04T16:08:19.026Z,Comercio
"Mercado ""German""",Tienda general,,,,Tandil,Provincia de Buenos Aires,-37.2965154,-59.1224628,5.0,41,https://lh3.googleusercontent.com/p/AF1QipOTBNU696bBm4fVXft8X7WqX0z9iKfUcOApV78V=w408-h401-k-no,2.0,1,2025-05-04T16:08:19.105Z,Comercio
Bouquet tandil,Tienda de cosm茅ticos,,Colectora Nte. L. M. Macaya 1625,,Tandil,Provincia de Buenos Aires,-37.3057638,-59.120637,3.7,42,https://streetviewpixels-pa.googleapis.com/v1/thumbnail?panoid=Rvn5_x1vPyoyIcSnG-rDlQ&cb_client=search.gws-prod.gps&w=408&h=240&yaw=60.586308&pitch=0&thumbfov=100,1.0,3,2025-05-04T16:08:19.105Z,Comercio
Minimercado Promissum,Supermercado,,Nigro 1704,+54 249 434-8365,Tandil,Provincia de Buenos Aires,-37.2988499,-59.1234917,5.0,43,https://lh3.googleusercontent.com/p/AF1QipPEVpN8DQKi1zZlQmqtHDU3CZeZ8dUE25Fqcb7g=w426-h240-k-no,5.0,6,2025-05-04T16:08:19.105Z,Comercio
Metalfor S.A,Comercio,,Lavalle & RN226,+54 249 465-2478,Tandil,Provincia de Buenos Aires,-37.2953443,-59.1355764,4.5,44,https://streetviewpixels-pa.googleapis.com/v1/thumbnail?panoid=h_ySZdIGq7aDQ5EQsuHhPA&cb_client=search.gws-prod.gps&w=408&h=240&yaw=37.9328&pitch=0&thumbfov=100,1.0,4,2025-05-04T16:08:19.105Z,Comercio
MD Carteles,Tienda de se帽alizaci贸n,,Vigil 1760,+54 249 442-9173,Tandil,Provincia de Buenos Aires,-37.2967183,-59.1253201,5.0,45,https://streetviewpixels-pa.googleapis.com/v1/thumbnail?panoid=YnQdsmcCSMGYtq3cfukEwg&cb_client=search.gws-prod.gps&w=408&h=240&yaw=302.89563&pitch=0&thumbfov=100,1.0,2,2025-05-04T16:08:19.105Z,Comercio
Enfoque Digital,Tienda de fotograf铆a,,Quintana 680,,Tandil,Provincia de Buenos Aires,-37.3067463,-59.1438367,5.0,46,https://lh3.googleusercontent.com/gps-proxy/ALd4DhHJTrri1H69DzdeNzIQZchKJvH4uUYEGHS4VP-JMu1cC7bSo6YQJwnaXvcLuxU5x2bX0OB-ppsErVdk6a4VJ0xk2tAYOXjzB4G6hInLULDcM1VFeNGbHhupJ5hrinDJ7LgQKoYckqoQxoJiIETWOmgMuyzrP6i0J-MgOovWhmv4dZet6rWAXL_OOty1Yg-NFjwIHnk=w408-h306-k-no,2.0,3,2025-05-04T16:08:19.105Z,Comercio
Family Farm Agrupacion,Comercio,,Patagonia 242,,Tandil,Provincia de Buenos Aires,-37.3051491,-59.1493101,5.0,47,https://streetviewpixels-pa.googleapis.com/v1/thumbnail?panoid=wKf7T8HCBZ9JbobTbJUTlw&cb_client=search.gws-prod.gps&w=408&h=240&yaw=312.9239&pitch=0&thumbfov=100,2.0,4,2025-05-04T16:08:19.106Z,Comercio
ETCHETTO carniceria,Comercio,,Ijurco 1594,+54 249 459-3733,Tandil,Provincia de Buenos Aires,-37.3007888,-59.1236153,4.6,48,https://lh3.googleusercontent.com/p/AF1QipPj769oefIzv3_Iv5WMLvf1-EM_oY43srNuiX-N=w408-h314-k-no,9.0,13,2025-05-04T16:08:19.106Z,Comercio
Kaprichos,Tienda de ropa,,Quintana 553,+54 249 443-4666,Tandil,Provincia de Buenos Aires,-37.3077291,-59.1421293,5.0,49,https://streetviewpixels-pa.googleapis.com/v1/thumbnail?panoid=SoL9xkhyYDgP6Eir-lup1w&cb_client=search.gws-prod.gps&w=408&h=240&yaw=37.96246&pitch=0&thumbfov=100,1.0,1,2025-05-04T16:08:19.106Z,Comercio
Aliana Prendas,Tienda de ropa,,Quintana 786,+54 249 445-2875,Tandil,Provincia de Buenos Aires,-37.3058209,-59.1449805,4.9,51,https://lh3.googleusercontent.com/gps-proxy/ALd4DhGi4kV5yKp808wWcAcZFTt5LV86in5n0bQZ8eMUwhv-mRm03yfmlSXm22RAHuiCL76K0dybszpcBQgsEaGw2aU_9f8U06iHIM5r0o2EEvNJSI7COw7Cor8XsLxLyFv5p5rXaHLyCZQYleIf8cSIm1pX6vzVHsDxWgIEfVIZ4DP2SRu-Ymc4QfmzgPYGNg0TTEcP6KM=w408-h306-k-no,2.0,7,2025-05-04T16:08:19.106Z,Comercio
Mini Mercado Errequerena,Tienda de alimentaci贸n,,,,Tandil,Provincia de Buenos Aires,-37.3037488,-59.1404086,,52,https://streetviewpixels-pa.googleapis.com/v1/thumbnail?panoid=rn5zCQCEA3oOyzUQuO7MHg&cb_client=search.gws-prod.gps&w=408&h=240&yaw=73.98676&pitch=0&thumbfov=100,1.0,0,2025-05-04T16:08:19.106Z,Comercio
El Pehuen,Panader铆a,,Lavalle 856,+54 249 443-4983,Tandil,Provincia de Buenos Aires,-37.3003241,-59.1412325,5.0,53,https://lh3.googleusercontent.com/p/AF1QipNoNRIL6Qg-a52c1G5lPRm49mzdM4yU0kVy90Gm=w408-h725-k-no,17.0,5,2025-05-04T16:08:19.106Z,Comercio
Almac茅n don carlo,Tienda general,,Dinamarca 500,+54 249 400-0812,Tandil,Provincia de Buenos Aires,-37.307234,-59.14053,5.0,54,https://lh3.googleusercontent.com/p/AF1QipM0lPR837uegQotYh2Saa-KHHScsWDfUKmKSUiJ=w408-h306-k-no,23.0,3,2025-05-04T16:08:19.106Z,Comercio
TOMATO,Tienda de alimentaci贸n,,Urquiza 843,+54 249 468-0080,Tandil,Provincia de Buenos Aires,-37.3013883,-59.1401501,4.5,55,https://lh3.googleusercontent.com/p/AF1QipNpCFz7rm9JostVjk32xf98PHqaiCzLlsmf9Ex6=w408-h544-k-no,85.0,49,2025-05-04T16:08:19.106Z,Comercio
tandil bicis,Tienda de bicicletas,,Urquiza 832,+54 249 459-8804,Tandil,Provincia de Buenos Aires,-37.3014005,-59.1403878,5.0,56,https://lh3.googleusercontent.com/p/AF1QipP2DE8gHH2Yr76YOK3yBMjNIw2KJisv-eKhS5mL=w408-h839-k-no,9.0,2,2025-05-04T16:08:19.106Z,Comercio
Prometeo,Tienda de ropa,http://www.facebook.com/prometeotandil,Quintana 586,+54 249 445-3216,Tandil,Provincia de Buenos Aires,-37.3076971,-59.1427612,4.3,57,https://lh3.googleusercontent.com/gps-proxy/ALd4DhEjJFDutzZ5hPffUuW8de8WCEHZUsYJus_AXR9T7qclORH682qaJAM4AOcGB5RHBeyXP1sDqjv-0RR7oZ7lEiilVVw2XCpKC8--brq7uADmMLFrqGQ2ReJ39J3rIBpO-51hMxq-PCehr8Hel9-hYND0_B4-kKiVx5J6WzqxaAasMH7GoDc4fPsLjwLIzBBxJx2OjGE=w408-h306-k-no,13.0,47,2025-05-04T16:08:19.106Z,Comercio
Asia Oriental Supermercado,Supermercado,,Quintana 651,,Tandil,Provincia de Buenos Aires,-37.3069026,-59.1433023,4.2,58,https://lh3.googleusercontent.com/p/AF1QipOhJYKExOFBVd-ehdl2ntBijRKFGh0-w9ddevSp=w426-h240-k-no,3.0,26,2025-05-04T16:08:19.106Z,Comercio
Autoservicio Santino,Tienda de alimentaci贸n,,Darragueira 2175,,Tandil,Provincia de Buenos Aires,-37.2992007,-59.1253288,,59,https://streetviewpixels-pa.googleapis.com/v1/thumbnail?panoid=s9UVMrUhU47pOVUDmKHY4w&cb_client=search.gws-prod.gps&w=408&h=240&yaw=44.51778&pitch=0&thumbfov=100,1.0,0,2025-05-04T16:08:19.106Z,Comercio
Foodhousetandil,Comercio,https://instagram.com/foodhousetandil?utm_source=qr&igshid=MzNlNGNkZWQ4Mg==,Patagonia 346,+54 249 428-7686,Tandil,Provincia de Buenos Aires,-37.3051786,-59.149343,,60,https://lh3.googleusercontent.com/p/AF1QipOxc6hrtx56wyDhk9uNd9RDRszvdldQNj9YRzjS=w408-h612-k-no,9.0,0,2025-05-04T16:08:19.106Z,Comercio
Despensa 338,Tienda de alimentaci贸n,,Beir贸 480,,Tandil,Provincia de Buenos Aires,-37.3048907,-59.1370648,5.0,61,https://streetviewpixels-pa.googleapis.com/v1/thumbnail?panoid=mXi41NQf60jnvP4hI7krLA&cb_client=search.gws-prod.gps&w=408&h=240&yaw=217.90298&pitch=0&thumbfov=100,2.0,2,2025-05-04T16:08:19.779Z,Comercio
Jesus DIAZ Automotores,Concesionario de autom贸viles,https://www.instagram.com/jesusdiazautomotores/,"Piedrabuena 1578, B7001HDF",+54 9 249 458-7046,Tandil,Provincia de Buenos Aires,-37.3074372,-59.1220975,4.4,62,https://lh3.googleusercontent.com/p/AF1QipNrj4gdhMEQmi15AysQAcjoNbSVOWnM8GlBl8xg=w426-h240-k-no,66.0,85,2025-05-04T16:08:19.779Z,Comercio
Don Juan Quesos y Fiambres,Tienda de fiambres,,Beir贸 1285,+54 249 449-7538,Tandil,Provincia de Buenos Aires,-37.2973205,-59.1461915,4.7,63,https://lh3.googleusercontent.com/p/AF1QipP8UV8aa2xAeOENZNkD4qNdnt7AB8gMHs8iW12A=w408-h725-k-no,43.0,36,2025-05-04T16:08:19.779Z,Comercio
Aurelio cousine,Tienda de alimentaci贸n,,Quintana 729,,Tandil,Provincia de Buenos Aires,-37.3060028,-59.1443944,4.5,64,https://streetviewpixels-pa.googleapis.com/v1/thumbnail?panoid=2CmZmuskvDH-27cpUpCZPw&cb_client=search.gws-prod.gps&w=408&h=240&yaw=34.39616&pitch=0&thumbfov=100,1.0,4,2025-05-04T16:08:19.779Z,Comercio
Tienda De Comestibles,Tienda de alimentaci贸n,,Aeronautica Argentina 1519,,Tandil,Provincia de Buenos Aires,-37.2979981,-59.1288945,,65,https://streetviewpixels-pa.googleapis.com/v1/thumbnail?panoid=VH-DmIw8HDb7iykC2bocbA&cb_client=search.gws-prod.gps&w=408&h=240&yaw=107.47484&pitch=0&thumbfov=100,1.0,0,2025-05-04T16:08:19.779Z,Comercio
PANNA COTTA panader铆a,Panader铆a,,Lavalle 850,,Tandil,Provincia de Buenos Aires,-37.3004153,-59.1412246,,66,https://streetviewpixels-pa.googleapis.com/v1/thumbnail?panoid=NNM1qgDvjsblqokA389Yag&cb_client=search.gws-prod.gps&w=408&h=240&yaw=297.94348&pitch=0&thumbfov=100,1.0,0,2025-05-04T16:08:19.779Z,Comercio
Miel Pura,Tienda de alimentaci贸n,,Nigro 1524,,Tandil,Provincia de Buenos Aires,-37.3005715,-59.12553,4.4,67,https://lh3.googleusercontent.com/p/AF1QipP5Nxp9GHF1PTjbjmpNa3qSa4L_MhUc5xC83G08=w426-h240-k-no,4.0,5,2025-05-04T16:08:19.779Z,Comercio
Pura Ternura,Tienda de ropa,,Beir贸,,Tandil,Provincia de Buenos Aires,-37.3006002,-59.1420658,5.0,68,https://streetviewpixels-pa.googleapis.com/v1/thumbnail?panoid=it0FGF04sZbxaYWzJFfI0A&cb_client=search.gws-prod.gps&w=408&h=240&yaw=54.179188&pitch=0&thumbfov=100,1.0,1,2025-05-04T16:08:19.779Z,Comercio
El Nutria,Tienda de materiales para la construcci贸n,,"Ruta 226, Pasteur y",+54 249 401-1023,Tandil,Provincia de Buenos Aires,-37.2966155,-59.1327915,4.3,69,https://lh3.googleusercontent.com/p/AF1QipMs79Evq9dkkbZew_ZKsSCPJnc1quWdTiIdCElG=w408-h306-k-no,133.0,12,2025-05-04T16:08:19.779Z,Comercio
ANNA COTTA panader铆a,Panader铆a,,Lavalle 856,,Tandil,Provincia de Buenos Aires,-37.3003522,-59.1412677,,70,https://streetviewpixels-pa.googleapis.com/v1/thumbnail?panoid=NNM1qgDvjsblqokA389Yag&cb_client=search.gws-prod.gps&w=408&h=240&yaw=315.381&pitch=0&thumbfov=100,1.0,0,2025-05-04T16:08:19.779Z,Comercio
Mayorista C谩rnico,Carnicer铆a,,Ricardo Gabriel del Rio 1408,,Tandil,Provincia de Buenos Aires,-37.296672,-59.1481484,4.7,71,https://streetviewpixels-pa.googleapis.com/v1/thumbnail?panoid=vm64FlvO9LTAdR_rpVDs4w&cb_client=search.gws-prod.gps&w=408&h=240&yaw=209.43207&pitch=0&thumbfov=100,1.0,6,2025-05-04T16:08:19.779Z,Comercio
Emilia Bolsos Tandil,Marroquiner铆a,,Mosconi 695,+54 249 436-7909,Tandil,Provincia de Buenos Aires,-37.3037076,-59.1404296,4.3,72,https://lh3.googleusercontent.com/p/AF1QipPw3HgMb5GGVQv0ULxoqDEb7RlIxRZXFrQpbWK1=w408-h409-k-no,2.0,4,2025-05-04T16:08:19.779Z,Comercio
MERCADO ANAHI,Tienda de alimentaci贸n,,Darragueira 1988,,Tandil,Provincia de Buenos Aires,-37.3009986,-59.1233765,,73,https://streetviewpixels-pa.googleapis.com/v1/thumbnail?panoid=5i0PBqF8Xj46KMG35F3dEQ&cb_client=search.gws-prod.gps&w=408&h=240&yaw=216.022&pitch=0&thumbfov=100,1.0,0,2025-05-04T16:08:19.779Z,Comercio
Dietetica,Tienda de alimentaci贸n,,"Beir贸, Urquiza &",,Tandil,Provincia de Buenos Aires,-37.3018649,-59.1404662,5.0,74,https://streetviewpixels-pa.googleapis.com/v1/thumbnail?panoid=9T-BRK2x8drqIDXZaFNqUQ&cb_client=search.gws-prod.gps&w=408&h=240&yaw=113.28847&pitch=0&thumbfov=100,1.0,1,2025-05-04T16:08:19.779Z,Comercio
Heladeria Iglu,Helader铆a,,Quintana 636,+54 249 445-4018,Tandil,Provincia de Buenos Aires,-37.3070899,-59.1433023,4.3,75,http://t1.gstatic.com/images?q=tbn:ANd9GcTYhfczHlBTAbOBmnvIIVFOZ_FjZBjZXQem-GjX3Zl4CLok7UFY,18.0,309,2025-05-04T16:08:19.779Z,Comercio
Mixer electronicos,Tienda de accesorios para m贸viles,,Darragueira 2216,+54 9 249 436-1450,Tandil,Provincia de Buenos Aires,-37.2989166,-59.1259842,4.2,76,https://lh3.googleusercontent.com/p/AF1QipMPS4M5zp5CXTWjDJEPDM0UlqzUOJIJVIv94Sr0=w408-h544-k-no,6.0,6,2025-05-04T16:08:19.779Z,Comercio
Supermercado Las 2 Mar铆as,Tienda de alimentaci贸n,,Int. Dufau 567,+54 249 443-1323,Tandil,Provincia de Buenos Aires,-37.3066905,-59.1412358,4.4,77,https://lh3.googleusercontent.com/p/AF1QipNNvUg6vDebmB4fJk_-FKxhKawFjwRNhtQaNHjB=w408-h306-k-no,16.0,351,2025-05-04T16:08:19.779Z,Comercio
SUPER KIOSCO NICO,Tienda de alimentaci贸n,,Beir贸,,Tandil,Provincia de Buenos Aires,-37.2973276,-59.1462362,,79,https://streetviewpixels-pa.googleapis.com/v1/thumbnail?panoid=m0SQ3gpeFeDBDUAGPMeJzg&cb_client=search.gws-prod.gps&w=408&h=240&yaw=67.56682&pitch=0&thumbfov=100,1.0,0,2025-05-04T16:08:19.780Z,Comercio
Corral贸n El Vasquito,Tienda de materiales para la construcci贸n,https://www.guia-dorada.com.ar/guia/aviso-corralon-el-vasquito-en-tandil-buenos-aires-25326.html,Rosales 2048,+54 9 249 437-3602,Tandil,Provincia de Buenos Aires,-37.2994904,-59.1228714,4.7,80,https://lh3.googleusercontent.com/p/AF1QipMugjSlvVqzOCxCQDAe5mXroABRxLwFxfPzn12f=w408-h306-k-no,84.0,48,2025-05-04T16:08:19.780Z,Comercio
Nadie m谩s que t煤...,Tienda de ropa de mujer,,Quintana 746,+54 249 445-4360,Tandil,Provincia de Buenos Aires,-37.3061044,-59.1446188,4.0,81,https://lh3.googleusercontent.com/gps-proxy/ALd4DhFHxNFK5OUmCkyvZXMZA09PK5n9k6uiE6HtbnaxUTrbuKnHlk99_EDQn9yGikpVLc9q1WTiT94FUyefifQ73eAxykd2fCA0OB_Gn3ic6l9sm5PCaRQWXaI5Cv9V36QsdVUE9MeuylFIX4o01vHGQ8Sr5hoV4XV4aZ3tSrR3aVqrVrWaU87qdLSffx0eLAJ75iVHYMU=w408-h306-k-no,2.0,1,2025-05-04T16:08:20.558Z,Comercio
Chamo Indumentaria,Tienda de ropa,,Quintana 583 Local 2,,Tandil,Provincia de Buenos Aires,-37.307483,-59.1425139,,82,https://streetviewpixels-pa.googleapis.com/v1/thumbnail?panoid=d0fdpu564ZnIDTVFZ4n6WA&cb_client=search.gws-prod.gps&w=408&h=240&yaw=68.36978&pitch=0&thumbfov=100,1.0,0,2025-05-04T16:08:20.558Z,Comercio
Barraca LA OLI,Comercio,,Ijurco 1748,+54 249 400-6546,Tandil,Provincia de Buenos Aires,-37.2993304,-59.1219369,5.0,83,https://lh3.googleusercontent.com/p/AF1QipNOqiQIi5SxAxKvhzrq3OdTpykNZaFOaqtzNe8p=w408-h543-k-no,11.0,5,2025-05-04T16:08:20.558Z,Comercio
Distribuidora mayorista Manuel Lorenzo,Tienda de alimentaci贸n,https://www.instagram.com/invites/contact/?i=1ldow32joprh2&utm_content=g01wpb9,Languey煤,+54 249 446-9698,Tandil,Provincia de Buenos Aires,-37.2969786,-59.140161,4.5,84,https://lh3.googleusercontent.com/p/AF1QipNryvrTCKCU3CRO46Sl4hi-fzGNUNM8Laad33W3=w408-h725-k-no,91.0,41,2025-05-04T16:08:20.559Z,Comercio
D铆as de Fiestas,Tienda de art铆culos de fiesta,,Quintana 699,+54 9 249 466-7558,Tandil,Provincia de Buenos Aires,-37.3066169,-59.143654,4.6,85,https://lh3.googleusercontent.com/p/AF1QipMjYxnEtG-S9PaXT3I8gbL5JF8fNXJIYjqDPxMn=w408-h725-k-no,44.0,260,2025-05-04T16:08:20.559Z,Comercio
Minimercado Bigote's,Tienda general,,Nigro 1840,,Tandil,Provincia de Buenos Aires,-37.2977115,-59.1219942,4.1,86,https://lh3.googleusercontent.com/p/AF1QipNQHvhVhR8iBZAe_1WKr7hXQrypuIMk3zspMCFP=w427-h240-k-no,5.0,8,2025-05-04T16:08:20.559Z,Comercio
Deposito Ambito,Tienda de materiales para la construcci贸n,,Piedrabuena 1938,+54 249 436-3006,Tandil,Provincia de Buenos Aires,-37.3043056,-59.1262833,,87,https://streetviewpixels-pa.googleapis.com/v1/thumbnail?panoid=_F1PDXsPOlnrZiB95mfNmw&cb_client=search.gws-prod.gps&w=408&h=240&yaw=216.3939&pitch=0&thumbfov=100,1.0,0,2025-05-04T16:08:20.559Z,Comercio
Tanterra,Tienda de ropa,,RN226,,Tandil,Provincia de Buenos Aires,-37.2966662,-59.1327505,,88,https://streetviewpixels-pa.googleapis.com/v1/thumbnail?panoid=CuOcTIIJtukUyjzwMYSlxw&cb_client=search.gws-prod.gps&w=408&h=240&yaw=37.379944&pitch=0&thumbfov=100,1.0,0,2025-05-04T16:08:20.559Z,Comercio
Fruteria Y Verduleria Cara De Papa,Tienda de alimentaci贸n,,Mosconi,,Tandil,Provincia de Buenos Aires,-37.3027945,-59.1395715,,89,https://streetviewpixels-pa.googleapis.com/v1/thumbnail?panoid=sEpgwuuh2FWFyk4nZcAYyg&cb_client=search.gws-prod.gps&w=408&h=240&yaw=345.47183&pitch=0&thumbfov=100,1.0,0,2025-05-04T16:08:20.559Z,Comercio
Mirame bonita,Tienda de ropa,,Beir贸 740,+54 249 447-9920,Tandil,Provincia de Buenos Aires,-37.3026604,-59.1400887,5.0,90,https://lh3.googleusercontent.com/p/AF1QipPTL1U-j7eK2cYH4igmne7t5R8FPBnNjcCqiS03=w408-h725-k-no,18.0,2,2025-05-04T16:08:20.559Z,Comercio
AVICO,Carnicer铆a,,,,Tandil,Provincia de Buenos Aires,-37.2970292,-59.1484297,,91,https://streetviewpixels-pa.googleapis.com/v1/thumbnail?panoid=JGdaYyL3-Ju0RDrnEisA4A&cb_client=search.gws-prod.gps&w=408&h=240&yaw=325.10522&pitch=0&thumbfov=100,1.0,0,2025-05-04T16:08:20.559Z,Comercio
NETVI Computaci贸n,Tienda de inform谩tica,,S谩enz Pe帽a 597,+54 249 464-4261,Tandil,Provincia de Buenos Aires,-37.3056444,-59.1405412,4.6,92,https://lh3.googleusercontent.com/p/AF1QipNuIksf2Q8_nqMyDjSrJbMeh7JkDx6qKhg01Eky=w408-h408-k-no,159.0,65,2025-05-04T16:08:20.559Z,Comercio
Balestra Automotores,Compraventa de autom贸viles,https://www.instagram.com/balestra.automotores?igsh=dWJ3d21rd3dtN3Rl,Quintana 1150,+54 249 430-9473,Tandil,Provincia de Buenos Aires,-37.3025575,-59.1493661,5.0,93,https://lh3.googleusercontent.com/p/AF1QipPALbqhOzW2-Z4JIzj4t-oD9hPIJYNSdGFliuDI=w408-h725-k-no,21.0,14,2025-05-04T16:08:20.559Z,Comercio
Abril Indumentaria,Comercio,,Quintana 801,+54 9 249 422-2789,Tandil,Provincia de Buenos Aires,-37.3055369,-59.1452444,,94,https://lh3.googleusercontent.com/p/AF1QipOrAYXwNSX4BMqqDWIHXyR8mk9AYLpT1y7sCzPf=w408-h277-k-no,2.0,0,2025-05-04T16:08:20.559Z,Comercio
Sierras Sport,Tienda de ropa de deportes,,Quintana 705,+54 249 444-5353,Tandil,Provincia de Buenos Aires,-37.3061573,-59.1441928,4.3,95,https://lh3.googleusercontent.com/gps-proxy/ALd4DhF0xXqnEvWfltHrKzjanT8-vR0IbOGPZIsObvMtN9PMGN2-UstCDFUHLTUdrugZrrU3ID-DMdYFo10pQHMtEWSPTL2PnnWXtxquDIoxRwt3rMKkJtPs68NTb2feF-lRl_qJNFaDgfl3ODGPAA2_8RhTJXHzAfA8gdIJeYHU7KJdHHnVBnJuItV1QER8REyKJEYF8Q=w408-h306-k-no,2.0,9,2025-05-04T16:08:20.559Z,Comercio
ASIA,Supermercado,,Beir贸,,Tandil,Provincia de Buenos Aires,-37.3028589,-59.1394301,4.0,96,https://streetviewpixels-pa.googleapis.com/v1/thumbnail?panoid=T-koT1YK6LbsbRDM1qSfLg&cb_client=search.gws-prod.gps&w=408&h=240&yaw=256.65457&pitch=0&thumbfov=100,1.0,4,2025-05-04T16:08:20.559Z,Comercio
Lelu cakes,Pasteler铆a,,Beir贸 595,+54 249 421-5961,Tandil,Provincia de Buenos Aires,-37.3037655,-59.1382705,,97,https://lh3.googleusercontent.com/p/AF1QipM8rwcvfgmlEzjGehNZUFYfUn8FFQGKNXQaL9vS=w408-h544-k-no,10.0,0,2025-05-04T16:08:20.559Z,Comercio
Panaderia Del Pueblo,Panader铆a,,Beir贸 789,+54 249 458-7280,Tandil,Provincia de Buenos Aires,-37.3019428,-59.1403793,4.6,98,https://lh3.googleusercontent.com/p/AF1QipOgI7rHk81s6oSfawDy9lTVXOyqETnMvxz_q9bo=w408-h725-k-no,11.0,363,2025-05-04T16:08:20.560Z,Comercio
Tasha Bebes y Ni帽os,Tienda de ropa para beb茅s,,Quintana 599,+54 249 444-2253,Tandil,Provincia de Buenos Aires,-37.3073665,-59.1426519,4.3,99,https://lh3.googleusercontent.com/gps-proxy/ALd4DhFqhvQktX-WIhX2uJl84a-8fUALV_bROHVsGSQM1fQ5VZqQXkKBY_E9CaEZi5GHNGWJ-8qa_1vndYey6OMZJMBTSEhbMQ63RaV9Q6RfP5a-z7WhOks25-CHwjPuZa81MNYUdu_1x3K9YDSoTB55cFoQixoAMZqlduAYAPDG86vjMota1z16pmMEclbS4N2Pr1FVdQc=w408-h306-k-no,3.0,10,2025-05-04T16:08:20.560Z,Comercio
Los Pollos Serranos,Tienda de aves de corral,http://instagram.com/lospollosserranos,Francisco Beir贸 1222,+54 249 449-5378,Tandil,Provincia de Buenos Aires,-37.2980766,-59.145581,4.9,100,https://lh3.googleusercontent.com/p/AF1QipOMNu3ciyIaV2tNRWYdnYBZ_KGAiw8OY-UdxKWr=w408-h544-k-no,25.0,35,2025-05-04T16:08:20.560Z,Comercio
El Ultimo Recurso,Comercio,,Ijurco 2243,,Tandil,Provincia de Buenos Aires,-37.2949014,-59.1158551,5.0,1,https://lh3.googleusercontent.com/gps-cs-s/AC9h4nr2jIo9vtrt61VhRq1WpBIBTDpxbUwMT7tlUz9TaAHez5HKulHXaGQOKX5Arc21aDUV7UWmDUaaxobv2f_8SDormo7Sj4yv4JJwHebCrzwoCaLHi0B-Z476ftVMGjwXYsiiwV6tU575xozS=w408-h544-k-no,2.0,1,2025-05-04T16:08:21.261Z,Comercio
"Polirrubro ""El Cordob茅s""",Comercio,,Moreno 1609,+54 249 453-6990,Tandil,Provincia de Buenos Aires,-37.3086175,-59.1287998,3.6,2,https://streetviewpixels-pa.googleapis.com/v1/thumbnail?panoid=D2ARL0ju-gCgHLL84BcewQ&cb_client=search.gws-prod.gps&w=408&h=240&yaw=75.084045&pitch=0&thumbfov=100,1.0,5,2025-05-04T16:08:21.261Z,Comercio
Enever tandil,Comercio,https://www.instagram.com/enever_tandil?igsh=a2k5dm42anVuaXBw&utm_source=qr,"pasaje interno 1850 ENTRE LA CALLE IJURCO, Ju谩rez Y",+54 249 428-7471,Tandil,Provincia de Buenos Aires,-37.2989358,-59.1201442,,3,https://lh3.googleusercontent.com/p/AF1QipP2TlUHotjLhUSAj7xfyP1AIGqeBXOSLRmCeIMi=w408-h544-k-no,6.0,0,2025-05-04T16:08:21.261Z,Comercio
A limpiar,Comercio,,Ijurco 1883,+54 249 464-4277,Tandil,Provincia de Buenos Aires,-37.2982871,-59.1200489,4.3,5,https://lh3.googleusercontent.com/p/AF1QipMcYBqdjcLbF7L7MuO-VQlRv6AYOk2vhljHRN7Z=w408-h906-k-no,39.0,47,2025-05-04T16:08:21.261Z,Comercio
"Pironio Oscar Alfredo e Hijo, repuestos pauny y cummins",Comercio,,Piedrabuena 1525,+54 9 249 459-0884,Tandil,Provincia de Buenos Aires,-37.3079934,-59.120972,4.7,13,https://lh3.googleusercontent.com/p/AF1QipMZ25a5DP0NLNB6Sb_07FJSw4SJXd70WZRWzU0p=w408-h306-k-no,9.0,11,2025-05-04T16:08:21.262Z,Comercio
Super Sol,Tienda de alimentaci贸n,,Ijurco 2319,+54 249 442-0272,Tandil,Provincia de Buenos Aires,-37.2954512,-59.1169778,5.0,14,https://streetviewpixels-pa.googleapis.com/v1/thumbnail?panoid=l0qmObzCVWsurU-Rd6nm4w&cb_client=search.gws-prod.gps&w=408&h=240&yaw=330.09137&pitch=0&thumbfov=100,1.0,4,2025-05-04T16:08:21.262Z,Comercio
El matungo tandil,Comercio,https://instagram.com/matungofredes?igshid=NjIwNzIyMDk2Mg==,Basilico 1863,+54 249 421-1085,Tandil,Provincia de Buenos Aires,-37.2967249,-59.12268,5.0,15,https://lh3.googleusercontent.com/p/AF1QipNJjJwdCHWEwP8DMKVqCVoSovK2OV17-PIT3-k=w408-h406-k-no,2.0,1,2025-05-04T16:08:21.262Z,Comercio
Irmaa,Tienda de alimentaci贸n,,Peyrel 1336,,Tandil,Provincia de Buenos Aires,-37.30619,-59.1225619,4.3,16,https://streetviewpixels-pa.googleapis.com/v1/thumbnail?panoid=bSX-maIeeAn-y57IafEIjw&cb_client=search.gws-prod.gps&w=408&h=240&yaw=299.76752&pitch=0&thumbfov=100,1.0,6,2025-05-04T16:08:21.262Z,Comercio
Cocholate,Tienda de alimentaci贸n,,Labard茅n 1910,+54 9 249 421-6911,Tandil,Provincia de Buenos Aires,-37.2999231,-59.1202198,4.6,17,https://lh3.googleusercontent.com/gps-cs-s/AC9h4nqrAOxKA3xLzN8dW2lWRI6689TfzcmzHTQlV2KeSnbEfaFCi-5yqf_IUg-SNx124i0ZDpjjlrYX-pmAf9ZjtJsMJ-779X7cAoJdEU0lhhYTaq4OtgnsIG75buHVz_05HhZjwAFbow=w408-h306-k-no,11.0,8,2025-05-04T16:08:21.262Z,Comercio
Mercado Riqui,Mercado,,Moreno 1548,,Tandil,Provincia de Buenos Aires,-37.3111045,-59.1276885,5.0,18,https://streetviewpixels-pa.googleapis.com/v1/thumbnail?panoid=TTCYbceZyNqJ4jcy-ANcAw&cb_client=search.gws-prod.gps&w=408&h=240&yaw=263.61563&pitch=0&thumbfov=100,1.0,3,2025-05-04T16:08:21.263Z,Comercio
El Nuevo Triangulo,Fruter铆a,,Rauch,+54 249 444-4713,Tandil,Provincia de Buenos Aires,-37.3090053,-59.1245478,3.5,19,https://lh3.googleusercontent.com/gps-proxy/ALd4DhElmTypMLeq7fIN2FJ91pPkBylSGRpnYm30LZvo0pOsYTP9PpgCxAswtoRSMuX1vyBksD5ksReT-_ijHmOY-Zv_F5SJ6QiXwj_1tk8e7doN4ba2cCH93M-LItzz_mdzXAvd07ahkIMVAcucKLqz6VCC70O3xFhyJICYKr02dqBPcD7D_nFMy_D7z2r4SQx2qYEdJOs=w408-h306-k-no,6.0,17,2025-05-04T16:08:21.263Z,Comercio
Panetonnes,Panader铆a,,Piedrabuena 1666-1600,,Tandil,Provincia de Buenos Aires,-37.3071883,-59.1222516,4.5,20,https://lh3.googleusercontent.com/gps-cs-s/AC9h4nrticsaL8e67cmAlmbYjYpNszl429o1HEuU4rb-VygPdRSj0_jtkUmyihrQo1hlz7BSCHe_jSzOpRsrVo5zt93l668Pad1qhJtPFCio7jeKW20vH1loH5FBFEOImPJLSXYQrP_qwg=w408-h544-k-no,2.0,82,2025-05-04T16:08:21.263Z,Comercio
MP motorepuestos,Tienda de repuestos para motos,,Quintana 1051,+54 249 452-2257,Tandil,Provincia de Buenos Aires,-37.3030945,-59.1479387,4.0,101,https://lh3.googleusercontent.com/p/AF1QipO5TQ-Id2_Oq_qHXCnAn-bWbeRKV3xPQi61mH0n=w408-h306-k-no,22.0,11,2025-05-04T16:08:21.994Z,Comercio
Carnicer铆a las 3M,Carnicer铆a,,Beir贸 475,,Tandil,Provincia de Buenos Aires,-37.304775,-59.1367159,4.8,102,https://lh3.googleusercontent.com/p/AF1QipMyL_liSYLsIfk3t2YEgqrsS5TGTVx2Dbzx3h9X=w408-h408-k-no,2.0,5,2025-05-04T16:08:21.994Z,Comercio
Nico-sport,Tienda de ropa,,"Juan Roger Pe帽a, Mosconi &",,Tandil,Provincia de Buenos Aires,-37.2969041,-59.149355,,104,https://streetviewpixels-pa.googleapis.com/v1/thumbnail?panoid=ym04480MCp_oFSyJ66C5Yg&cb_client=search.gws-prod.gps&w=408&h=240&yaw=182.753&pitch=0&thumbfov=100,1.0,0,2025-05-04T16:08:21.994Z,Comercio
Kalopsia Clothing,Tienda de ropa de mujer,https://www.facebook.com/profile.php?id=100080227436739,Urquiza 444,+54 249 458-9087,Tandil,Provincia de Buenos Aires,-37.3050726,-59.1448285,,105,https://lh3.googleusercontent.com/p/AF1QipPiTgVOSWDJWq0dGH6wU0U9pYdmBGs8LPhp8l01=w408-h306-k-no,31.0,0,2025-05-04T16:08:21.994Z,Comercio
SCHMIEDEN,Tienda de art铆culos de cocina,https://schmieden.com.ar/,Primera Junta 3055,+54 249 456-0275,Tandil,Provincia de Buenos Aires,-37.2949908,-59.1399325,4.5,106,https://lh3.googleusercontent.com/p/AF1QipPRUPA27_CiMmodi3c1tmhXQ4kLQcQHVcgdrjwE=w408-h272-k-no,85.0,23,2025-05-04T16:08:21.994Z,Comercio
Lubricentro Beir贸,Servicio de cambio de aceite,,Beir贸 266,+54 249 462-6588,Tandil,Provincia de Buenos Aires,-37.3068131,-59.1345532,4.4,107,https://streetviewpixels-pa.googleapis.com/v1/thumbnail?panoid=RHZocduUfo_iuSYKjFwTHQ&cb_client=search.gws-prod.gps&w=408&h=240&yaw=211.57698&pitch=0&thumbfov=100,1.0,17,2025-05-04T16:08:21.994Z,Comercio
Ferreteria Segura hermanos,Tienda de herramientas,,Beir贸 1132-1100,+54 249 448-5720,Tandil,Provincia de Buenos Aires,-37.298981,-59.1442919,4.4,108,https://lh3.googleusercontent.com/p/AF1QipNM7L9kAqwDUZ5JkxGw3DHNpDJDkpJz_-1EjloP=w408-h244-k-no,8.0,14,2025-05-04T16:08:21.994Z,Comercio
SHANTI.AROMAS,Cerer铆a,,Int. Dufau 996,+54 249 434-4766,Tandil,Provincia de Buenos Aires,-37.3029035,-59.1463946,5.0,109,https://lh3.googleusercontent.com/p/AF1QipM4yL8qzrdvg0YKUNCEi6Dv3j0xwnyp37sU_hWH=w408-h725-k-no,10.0,2,2025-05-04T16:08:21.994Z,Comercio
AUTOSERVICIO Dulce Cuca,Tienda de alimentaci贸n,,,,Tandil,Provincia de Buenos Aires,-37.3038064,-59.1382675,,110,https://streetviewpixels-pa.googleapis.com/v1/thumbnail?panoid=mmXWIkwFtoWdKPxCKhNjvw&cb_client=search.gws-prod.gps&w=408&h=240&yaw=215.74474&pitch=0&thumbfov=100,1.0,0,2025-05-04T16:08:21.994Z,Comercio
Silvio A Lanestosa,Tienda de alimentaci贸n,,Av. Pujol 1010,+54 249 445-1043,Tandil,Provincia de Buenos Aires,-37.2950801,-59.1438722,4.4,111,https://lh3.googleusercontent.com/p/AF1QipM7WeQxnbqMjoVGspDDZNTwxbNsitZkr-TMaaWm=w408-h725-k-no,4.0,17,2025-05-04T16:08:21.994Z,Comercio
Farmacia AMTMT,Farmacia,,Beir贸 698,+54 249 421-9948,Tandil,Provincia de Buenos Aires,-37.302859,-59.1394313,5.0,112,https://lh3.googleusercontent.com/p/AF1QipO-_x_Ci8XJiHT2P6rQDfQ9HKQ5s_xy_4HlLMzu=w408-h306-k-no,3.0,3,2025-05-04T16:08:21.994Z,Comercio
Limpieza Villa Italia,Proveedor de productos de limpieza,,Urquiza 406,+54 249 435-6741,Tandil,Provincia de Buenos Aires,-37.3053879,-59.1451452,5.0,113,https://streetviewpixels-pa.googleapis.com/v1/thumbnail?panoid=A5GQF_QTwi2V1v4bhyG8ng&cb_client=search.gws-prod.gps&w=408&h=240&yaw=330.6763&pitch=0&thumbfov=100,2.0,3,2025-05-04T16:08:21.994Z,Comercio
KIOSCO DESPENSA,Tienda de alimentaci贸n,,Beir贸 757,,Tandil,Provincia de Buenos Aires,-37.3022444,-59.1400256,,114,https://streetviewpixels-pa.googleapis.com/v1/thumbnail?panoid=5yyg1VT638QrwXOXEBJrcA&cb_client=search.gws-prod.gps&w=408&h=240&yaw=9.154759&pitch=0&thumbfov=100,1.0,0,2025-05-04T16:08:21.995Z,Comercio
Ferreteria Villa Italia,Ferreter铆a,,Quintana 1026,,Tandil,Provincia de Buenos Aires,-37.3035614,-59.1478633,5.0,115,https://streetviewpixels-pa.googleapis.com/v1/thumbnail?panoid=C1jvpTQcma11s9qepk8tHw&cb_client=search.gws-prod.gps&w=408&h=240&yaw=214.97534&pitch=0&thumbfov=100,1.0,1,2025-05-04T16:08:21.995Z,Comercio
Fruter铆a y Verduler铆a La Huerta,Tienda de alimentaci贸n,,Pasteur 365,+54 249 430-9971,Tandil,Provincia de Buenos Aires,-37.3069273,-59.1441685,4.7,116,https://lh3.googleusercontent.com/p/AF1QipOisN6hxwxt7GDGh8IBq9VPW68ibB9Mfddf30MX=w408-h306-k-no,14.0,21,2025-05-04T16:08:21.995Z,Comercio
Diet茅tica Cachitos,Tienda de alimentos naturales,,Quintana 717,+54 249 468-1561,Tandil,Provincia de Buenos Aires,-37.3061549,-59.144184,4.5,117,https://lh3.googleusercontent.com/gps-proxy/ALd4DhH_Y8C8c1U-VJo4FhbAq5ikjpvy5snOUVhucdpzEvxy9pVT2gwr9-nagf8Tnb_nwND3qBkTcPVVkdsxWrMwzlYsPF3Uffzxz3rCy7Sdv6XJGy3mwL-hOifXD8IGaE_d305IIEdF5BU4Lc6IP1o-qMM4bgUYD-7VBkoWIP2pvilDQ_2-8kaYYJpT4Jk6WZfuDy98Eaw=w408-h306-k-no,4.0,81,2025-05-04T16:08:21.995Z,Comercio
Ichi Kids,Tienda de ropa infantil,,Quintana 575 Local 1,+54 249 424-5321,Tandil,Provincia de Buenos Aires,-37.3075755,-59.1424159,5.0,118,https://lh3.googleusercontent.com/p/AF1QipO841AXNUdhJqqHOdRfAk2TaBW64MKxxVj0-3ZE=w408-h403-k-no,2.0,6,2025-05-04T16:08:21.995Z,Comercio
Kiwano - Li,Tienda de alimentaci贸n,,Quintana 799,,Tandil,Provincia de Buenos Aires,-37.3055747,-59.1449346,,119,https://streetviewpixels-pa.googleapis.com/v1/thumbnail?panoid=V3-4UGgqGd4Ke7eX0cs1GA&cb_client=search.gws-prod.gps&w=408&h=240&yaw=61.20521&pitch=0&thumbfov=100,1.0,0,2025-05-04T16:08:21.995Z,Comercio
Just consultora independiente Daniela Staheli,Tienda de regalos,,Basilico 875,,Tandil,Provincia de Buenos Aires,-37.3056881,-59.133793,5.0,120,https://streetviewpixels-pa.googleapis.com/v1/thumbnail?panoid=m1EB67uI_NO_A4qpF1-Q0A&cb_client=search.gws-prod.gps&w=408&h=240&yaw=117.23022&pitch=0&thumbfov=100,1.0,1,2025-05-04T16:08:21.995Z,Comercio
Supermercado Actis,Supermercado,,,,Tandil,Provincia de Buenos Aires,-37.3041805,-59.1049553,4.2,23,https://lh3.googleusercontent.com/gps-cs-s/AC9h4nqyWbvBWqHppR00r6bMdgzZUYdEP3nW4M97qaDHMrnGdwngCW88Ucsoc8W5PlyucHUMJtI4PYmPTgXv5XwiTe9jZDuY8xKCDPgSeTYRTsQGgysqbfsS6p4xmBB5Mp8kY5Y2I0Z9=w408-h544-k-no,17.0,277,2025-05-04T16:08:22.197Z,Comercio
Disfruta,Tienda de alimentaci贸n,,Ijurco 2163,,Tandil,Provincia de Buenos Aires,-37.2957851,-59.1169823,,35,https://streetviewpixels-pa.googleapis.com/v1/thumbnail?panoid=S5hgh8YAexYhw7qcHaIorg&cb_client=search.gws-prod.gps&w=408&h=240&yaw=148.49297&pitch=0&thumbfov=100,1.0,0,2025-05-04T16:08:22.199Z,Comercio
Autoservicio Don Jose (Carniceria),Supermercado,,San Francisco 2026,,Tandil,Provincia de Buenos Aires,-37.2952191,-59.1168121,4.7,36,https://lh3.googleusercontent.com/gps-cs-s/AC9h4nqLTIoCOBYAa2FY1tNkVpkPj6zOirzKPMrcpdMRGci7_IzDNK0U2oTX2OkVAB7n2fclk9s6gsQPmZ2O622T08fg_0i-Bfm0T4ijsSHWQYD4uljdxyhkY7SdYfDe119YldywFQcg=w408-h306-k-no,5.0,23,2025-05-04T16:08:22.199Z,Comercio
Pimai polirrubro,Tienda general,,San Francisco 937,+54 249 468-9114,Tandil,Provincia de Buenos Aires,-37.3049108,-59.1042221,5.0,37,https://lh3.googleusercontent.com/p/AF1QipPaGtNq2vgxnbWuU0w_CdwJF0nWm0Gr8h-216F-=w408-h544-k-no,2.0,2,2025-05-04T16:08:22.199Z,Comercio
Rotiseria La Santiague帽a,Tienda de alimentaci贸n,,Av. Monse帽or Actis 2039,+54 249 401-7336,Tandil,Provincia de Buenos Aires,-37.3060178,-59.106657,4.5,39,https://lh3.googleusercontent.com/gps-cs-s/AC9h4nqhzCG7ieBugbuCFSa1H-8QMuEUWDTa2HKPbqPL-It31_oaCiZPTMNlCLziNq-ZMsxqEc6KI8znwPfIKiPB6B4QdeYA16T_M2PXP7rn-WPGHkFwx0l2oHbpw3Zeopq7vLBKFDI=w408-h725-k-no,6.0,2,2025-05-04T16:08:22.199Z,Comercio
Candy MARKET,Tienda de alimentaci贸n,,,,Tandil,Provincia de Buenos Aires,-37.3054236,-59.1197538,,40,https://streetviewpixels-pa.googleapis.com/v1/thumbnail?panoid=yY4Vu9bV7Q6QfTCK4KdATA&cb_client=search.gws-prod.gps&w=408&h=240&yaw=109.1098&pitch=0&thumbfov=100,1.0,0,2025-05-04T16:08:22.199Z,Comercio
Carniceria Morteo,Carnicer铆a,,Quintana 812,+54 249 465-7474,Tandil,Provincia de Buenos Aires,-37.3054789,-59.1454493,5.0,121,https://streetviewpixels-pa.googleapis.com/v1/thumbnail?panoid=O90S1QAgXZBNFjo7QMJU0A&cb_client=search.gws-prod.gps&w=408&h=240&yaw=224.31291&pitch=0&thumbfov=100,1.0,11,2025-05-04T16:08:22.882Z,Comercio
Carniceria LAVALLE,Carnicer铆a,,Beir贸,,Tandil,Provincia de Buenos Aires,-37.3010003,-59.14159,,122,https://streetviewpixels-pa.googleapis.com/v1/thumbnail?panoid=kG5wPYlpeWV3F0-PhAxLdQ&cb_client=search.gws-prod.gps&w=408&h=240&yaw=77.45679&pitch=0&thumbfov=100,1.0,0,2025-05-04T16:08:22.882Z,Comercio
Tapizados Tandil,Tapicer铆a,https://www.instagram.com/tapizadostandil?igsh=MTc3ZzN5cTlzdTl1dg==,Beir贸 668,+54 249 452-4930,Tandil,Provincia de Buenos Aires,-37.3032089,-59.1392971,5.0,123,https://lh3.googleusercontent.com/p/AF1QipOz_eY2UzgeAQT81xO4JlCU_GDQ0Z2y4CYCsbUB=w408-h543-k-no,75.0,9,2025-05-04T16:08:22.882Z,Comercio
LANG Tecnolog铆a,Tienda de inform谩tica,https://www.langtecnologia.com.ar/,Quintana 647,+54 249 411-6457,Tandil,Provincia de Buenos Aires,-37.3068115,-59.1431824,5.0,124,https://lh3.googleusercontent.com/p/AF1QipPEZFiPyxEBcaZ4iAFnjGma0k76I9EWsOg_6hx2=w408-h544-k-no,14.0,12,2025-05-04T16:08:22.882Z,Comercio
Frutas Morma Verduras,Tienda de alimentaci贸n,,Colectora Sur J. C. Pugliese 1564,,Tandil,Provincia de Buenos Aires,-37.3069135,-59.1207798,,125,https://streetviewpixels-pa.googleapis.com/v1/thumbnail?panoid=UrzmonPd-VTxAMApWDW2cA&cb_client=search.gws-prod.gps&w=408&h=240&yaw=231.99948&pitch=0&thumbfov=100,1.0,0,2025-05-04T16:08:22.882Z,Comercio
Panificadora Tandil,Panader铆a,,Quintana 699,+54 249 445-1091,Tandil,Provincia de Buenos Aires,-37.3064944,-59.143809,4.6,126,https://lh3.googleusercontent.com/p/AF1QipPdhy0-owU9T2URFGY9z8WjE3R7iZ66f4JFP5Z3=w425-h240-k-no,3.0,472,2025-05-04T16:08:22.882Z,Comercio
La Herradura quesos,Queser铆a,,Aeronautica Argentina 1549,+54 249 469-7275,Tandil,Provincia de Buenos Aires,-37.297787,-59.1284155,4.7,127,https://lh3.googleusercontent.com/p/AF1QipPEoPVJhR1H4-gE7TT7k0mXcD1D8CX67m7YxluZ=w408-h544-k-no,4.0,3,2025-05-04T16:08:22.882Z,Comercio
Snk imported,Tienda de botas,,Rosales 2358,+54 249 406-0739,Tandil,Provincia de Buenos Aires,-37.2968936,-59.1265727,,128,https://lh3.googleusercontent.com/p/AF1QipMO0d3Wv9R7TyVpjn_GsnrVHPHIL5Kv2hxa-WxK=w408-h725-k-no,5.0,0,2025-05-04T16:08:22.882Z,Comercio
"Perfumeria ""Las Lilas""",Perfumer铆a,,Quintana 798,+54 249 445-2963,Tandil,Provincia de Buenos Aires,-37.305754,-59.145096,4.0,129,https://lh3.googleusercontent.com/gps-proxy/ALd4DhGFmg5CBbhiStIb8FiB8WKjCz8PQoTc4VorblKrZTjSFZ81U6YByM-LZ4rpsekAfdhwIJCfYN1KuegPQc4fFXajjEavX2KqHf9nJR8BtnNoVCJlZXNg7Y0JQPM_6OQLvuUNk52dStBP_Z32wGdJWQH9ob-VV31X3D37uei3zKnnhJb2LL75NzYGpUZimUIwpF-DycQ=w408-h306-k-no,3.0,3,2025-05-04T16:08:22.882Z,Comercio
Nube,Tienda de ropa para beb茅s,,Quintana 565,+54 249 442-4159,Tandil,Provincia de Buenos Aires,-37.307663,-59.142191,3.8,130,https://lh3.googleusercontent.com/gps-proxy/ALd4DhHbTyser-7TffTpB8C6fjtXJ0iplIVHbzbKkKUsw4H9r-7zp-CDt_9XQ3HV9Xdz00BTOpE_giCRBovBJycKISJU4oP9l4-fBOz5HKDmkZ5IHS4TUWhchqV57DAtsJcZ6a0kIdOuV-fQGd5be2xX9DEQaESdIio-o3qHTCapul7njMapm1RFmbT34qJMQL-zvUGMww=w408-h306-k-no,2.0,4,2025-05-04T16:08:22.882Z,Comercio
Carnicer铆a Ra煤l,Carnicer铆a,,Quintana,,Tandil,Provincia de Buenos Aires,-37.3069202,-59.143249,,131,https://streetviewpixels-pa.googleapis.com/v1/thumbnail?panoid=PRVO8PjSSa-ogPbGy3jYyA&cb_client=search.gws-prod.gps&w=408&h=240&yaw=21.80078&pitch=0&thumbfov=100,1.0,0,2025-05-04T16:08:22.882Z,Comercio
Porc Carnicer铆as Tandil,Carnicer铆a,http://carniceriasporc.com.ar/,Colectora Sur J. C. Pugliese 1570,+54 249 467-3681,Tandil,Provincia de Buenos Aires,-37.3069379,-59.1211015,4.6,132,https://lh3.googleusercontent.com/p/AF1QipNn4e7RuFtq2ZDihRxMLIP7QlMcQ9uMJimci4zT=w408-h725-k-no,12.0,109,2025-05-04T16:08:22.882Z,Comercio
FerreSer,Tienda de herramientas,,Quintana 752,+54 249 452-5027,Tandil,Provincia de Buenos Aires,-37.3060492,-59.1446102,5.0,133,https://lh3.googleusercontent.com/p/AF1QipOB4I03Rkqn3bRBMl2e793kWoPyTj8ulg4BsZkr=w408-h906-k-no,5.0,9,2025-05-04T16:08:22.883Z,Comercio
Barraca Don Ro,Tienda de alimentaci贸n,,Beir贸 936,,Tandil,Provincia de Buenos Aires,-37.3006217,-59.1424505,,134,https://lh3.googleusercontent.com/p/AF1QipN-d6vhpcAo9LG2vMQMvTqD9t1ciOwhKM8G-xcU=w426-h240-k-no,2.0,0,2025-05-04T16:08:22.883Z,Comercio
Benja,Panader铆a,,Ameghino 855,,Tandil,Provincia de Buenos Aires,-37.3032532,-59.137531,4.9,135,https://lh3.googleusercontent.com/p/AF1QipNcbRNtHPFSaFg_5dmNe4XdyX-6T1UfjNin31CB=w408-h544-k-no,2.0,15,2025-05-04T16:08:22.883Z,Comercio
Barraca Los Hermanos,Tienda de alimentos para animales,https://m.facebook.com/barraca.loshermano?mibextid=ZbWKwL,Quintana 810,+54 249 451-1920,Tandil,Provincia de Buenos Aires,-37.3053793,-59.1451557,,136,https://lh3.googleusercontent.com/p/AF1QipME0i943ZvRaG8OyK1sC_g3-sTijfj-geASH6zC=w408-h544-k-no,26.0,0,2025-05-04T16:08:22.883Z,Comercio
Ed茅n,Tienda de alimentaci贸n,,,,Tandil,Provincia de Buenos Aires,-37.3005094,-59.1425291,,137,https://streetviewpixels-pa.googleapis.com/v1/thumbnail?panoid=Emxe5SuYqvOuIQqvVS0DMQ&cb_client=search.gws-prod.gps&w=408&h=240&yaw=150.65797&pitch=0&thumbfov=100,1.0,0,2025-05-04T16:08:22.883Z,Comercio
La Princesa,Panader铆a,,Quintana 655,+54 249 445-0437,Tandil,Provincia de Buenos Aires,-37.3068139,-59.143291,4.5,138,http://t3.gstatic.com/images?q=tbn:ANd9GcSeqDuTuWGI6f7Cyz3ySeiRRYgcfpfVc9IJHVan2cgnUXj4JGOS,75.0,49,2025-05-04T16:08:22.883Z,Comercio
Actitud Estilo Urbano,Tienda de ropa,,Quintana 814,+54 249 433-5363,Tandil,Provincia de Buenos Aires,-37.3053941,-59.145469,3.0,139,https://lh3.googleusercontent.com/p/AF1QipNyt0Nm6RvfgBkNV6xMp6aVXbS36IGON3S2_d7O=w408-h308-k-no,34.0,2,2025-05-04T16:08:22.883Z,Comercio
Sol - Nat,Tienda de alimentaci贸n,,E Mosconi 237,+54 249 437-5402,Tandil,Provincia de Buenos Aires,-37.3078042,-59.1350639,1.0,140,https://lh3.googleusercontent.com/p/AF1QipO5PQKwiUJdrHSZ7wJDj6Am71E7zJD7c3y3jDwQ=w426-h240-k-no,20.0,1,2025-05-04T16:08:22.883Z,Comercio
Variet茅 Indumentaria Electr贸nica Y M谩s,Tienda de ropa,,Primera Junta,,Tandil,Provincia de Buenos Aires,-37.305924,-59.1260349,,45,https://streetviewpixels-pa.googleapis.com/v1/thumbnail?panoid=YOElxuVEPD165hTuyz-lMQ&cb_client=search.gws-prod.gps&w=408&h=240&yaw=75.28439&pitch=0&thumbfov=100,1.0,0,2025-05-04T16:08:23.330Z,Comercio
Avicola Cooko,Tienda de alimentaci贸n,,Darragueira 2155,,Tandil,Provincia de Buenos Aires,-37.2993157,-59.1251261,,47,https://streetviewpixels-pa.googleapis.com/v1/thumbnail?panoid=UIxM7pqkE8e9wuMsv1JZaA&cb_client=search.gws-prod.gps&w=408&h=240&yaw=20.351608&pitch=0&thumbfov=100,1.0,0,2025-05-04T16:08:23.331Z,Comercio
Carniceria Mercado,Carnicer铆a,,Ijurco 2196,,Tandil,Provincia de Buenos Aires,-37.295291,-59.116786,,49,https://streetviewpixels-pa.googleapis.com/v1/thumbnail?panoid=ZbV1JuPjYyAWo_K2GXoylA&cb_client=search.gws-prod.gps&w=408&h=240&yaw=294.52145&pitch=0&thumbfov=100,1.0,0,2025-05-04T16:08:23.331Z,Comercio
Fer Tan Buloneria Ferreteria,Ferreter铆a,,Aeronautica Argentina 1666,,Tandil,Provincia de Buenos Aires,-37.2964565,-59.1272955,,142,https://streetviewpixels-pa.googleapis.com/v1/thumbnail?panoid=Gi7RGAU2e_kZYo_F5ghHww&cb_client=search.gws-prod.gps&w=408&h=240&yaw=339.80948&pitch=0&thumbfov=100,1.0,0,2025-05-04T16:08:23.844Z,Comercio
Persianas Cortinas Met谩licas Soto,Tienda de persianas,https://www.guia-dorada.com.ar/guia/aviso-herreria-ramos-soto-en-tandil-buenos-aires-25552.html,Lavalle 571,+54 9 249 448-0971,Tandil,Provincia de Buenos Aires,-37.3031306,-59.1442951,5.0,143,https://lh3.googleusercontent.com/p/AF1QipPHMCyMIxUlHPTaiHTlkw-MEndu6smoO1nTFzMJ=w408-h305-k-no,49.0,1,2025-05-04T16:08:23.844Z,Comercio
Fruter铆a y verduler铆a Gabriel,Fruter铆a,,Quintana 731,,Tandil,Provincia de Buenos Aires,-37.3059802,-59.1443167,,144,https://lh3.googleusercontent.com/p/AF1QipPK-R8bM4nycE7xiZc4_vPfo9MwrS3bRCM4i14A=w408-h541-k-no,2.0,0,2025-05-04T16:08:23.844Z,Comercio
SS Chaza Tattoo,Estudio de tatuajes,,Lavalle 455,+54 249 436-7199,Tandil,Provincia de Buenos Aires,-37.3041596,-59.1455735,5.0,145,https://streetviewpixels-pa.googleapis.com/v1/thumbnail?panoid=vCRMHGpvG69HkRZ1mPCoWw&cb_client=search.gws-prod.gps&w=408&h=240&yaw=153.47069&pitch=0&thumbfov=100,2.0,10,2025-05-04T16:08:23.844Z,Comercio
Grido helado,Helader铆a,https://argentina.gridohelado.com/,Darragueira 2258,+54 249 430-5636,Tandil,Provincia de Buenos Aires,-37.2985032,-59.1265188,4.2,146,https://lh3.googleusercontent.com/p/AF1QipMW3_cqyA3le9Fau_LQJ6Ii9-dtAC5TCFt4i9jO=w408-h306-k-no,100.0,140,2025-05-04T16:08:23.844Z,Comercio
KETO BIKE,Tienda de bicicletas,,Quintana 744,,Tandil,Provincia de Buenos Aires,-37.3062039,-59.1444447,5.0,147,https://streetviewpixels-pa.googleapis.com/v1/thumbnail?panoid=hiuSm4hy3RxJyDe5dZ-PTg&cb_client=search.gws-prod.gps&w=408&h=240&yaw=223.80882&pitch=0&thumbfov=100,1.0,1,2025-05-04T16:08:23.844Z,Comercio
Celulares Alexis,Tienda de electr贸nica,,Av. Balb铆n 1620,+54 249 431-3131,Tandil,Provincia de Buenos Aires,-37.3075102,-59.1258903,4.6,148,https://lh3.googleusercontent.com/p/AF1QipPAzkse-DZujZ0mgPXxcLt0oTPea-Sda23tTVY6=w408-h306-k-no,17.0,83,2025-05-04T16:08:23.844Z,Comercio
Fer-Dar,Ferreter铆a,,Darragueira 1753,+54 249 456-9560,Tandil,Provincia de Buenos Aires,-37.3029473,-59.1205823,5.0,149,https://streetviewpixels-pa.googleapis.com/v1/thumbnail?panoid=UNTseX1zy_TdKLXeFLEraw&cb_client=search.gws-prod.gps&w=408&h=240&yaw=21.312862&pitch=0&thumbfov=100,1.0,2,2025-05-04T16:08:23.844Z,Comercio
Fuegos Serranos,Tienda de art铆culos para barbacoas,,Pasteur 1046,+54 9 249 424-8307,Tandil,Provincia de Buenos Aires,-37.300398,-59.136712,5.0,150,https://lh3.googleusercontent.com/p/AF1QipOy16gvflpfPIB53DZVcGgN0n21rmNHPYD32Orh=w408-h510-k-no,5.0,8,2025-05-04T16:08:23.844Z,Comercio
PANADERIA,Panader铆a,,Darragueira 1860,,Tandil,Provincia de Buenos Aires,-37.302077,-59.1219824,,151,https://streetviewpixels-pa.googleapis.com/v1/thumbnail?panoid=cDIAfRFZKfQqU2xNAuJRoQ&cb_client=search.gws-prod.gps&w=408&h=240&yaw=202.65492&pitch=0&thumbfov=100,1.0,0,2025-05-04T16:08:23.844Z,Comercio
Ferreter铆a Juan M,Ferreter铆a,https://www.guia-dorada.com.ar/guia/aviso-ferreteria-juan-m-en-tandil-522.html,Beir贸 944,+54 9 249 456-9030,Tandil,Provincia de Buenos Aires,-37.3004852,-59.1425099,4.8,152,https://lh3.googleusercontent.com/p/AF1QipPInON4p_1czfGKaGFlDuFBQjJNbjdaXRVClVwX=w427-h240-k-no,70.0,33,2025-05-04T16:08:23.844Z,Comercio
LA FLORIDA CORRALON,Tienda de materiales para la construcci贸n,,Aeronautica Argentina 1618,+54 249 401-4606,Tandil,Provincia de Buenos Aires,-37.2968592,-59.1277725,5.0,153,https://lh3.googleusercontent.com/p/AF1QipPr6_z9G2JyKgoKYIrXPG3Ns4HgRarvcnc7yMfD=w533-h240-k-no,5.0,1,2025-05-04T16:08:23.844Z,Comercio
Moda Any,Tienda de ropa,,,,Tandil,Provincia de Buenos Aires,-37.2990227,-59.1441528,,154,https://streetviewpixels-pa.googleapis.com/v1/thumbnail?panoid=JDGxulD-xsABmpfn1RE5Fw&cb_client=search.gws-prod.gps&w=408&h=240&yaw=59.645233&pitch=0&thumbfov=100,1.0,0,2025-05-04T16:08:23.845Z,Comercio
Lencer铆a Donna,Tienda de lencer铆a,,Quintana 588,+54 249 445-1714,Tandil,Provincia de Buenos Aires,-37.307723,-59.1426363,4.9,155,https://lh3.googleusercontent.com/gps-proxy/ALd4DhFyZHKaZKZ4gTcQWMhpO3jmo3tvlVnQfNTIvOkBkfiA-smzThkwKcO-CxAw9kH4C6URYmO2TY9AEtE7cgymhAmLWt7iV6_gNJq2GZHq1hz4S_TRU8mVylcsL3glw9YvdEeb9giPHR-wrjoYHXqEwa9XPst0PPL9xH2VAKBbCx9KY_Jufa2gkdwKpIpJArMFH8pNhIY=w408-h306-k-no,3.0,12,2025-05-04T16:08:23.845Z,Comercio
Beiro motos,Tienda de repuestos para motos,,Beir贸 1014,+54 249 446-9482,Tandil,Provincia de Buenos Aires,-37.3000583,-59.1431548,,156,https://lh3.googleusercontent.com/p/AF1QipO-FQUHliKAj7tMzZafcGfC5RDAyTyNWcRUGa9R=w408-h725-k-no,3.0,0,2025-05-04T16:08:23.845Z,Comercio
Santer铆a Regaler铆a Manantial,Tienda de art铆culos religiosos,https://www.instagram.com/manantial_santeria_regaleria/?hl=es-la,Lavalle 400,+54 249 430-8911,Tandil,Provincia de Buenos Aires,-37.3046331,-59.1461556,5.0,157,https://lh3.googleusercontent.com/gps-proxy/ALd4DhHxQaxzWSMCOTkna55NVBnVLSkPsg-RSVkMQ3YS0aylG2j9HUS_QVUjJnKXbputZ4FyQpwOwYwBXHkKh1pr1IEvDSabjKyIWalORO9KwrCJ585r7sBk7PZkmAcPCo350oW-L07SV6AQKZBYUgMCcpewMX7yBpmiLgI2mpttJQl9Ud7kqlFLwqwbvfk-c9pfexdYKxo=w408-h306-k-no,14.0,3,2025-05-04T16:08:23.845Z,Comercio
DESPENSA La Pipi,Tienda de alimentaci贸n,,Av. Pujol 567,,Tandil,Provincia de Buenos Aires,-37.2995429,-59.1489582,,158,https://streetviewpixels-pa.googleapis.com/v1/thumbnail?panoid=pYmaJ4PImCGJfaWMhKvmUg&cb_client=search.gws-prod.gps&w=408&h=240&yaw=131.87396&pitch=0&thumbfov=100,1.0,0,2025-05-04T16:08:23.845Z,Comercio
Santa Eufemia,Carnicer铆a,,Quintana,,Tandil,Provincia de Buenos Aires,-37.3036164,-59.1477046,,159,https://streetviewpixels-pa.googleapis.com/v1/thumbnail?panoid=Wxj8xbXcMbfx2ApqnfhdRw&cb_client=search.gws-prod.gps&w=408&h=240&yaw=264.3654&pitch=0&thumbfov=100,1.0,0,2025-05-04T16:08:23.845Z,Comercio
Centro M茅dico Veterinario Villa Italia,Hospital veterinario,,Ameghino 412,+54 249 453-6418,Tandil,Provincia de Buenos Aires,-37.3071586,-59.1427465,4.5,160,https://lh3.googleusercontent.com/p/AF1QipPhK8Xjh6e0zoH0HIbWbQ2kdUNyedcg_Go-j77G=w649-h240-k-no,55.0,145,2025-05-04T16:08:23.845Z,Comercio
A la Flauta,Panader铆a,,Quintana 1176,+54 2983 50-8824,Tandil,Provincia de Buenos Aires,-37.3021873,-59.1495387,4.6,161,https://lh3.googleusercontent.com/p/AF1QipMvGS9EK9GNkHqWX7-w35wqmzljj55NEKQh5jmB=w408-h306-k-no,5.0,31,2025-05-04T16:08:24.853Z,Comercio
Panader铆a la Nueva Buena Estrella,Panader铆a,,Dinamarca 591,+54 249 442-8011,Tandil,Provincia de Buenos Aires,-37.3065947,-59.1394513,4.6,163,https://lh3.googleusercontent.com/p/AF1QipP4D0GL6ZfcWN8k1Qe_FzsLLGzTm7i4zna3Kzqr=w426-h240-k-no,5.0,23,2025-05-04T16:08:24.854Z,Comercio
Panader铆a Panna Cotta,Panader铆a,,,+54 249 431-6828,,,-37.3195228,-59.1427021,5.0,164,https://lh3.googleusercontent.com/p/AF1QipO1ep8jt8rcEP8FzgWhJbgdV_dd1TC_NsyR06GY=w408-h544-k-no,4.0,2,2025-05-04T16:08:24.854Z,Comercio
Margarita's,Tienda de ropa para beb茅s,https://www.facebook.com/profile.php?id=100011523935690,Quintana 599,+54 249 444-2253,Tandil,Provincia de Buenos Aires,-37.3073665,-59.1426519,5.0,165,https://streetviewpixels-pa.googleapis.com/v1/thumbnail?panoid=PC53U8ZN1ucpGJ8F2gcCvw&cb_client=search.gws-prod.gps&w=408&h=240&yaw=23.789656&pitch=0&thumbfov=100,1.0,1,2025-05-04T16:08:24.854Z,Comercio
Colchones Tandil,Tienda especializada en camas,,Dinamarca 482,+54 249 431-1834,Tandil,Provincia de Buenos Aires,-37.3073989,-59.1408948,4.6,166,https://lh3.googleusercontent.com/p/AF1QipPsKI1TSJo2vtSwv7QYRfJueFmGsHicodTTYSqZ=w408-h725-k-no,2.0,14,2025-05-04T16:08:24.854Z,Comercio
Rub铆 Sportswear,Tienda de ropa,http://rubisportswear.tiendanegocio.com/,Darragueira 2362,,Tandil,Provincia de Buenos Aires,-37.2977488,-59.1278272,5.0,167,https://streetviewpixels-pa.googleapis.com/v1/thumbnail?panoid=UwG2i_v5U4hF7pf_7HeuBg&cb_client=search.gws-prod.gps&w=408&h=240&yaw=228.2227&pitch=0&thumbfov=100,1.0,6,2025-05-04T16:08:24.854Z,Comercio
Vitalia Computaci贸n,Tienda de inform谩tica,,Quintana 595,+54 249 420-7361,Tandil,Provincia de Buenos Aires,-37.3073852,-59.1425898,4.3,168,https://lh3.googleusercontent.com/p/AF1QipMwwDzlldfBVhK2DZaRKRE-0AQj77OmuiPdsh3Q=w408-h408-k-no,9.0,24,2025-05-04T16:08:24.854Z,Comercio
Eces y V,Tienda de ropa,,Quintana 625,,Tandil,Provincia de Buenos Aires,-37.307072,-59.143041,4.0,169,https://lh3.googleusercontent.com/gps-proxy/ALd4DhHGDlFRtvpP6NG1R_O47t-0gRHacCwGD95cppzKePp0WK5WNktnN-vBXahGgV7G1ix6XnAoU0hdMKd7FA2V87PTI6CAOyQv1XkslnBXZMD2arSq2omE0vFkQMA6Mh0Dr_lbtZQebBa5keROID7LkzEzwkS7u3kJAbgvv_ms6jHJn6_kEqQTS1thCxKHPJ0KDQY7dfE=w408-h306-k-no,2.0,9,2025-05-04T16:08:24.854Z,Comercio
Siempre Farmacias - Darragueira,Farmacia,https://www.siemprefarmacias.com.ar/,Darragueira 2039,+54 249 447-5362,Tandil,Provincia de Buenos Aires,-37.3003483,-59.12363,4.7,171,https://lh3.googleusercontent.com/p/AF1QipO6LdfxQzsQFASNIG-vXDIQKDUmuNj3vYKXr62z=w408-h306-k-no,7.0,18,2025-05-04T16:08:24.854Z,Comercio
Farmacia Strada,Farmacia,,Lavalle 670,+54 249 444-0456,Tandil,Provincia de Buenos Aires,-37.3020981,-59.1432751,3.9,172,https://lh3.googleusercontent.com/p/AF1QipP6uz9z9N3DzDWJWiKQBXnFl7IY3nBYPWOyUX48=w427-h240-k-no,4.0,8,2025-05-04T16:08:24.854Z,Comercio
RHODAR PLOTTER,Tienda de pancartas publicitarias,https://www.facebook.com/rhodargraff,Av. Balb铆n 1620 local 3,+54 249 460-0661,Tandil,Provincia de Buenos Aires,-37.3075147,-59.125849,4.6,173,https://lh3.googleusercontent.com/p/AF1QipOKW9Iaujp6PTUnPYP_UtvjemaxZe-5vDw7nD47=w408-h271-k-no,13.0,20,2025-05-04T16:08:24.854Z,Comercio
Liam Tienda De Frutas Y Verduras,Tienda de alimentaci贸n,,,+54 249 428-0805,Tandil,Provincia de Buenos Aires,-37.2978929,-59.1472261,,174,https://lh3.googleusercontent.com/p/AF1QipPcuZhA34eZANkR2bzrbPdzHl9o9u5DAc5jPvY8=w426-h240-k-no,7.0,0,2025-05-04T16:08:24.854Z,Comercio
Carniceria De El Fabio,Carnicer铆a,,Pasteur 790,,Tandil,Provincia de Buenos Aires,-37.3028315,-59.1396268,,175,https://streetviewpixels-pa.googleapis.com/v1/thumbnail?panoid=sEpgwuuh2FWFyk4nZcAYyg&cb_client=search.gws-prod.gps&w=408&h=240&yaw=291.78452&pitch=0&thumbfov=100,1.0,0,2025-05-04T16:08:24.854Z,Comercio
OHANA- Kiosco y Librer铆a,Librer铆a,,Darragueira 2001,+54 249 428-8544,Tandil,Provincia de Buenos Aires,-37.3006884,-59.1234243,4.0,176,https://lh3.googleusercontent.com/p/AF1QipM923cUH84GN0Zh9yWyvFNI95juYKlimuDGzFt8=w408-h408-k-no,6.0,1,2025-05-04T16:08:24.854Z,Comercio
Vidrieria y Cerrajeria Villa Italia,Tienda de cristales,,Dinamarca 655,+54 249 402-2744,Tandil,Provincia de Buenos Aires,-37.3059964,-59.1386092,4.4,177,https://streetviewpixels-pa.googleapis.com/v1/thumbnail?panoid=WFERP6XGHZicGrGK62OMyQ&cb_client=search.gws-prod.gps&w=408&h=240&yaw=132.4303&pitch=0&thumbfov=100,1.0,47,2025-05-04T16:08:24.855Z,Comercio
FRUTAS Y VERDURAS Tanjarina,Tienda de alimentaci贸n,,,,Tandil,Provincia de Buenos Aires,-37.3009601,-59.1393229,,178,https://streetviewpixels-pa.googleapis.com/v1/thumbnail?panoid=oHYU0mMruKtCYGaK7nhVJA&cb_client=search.gws-prod.gps&w=408&h=240&yaw=4.7612095&pitch=0&thumbfov=100,1.0,0,2025-05-04T16:08:24.855Z,Comercio
Sweet Dreams Colchoneria y Blanqueria,Colchoner铆a,,Honduras 1182,+54 249 461-6601,Tandil,Provincia de Buenos Aires,-37.3075167,-59.1252323,5.0,179,https://lh3.googleusercontent.com/p/AF1QipMxKH6gAyx-TeJRi9vrzk3NvicNT_z19SXWZsUP=w408-h544-k-no,19.0,7,2025-05-04T16:08:24.855Z,Comercio
Cuchillos de Tandil. ARGO. F谩brica de cuchillos artesanales,Tienda de cuberter铆a,http://www.cuchillosargo.com.ar/,Urquiza 260,+54 249 456-6293,Tandil,Provincia de Buenos Aires,-37.3067332,-59.1467879,4.6,180,https://lh3.googleusercontent.com/p/AF1QipOGO1atwm--3nwXWg6CAGctjq-IUD7WqG9FZyoX=w408-h306-k-no,38.0,38,2025-05-04T16:08:24.855Z,Comercio
Minimercado Verenice,Tienda de alimentaci贸n,,12 de Octubre,,Tandil,Provincia de Buenos Aires,-37.3222516,-59.1602641,4.6,1,https://lh3.googleusercontent.com/gps-cs-s/AC9h4npxfgCBXoAjLlHhoMCbiA3XYUzz8APQkyytNVqKiOIEWP_iqOYKWQwm3iwzAZBvXvvjUNRjdxmo7ZFjcEnL1XBGmQfl1ZKWQtRFRBmCDGucnZ_fvTEXhZYJusTW0FL7ORXrhH6s=w408-h725-k-no,20.0,70,2025-05-04T16:08:25.849Z,Comercio
Fruteria titi,Fruter铆a,https://www.instagram.com/titifrutasyverduras?igsh=MW45cWRrNnowMGhnNA==,Azucena 791,+54 249 424-6279,Tandil,Provincia de Buenos Aires,-37.3047328,-59.173813,,4,,,0,2025-05-04T16:08:25.849Z,Comercio
Distribuidora Farias,Comercio,,Av. Juan B. Justo 478,+54 249 443-8194,Tandil,Provincia de Buenos Aires,-37.3191974,-59.159757,4.6,5,https://lh3.googleusercontent.com/gps-cs-s/AC9h4nphm0GPPuXBSm-3aHXWSeENeJGLwrNmNE0YkrO5HeweTfIGI4XR7xSYSxdp531vgR-x1-sQCJTbTRlIHmBNN9tUUjNkThVID6Pvcpwje6Ndznyegztl5rIsu4kf7B9pqVKzoKfD=w408-h544-k-no,3.0,25,2025-05-04T16:08:25.849Z,Comercio
El de Siempre,Comercio,,12 de Octubre 1322,,Tandil,Provincia de Buenos Aires,-37.3243497,-59.1591345,,6,https://streetviewpixels-pa.googleapis.com/v1/thumbnail?panoid=VdLfTENczB2sguCGIAwK4A&cb_client=search.gws-prod.gps&w=408&h=240&yaw=237.05107&pitch=0&thumbfov=100,1.0,0,2025-05-04T16:08:25.849Z,Comercio
Repuestos Martinez,,,,+54 249 453-5774,Tandil,Provincia de Buenos Aires,-37.2972403,-59.1329531,5.0,181,https://lh3.googleusercontent.com/p/AF1QipNraM93bIimP66j1KDSHxL7FWoLK8JoYlh91YBt=w408-h544-k-no,2.0,11,2025-05-04T16:08:26.047Z,Comercio
Dory's,Tienda de m贸viles,,Piedrabuena 1578,+54 249 442-3665,Tandil,Provincia de Buenos Aires,-37.3074372,-59.1220975,3.7,182,https://lh3.googleusercontent.com/gps-proxy/ALd4DhGqNT9YebfSchGTYVAvhiNjiY9d_wOENl8-qnwnDr8r8G10UafRKJo2PEwra1sBRItJmn3qxjkjFOX9c-oZyF0FxqoqJijZ78LfCOfqcDpuWve4Fw5XPa2eo8ZACCtWEh7ZKBdIjLYE7Wjdyn6S0w0ig02lXkDFux7PlBJshT5O73sQgco8_4dFijtGnU5W38sLVw=w408-h306-k-no,2.0,3,2025-05-04T16:08:26.047Z,Comercio
Muy Guapos,Tienda de ropa de hombre,,Quintana 575,+54 249 444-3872,IRK,Provincia de Buenos Aires,-37.307527,-59.142444,4.8,183,https://lh3.googleusercontent.com/gps-proxy/ALd4DhGOThYU7J0tjSYDcOh0oLAdgiW-Te7fK-fSDPUCZnVIEwbUMv1AfCQVa7IS4A6cLqwl7dOC2Nj6iNuGeXVUDq_ZeyNIhGXrTR_M_Ud69gWIHmljwspUmeR8LXacztRXfKnAOvSvunAyNkkQk170BBLzftGxtReRoLMoXxM3bBPl6FGKTOxA04n0uaMtL0JrRIu1Fg=w408-h306-k-no,8.0,49,2025-05-04T16:08:26.047Z,Comercio
Ferreteria Carlitos,Ferreter铆a,,Peyrel 1226,+54 249 449-4712,Tandil,Provincia de Buenos Aires,-37.3072049,-59.1238859,4.7,184,https://streetviewpixels-pa.googleapis.com/v1/thumbnail?panoid=pNP2POSc74GimN5A6ke1SA&cb_client=search.gws-prod.gps&w=408&h=240&yaw=319.48965&pitch=0&thumbfov=100,1.0,72,2025-05-04T16:08:26.047Z,Comercio
Kee Sexy Zapater铆a,Zapater铆a,,,,Tandil,Provincia de Buenos Aires,-37.3021905,-59.1215397,,185,https://streetviewpixels-pa.googleapis.com/v1/thumbnail?panoid=z6-IfGHuIpaxEGOYDUVoig&cb_client=search.gws-prod.gps&w=408&h=240&yaw=346.1683&pitch=0&thumbfov=100,1.0,0,2025-05-04T16:08:26.047Z,Comercio
Guada Vig Ventas,Tienda de ropa,,,+54 249 437-4284,,,-37.3357854,-59.1953212,,186,,,0,2025-05-04T16:08:26.047Z,Comercio
Tortas MIAS,Pasteler铆a,http://www.facebook.com/www.tortasMIAScom/?ref=hl,S谩enz Pe帽a 565,+54 249 458-9975,Tandil,Provincia de Buenos Aires,-37.3057744,-59.1401049,4.6,187,https://lh3.googleusercontent.com/p/AF1QipNZyHLXgakFmkwiJwGEI7P3USlbRTPu_Ox6bhtO=w408-h251-k-no,180.0,11,2025-05-04T16:08:26.047Z,Comercio
Honey Ar Distribuidora Miel Aleluya.,Tienda naturista,https://mielaleluya.com.ar/,Lavalle 1168,+54 249 444-0676,Tandil,Provincia de Buenos Aires,-37.2974933,-59.1377538,3.9,188,https://lh3.googleusercontent.com/p/AF1QipOigXunsa9Rp1gZrYgrtLJKy5ZCjIZDdWGKDWxx=w426-h240-k-no,9.0,17,2025-05-04T16:08:26.047Z,Comercio
Quiniela,Tienda de loter铆a,,Quintana,,Tandil,Provincia de Buenos Aires,-37.3054777,-59.1451709,,189,https://streetviewpixels-pa.googleapis.com/v1/thumbnail?panoid=jqApZ--cJYnSZ8QkDFnSlQ&cb_client=search.gws-prod.gps&w=408&h=240&yaw=359.95963&pitch=0&thumbfov=100,1.0,0,2025-05-04T16:08:26.047Z,Comercio
La vieja esquina,Tienda de alimentaci贸n,,,+54 249 463-2318,Tandil,Provincia de Buenos Aires,-37.3206598,-59.1329631,5.0,2,https://lh3.googleusercontent.com/p/AF1QipPiJA5_4jOGd5r9NRy2o8TXyquIGPexvahycOSb=w408-h544-k-no,18.0,1,2025-05-04T16:08:26.761Z,Comercio
Minimercado,Supermercado,,Mitre 1190,,Tandil,Provincia de Buenos Aires,-37.3205187,-59.1294892,4.8,3,https://lh3.googleusercontent.com/p/AF1QipNngvy-FY91KFfhFtfSF8VUi5CaihJl-6iLlXBA=w408-h306-k-no,5.0,34,2025-05-04T16:08:26.761Z,Comercio
Alpamar,Comercio,,Gral. Rodr铆guez 1661,,Tandil,Provincia de Buenos Aires,-37.3137169,-59.1440039,5.0,4,http://t3.gstatic.com/images?q=tbn:ANd9GcSyd1XKULm8lI8ekIR0sLwOdZcIcW0sAfexr2kIxMjQ9Ug6yOW6,41.0,1,2025-05-04T16:08:26.761Z,Comercio
Almacen Los titinos,Tienda de alimentaci贸n,,Gral. Paz 897,+54 249 406-2680,Tandil,Provincia de Buenos Aires,-37.3212012,-59.1342704,4.7,5,https://lh3.googleusercontent.com/p/AF1QipPzfRQnY5MKzjpQVQyuU5uUpO-ReeqTHpfoWD0I=w408-h306-k-no,16.0,43,2025-05-04T16:08:26.761Z,Comercio
La Estaci贸n,Fruter铆a,,4 de Abril y,,Tandil,Provincia de Buenos Aires,-37.3162502,-59.1334123,4.9,6,https://lh3.googleusercontent.com/p/AF1QipMckIeQhcuWgHKMDaZpGKKl3kkfLzyslWSynqA6=w408-h306-k-no,3.0,39,2025-05-04T16:08:26.761Z,Comercio
La Escoba Loca,Tienda de art铆culos para el hogar,,Av. Col贸n 1233,,Tandil,Provincia de Buenos Aires,-37.3164443,-59.1350096,3.8,7,https://lh3.googleusercontent.com/gps-proxy/ALd4DhF_Nu4k4yMncGfqp21os9OPd2BnaSZ9WXbZjV02teufxf0Nz_7pEh66ms0Fy7GJagbzwasU6p5BpxnwgwpXB1fHpmzEQT6ZMkeOjbOtw1Cuadfy9FlYYvveEilB2b3LjUvy46-naZ8gmU2QgEuoxuE4nol8sQ6wx4qtCgjFOGBE-w24As_5GKYgtnfB6lxlOkeEYrQ=w408-h306-k-no,12.0,4,2025-05-04T16:08:26.762Z,Comercio
ME GUSTA REGIONALES,Tienda de alimentaci贸n,,Av. Col贸n 1091,+54 249 449-4954,Tandil,Provincia de Buenos Aires,-37.3182291,-59.1340019,4.3,8,https://lh3.googleusercontent.com/p/AF1QipO8jBWP2dtOBlBJU6DeuKQcZWVeMzpAjINOgLQj=w426-h240-k-no,27.0,11,2025-05-04T16:08:26.762Z,Comercio
EL PAMPA MARQUET,Quiosco,,Leandro Alem 1332,,Tandil,Provincia de Buenos Aires,-37.3166398,-59.1390282,5.0,9,https://streetviewpixels-pa.googleapis.com/v1/thumbnail?panoid=IU7TICKyVEFKd5Xs6gm1FA&cb_client=search.gws-prod.gps&w=408&h=240&yaw=232.23721&pitch=0&thumbfov=100,1.0,3,2025-05-04T16:08:26.762Z,Comercio
Walter R Bucella,Comercio,,Arana 719,+54 249 442-9288,Tandil,Provincia de Buenos Aires,-37.315044,-59.1412137,,10,https://streetviewpixels-pa.googleapis.com/v1/thumbnail?panoid=i-kDs1TAr_Pi0lcZdoikow&cb_client=search.gws-prod.gps&w=408&h=240&yaw=139.93527&pitch=0&thumbfov=100,1.0,0,2025-05-04T16:08:26.762Z,Comercio
Mango,Fruter铆a,,"Moreno, Montevideo &",+54 249 463-0871,Tandil,Provincia de Buenos Aires,-37.3133449,-59.1260269,4.6,11,https://streetviewpixels-pa.googleapis.com/v1/thumbnail?panoid=_tUYWa8BSbjYbqoanQGngw&cb_client=search.gws-prod.gps&w=408&h=240&yaw=329.1026&pitch=0&thumbfov=100,1.0,38,2025-05-04T16:08:26.762Z,Comercio
LE BRIE ALMACEN,Tienda de fiambres,,Av. Col贸n 998,+54 249 428-0311,Tandil,Provincia de Buenos Aires,-37.3194031,-59.1337194,4.9,12,https://lh3.googleusercontent.com/p/AF1QipMdXuSDhS0AFirqmVOfQuCpSihH5Nhi3CtmHKqj=w408-h410-k-no,11.0,14,2025-05-04T16:08:26.762Z,Comercio
Mazzola Hnos. S.R.L.,Tienda de art铆culos para el hogar,,Av. Marconi 1594,+54 249 422-3244,GRS,Provincia de Buenos Aires,-37.3169999,-59.1243128,4.6,13,https://lh3.googleusercontent.com/gps-proxy/ALd4DhFDQ8WpHH0ExBOWY21n0-bWUnQ41sU6voDMqku9hvpBkOu4mX3a1LsSiHTRkWXc0-s-_lpCAAMtaiEnzTxE23AdPtQH2CCR-CzT_b7RyRHjiPWzfuuOb_r0CPV0DZAcasxIyjEYs0SvZYwosgKijuA-N-MUk0jebSLxjj_m-HfVfl_aEwaYZtB_Ni2SASk7RxIntCM=w408-h306-k-no,15.0,205,2025-05-04T16:08:26.762Z,Comercio
La Pituca,Fruter铆a,,Quintana 302,+54 249 445-3237,Tandil,Provincia de Buenos Aires,-37.3100717,-59.1395049,4.5,14,https://lh3.googleusercontent.com/gps-proxy/ALd4DhEWRfmFKfz9nI4Scr5SwBC8G54Hrf42iQ0Mc_2xoqD3d9i0XxR-J8KRUEN1bJ6nrSd9fejBYHBjC2bU0DXyWMVlVMMdUoDgQSXTQgPjDqOUV5M6s2EBOrFAz-zIc-MbWkgP-jYmrdTQXFrJlEb5BknZqzdqfITu7k_3KmtIE9dWLHKBTFNOtdiX5dQ4ALlONhzAhmo=w408-h306-k-no,2.0,2,2025-05-04T16:08:26.762Z,Comercio
Azucena Lanas,Tienda de lana,https://www.facebook.com/azucena.lanas.5,Uriburu 1449,,Tandil,Provincia de Buenos Aires,-37.3121196,-59.1296072,4.9,15,https://streetviewpixels-pa.googleapis.com/v1/thumbnail?panoid=w5AltuibPKun78Hz0vrnkQ&cb_client=search.gws-prod.gps&w=408&h=240&yaw=154.30083&pitch=0&thumbfov=100,1.0,19,2025-05-04T16:08:26.762Z,Comercio
tuShop,Tienda de alimentaci贸n,,Av. Col贸n 1112,,Tandil,Provincia de Buenos Aires,-37.3180519,-59.1346036,5.0,16,https://lh3.googleusercontent.com/p/AF1QipPgFf4Gl_Aqo51g98uDkvarCHajr6JRpRttlScG=w408-h725-k-no,4.0,1,2025-05-04T16:08:26.762Z,Comercio
Kiosco,Tienda de alimentaci贸n,,Gral. Rodr铆guez 1175,,Tandil,Provincia de Buenos Aires,-37.3196254,-59.1405749,4.8,17,https://streetviewpixels-pa.googleapis.com/v1/thumbnail?panoid=MlPNVYP___b1Ksh4vlCpSQ&cb_client=search.gws-prod.gps&w=408&h=240&yaw=82.17579&pitch=0&thumbfov=100,1.0,5,2025-05-04T16:08:26.762Z,Comercio
Maxi Higiene Perfumeria Bazar,Tienda de ropa,,Nigro,,Tandil,Provincia de Buenos Aires,-37.310367,-59.1375336,,18,https://streetviewpixels-pa.googleapis.com/v1/thumbnail?panoid=1dA1e-_cGC3GU58yI58HpA&cb_client=search.gws-prod.gps&w=408&h=240&yaw=305.2066&pitch=0&thumbfov=100,1.0,0,2025-05-04T16:08:26.762Z,Comercio
Q'Chevere,Tienda general,,Mitre 1325,,Tandil,Provincia de Buenos Aires,-37.3199308,-59.1272207,,19,https://streetviewpixels-pa.googleapis.com/v1/thumbnail?panoid=-DVL_nm8bwy-qafLozFYpA&cb_client=search.gws-prod.gps&w=408&h=240&yaw=177.88713&pitch=0&thumbfov=100,1.0,0,2025-05-04T16:08:26.762Z,Comercio
Minimercado Armazem,Supermercado,,Gral. Paz 984,,Tandil,Provincia de Buenos Aires,-37.3201537,-59.1351269,5.0,20,https://streetviewpixels-pa.googleapis.com/v1/thumbnail?panoid=QyIJcfuURvZVHiFRjVieDQ&cb_client=search.gws-prod.gps&w=408&h=240&yaw=223.5741&pitch=0&thumbfov=100,1.0,2,2025-05-04T16:08:26.762Z,Comercio
Almac茅n cerrito,Supermercado,,Tacuar铆 383,+54 249 401-1645,Tandil,Provincia de Buenos Aires,-37.332629,-59.114934,4.9,1,https://lh3.googleusercontent.com/p/AF1QipOGh-SFf21XotE-nWhiZcCfJaqrHqgwRCvl18aq=w408-h725-k-no,3.0,47,2025-05-04T16:08:28.466Z,Comercio
piedrabuena y rivas,Comercio,,Larrea 1740,,Tandil,Provincia de Buenos Aires,-37.3341412,-59.1113921,,3,https://streetviewpixels-pa.googleapis.com/v1/thumbnail?panoid=JqNITwLOK39W6RqfuwpshA&cb_client=search.gws-prod.gps&w=408&h=240&yaw=323.84164&pitch=0&thumbfov=100,1.0,0,2025-05-04T16:08:28.466Z,Comercio
Almac茅n Acuaries,Comercio,http://acuariesalmacen.tiendanube.com/,Juan C. Ariztegui 1216 Local 4,+54 249 463-3097,Tandil,Provincia de Buenos Aires,-37.329748,-59.0953389,4.8,4,https://lh3.googleusercontent.com/p/AF1QipMX63lowxrzv_mBiRF14EQ3WLVSJCS717mFCaXm=w408-h306-k-no,2.0,5,2025-05-04T16:08:28.466Z,Comercio
Autoservicio los Manantiales,Tienda de alimentaci贸n,,C. Juan XXIII 555,,Tandil,Provincia de Buenos Aires,-37.3399554,-59.1131635,4.6,5,https://lh3.googleusercontent.com/p/AF1QipPMXnDXYcSB1AiI9k8O02kjTw9IIDoVBZPGVJo8=w408-h306-k-no,56.0,98,2025-05-04T16:08:28.466Z,Comercio
El Mercado en tu Barrio,Comercio,https://instagram.com/elmercadoentubarriotandil,,+54 9 249 457-8255,Tandil,Provincia de Buenos Aires,-37.3252054,-59.1132296,5.0,6,https://streetviewpixels-pa.googleapis.com/v1/thumbnail?panoid=3RR2Exz99K927WHhOv_1Tw&cb_client=search.gws-prod.gps&w=408&h=240&yaw=72.188286&pitch=0&thumbfov=100,3.0,1,2025-05-04T16:08:28.466Z,Comercio
maxigolf,Comercio,,Av. Brasil 399,,Tandil,Provincia de Buenos Aires,-37.3316259,-59.1117556,5.0,8,https://lh3.googleusercontent.com/p/AF1QipNzbHQFCbjTMqlSp5QdGJnlkbYl4KGyLdz5Z0sf=w408-h544-k-no,2.0,1,2025-05-04T16:08:28.466Z,Comercio
EL CIMARRON,Supermercado,https://m.facebook.com/elcimarrontandil/,"B7000, Av. Brasil 581",+54 249 422-1314,Tandil,Provincia de Buenos Aires,-37.3338701,-59.1105959,4.7,9,https://lh3.googleusercontent.com/p/AF1QipP68X65Ahxax8dciRKff6EOCMrrA9AlhU6r5JEG=w408-h725-k-no,16.0,83,2025-05-04T16:08:28.466Z,Comercio
Madre Tierra,Comercio,,Av. Brasil 122,,Tandil,Provincia de Buenos Aires,-37.3283549,-59.1133957,,10,https://lh3.googleusercontent.com/p/AF1QipO-OrzMQNthaMhFHJe_s3-sDU556WBgJBYcBboc=w408-h935-k-no,2.0,0,2025-05-04T16:08:28.467Z,Comercio
Re Chulos,Tienda de regalos,https://www.facebook.com/Re-chulos-108919877605294/,Carriego 570,+54 249 454-2195,Tandil,Provincia de Buenos Aires,-37.3341283,-59.1119656,5.0,11,https://lh3.googleusercontent.com/p/AF1QipMltt6Y040JhmoKTIbfWJBwLf8LVa1YB12Se3AR=w408-h421-k-no,299.0,1,2025-05-04T16:08:28.467Z,Comercio
La Roca,Tienda de alimentaci贸n,,,+54 249 450-5725,Tandil,Provincia de Buenos Aires,-37.3329531,-59.1111226,4.8,13,https://lh3.googleusercontent.com/p/AF1QipMFan__FCUVuLAAOlyEJSHJhWhLfNhpFAYP0nd8=w426-h240-k-no,2.0,21,2025-05-04T16:08:28.467Z,Comercio
"Corb谩n ""Minimercado""",Tienda de alimentaci贸n,,Av. Avellaneda 1707,+54 249 422-1433,FTE,Provincia de Buenos Aires,-37.3275588,-59.1158489,4.7,15,https://lh3.googleusercontent.com/gps-proxy/ALd4DhHJqmdQisT8k9J11xAzxDFKTJydQlA_0dFQhyGw5C5QJ4cpylByG1SYbc_VsKlybnNzm6O0XuUyO3xMZZtzNT_Lg0_TZb8fwunTmlcOSEeG2WG9rEv4I4MN1UdM2Ih28h4ZE1gXOiz-8MF_z0YORwLbAS5t9gsJr9SMZlmailAGpQNs_NhS5big8Hh769nrx4lgKA=w408-h306-k-no,3.0,6,2025-05-04T16:08:28.467Z,Comercio
Aureliano JMR,Tienda de alimentaci贸n,,Juan Manuel de Rosas 1622,,Tandil,Provincia de Buenos Aires,-37.3336708,-59.0816475,,16,https://streetviewpixels-pa.googleapis.com/v1/thumbnail?panoid=6XqREucNL7FqBBEAPJ93OA&cb_client=search.gws-prod.gps&w=408&h=240&yaw=88.40126&pitch=0&thumbfov=100,1.0,0,2025-05-04T16:08:28.467Z,Comercio
Polirrubro- Despensa Juanse,Comercio,,Venezuela 31,,Tandil,Provincia de Buenos Aires,-37.3250648,-59.1086043,,17,https://streetviewpixels-pa.googleapis.com/v1/thumbnail?panoid=0hxCJMOXv0cYIVeCUgLFig&cb_client=search.gws-prod.gps&w=408&h=240&yaw=55.99216&pitch=0&thumbfov=100,1.0,0,2025-05-04T16:08:28.467Z,Comercio
Granja El Reencuentro,Carnicer铆a,,Av. Brasil 551,+54 249 442-4198,Tandil,Provincia de Buenos Aires,-37.3335955,-59.1107906,4.3,18,https://lh3.googleusercontent.com/p/AF1QipMy22qwWzjWomucZtABoVskt1BOVgvOse4V5cLQ=w408-h338-k-no,3.0,6,2025-05-04T16:08:28.467Z,Comercio
SEASINGLAB,Comercio,http://www.seasinglab.com.ar/,Jos茅 Hern谩ndez 361,+54 9 249 462-0208,Tandil,Provincia de Buenos Aires,-37.3328361,-59.1167564,4.6,19,https://lh3.googleusercontent.com/p/AF1QipNqxnx3Gdv6Tw7UAhjlTGkWU_FPElGYLJ2mWxck=w408-h408-k-no,4.0,11,2025-05-04T16:08:28.467Z,Comercio
LodelasChicas,Kiosco,https://www.instagram.com/lodelaschicass/,Juan C. Ariztegui 1216,,Tandil,Provincia de Buenos Aires,-37.329748,-59.0953389,4.3,20,https://lh3.googleusercontent.com/p/AF1QipMYcG6ZFRorbs_CV4YC6Yujm_zodZCTtjlOqZi9=w458-h240-k-no,16.0,6,2025-05-04T16:08:28.467Z,Comercio
Minimercado Lucho,Tienda de alimentaci贸n,,La Merced 160,+54 249 431-5977,Tandil,Provincia de Buenos Aires,-37.3064548,-59.0885997,4.9,3,,,12,2025-05-04T16:08:29.455Z,Comercio
Autoservicio San Francisco,Tienda de alimentaci贸n,,Palacios 2198,,Tandil,Provincia de Buenos Aires,-37.306165,-59.1027291,4.4,4,https://lh3.googleusercontent.com/gps-cs-s/AC9h4noof0x_o6Wx12VQT7_4NBIgZpq_LKKCPLeaE2OcKQc3cCXwt2TBKWyLy3CbZH0tfaEoNLU4_4og_YAT3TBA-1KOYSxeVOLXh_cRS3abmHx9e1qfl8n951hCRwS8Tkqn75LPxCcL=w408-h306-k-no,16.0,82,2025-05-04T16:08:29.455Z,Comercio
Chacinados El Canalense,Comercio,,Franklin 1056,+54 249 448-0866,Tandil,Provincia de Buenos Aires,-37.3134949,-59.1173904,4.9,9,https://lh3.googleusercontent.com/gps-cs-s/AC9h4nrKhlCBpjL__mBdd3sTbmI6cDWoboE1hgNOtu-9qla7CETaOUdRYcEgQh2X6-wELDJP1dKrpcz4yUWR98L6CyIqpKpccBIAkcaY2p0oVsr213flL70xjnLxBAg3Fg7RU34Yo8c_=w426-h240-k-no,9.0,52,2025-05-04T16:08:29.456Z,Comercio
Supertodo El Rodo,Supermercado,,Palacios 1720,+54 249 444-7758,Tandil,Provincia de Buenos Aires,-37.3104661,-59.1083661,4.2,11,https://lh3.googleusercontent.com/p/AF1QipNgiKGXU3XU5hvsB7X66w6ZcKzdWT_aPT5NDZm9=w408-h302-k-no,3.0,140,2025-05-04T16:08:29.456Z,Comercio
Distribuidora Espora Srl,Comercio,https://distribuidoraespora.com/,Colectora Sur J. C. Pugliese 1190,+54 249 442-4740,Tandil,Provincia de Buenos Aires,-37.310368,-59.116435,4.8,12,https://lh3.googleusercontent.com/gps-cs-s/AC9h4nq79lALs24OJOyLixks6yG0OpKBc-FHTZYTTAqGDFlRPZuYSFD-_X3-k1vIDrhEwjaNAsNCTRV2XjFltIIAQ7Fqhpbboi4dwZJPNJyf2H8KdL0mnWFLEOa-nKorb-CNsUjS0MBh=w408-h306-k-no,10.0,32,2025-05-04T16:08:29.456Z,Comercio
ok!,Tienda de alimentaci贸n,,Independencia 2145,,Tandil,Provincia de Buenos Aires,-37.2934122,-59.1166289,5.0,13,https://streetviewpixels-pa.googleapis.com/v1/thumbnail?panoid=_cneMeMQ_bVIKx7bPHCBVA&cb_client=search.gws-prod.gps&w=408&h=240&yaw=22.81127&pitch=0&thumbfov=100,1.0,1,2025-05-04T16:08:29.456Z,Comercio
Storti Maquinarias,Comercio,,Colectora Pugliese sur 1308,+54 249 454-2867,Tandil,Provincia de Buenos Aires,-37.3095079,-59.1174986,4.6,14,https://lh3.googleusercontent.com/p/AF1QipN34u8yI91ZxyouPlO5aXJLm4ynIu8hm7Br13Jy=w408-h883-k-no,4.0,7,2025-05-04T16:08:29.456Z,Comercio
Alta Temperatura Tandil,Comercio,https://altatemperaturatandil.com/,Colectora Sur J. C. Pugliese 1042,+54 249 465-7277,Tandil,Provincia de Buenos Aires,-37.3112834,-59.1151645,5.0,15,https://lh3.googleusercontent.com/p/AF1QipOGplHEJl0_cs3HyZMWfm6LZnSAfiuIrEf7V-OJ=w408-h541-k-no,118.0,26,2025-05-04T16:08:29.456Z,Comercio
Chino,Tienda de alimentaci贸n,,Av. Monse帽or Actis 2212,,Tandil,Provincia de Buenos Aires,-37.3041651,-59.1049988,,16,https://streetviewpixels-pa.googleapis.com/v1/thumbnail?panoid=gh_RdKoyY5k5Q6S6049urA&cb_client=search.gws-prod.gps&w=408&h=240&yaw=306.8094&pitch=0&thumbfov=100,1.0,0,2025-05-04T16:08:29.456Z,Comercio
"Diet茅tica ""Abuela Erna""",Tienda de alimentos naturales,,Av. Monse帽or Actis 1777,,Tandil,Provincia de Buenos Aires,-37.3085595,-59.1098816,4.7,17,https://streetviewpixels-pa.googleapis.com/v1/thumbnail?panoid=Lil2cf_rdBp7RLUvQG8ZjA&cb_client=search.gws-prod.gps&w=408&h=240&yaw=118.340904&pitch=0&thumbfov=100,1.0,45,2025-05-04T16:08:29.456Z,Comercio
Bien Nuestro regaleria criolla,Cuchiller铆a,http://www.biennuestro.com.ar/,Av. Monse帽or Actis 1551,+54 249 443-2342,Tandil,Provincia de Buenos Aires,-37.3103588,-59.112158,4.9,18,https://lh3.googleusercontent.com/p/AF1QipNrs--r0Dwk1XkK6Sd3rl9Y1Y_fquijMrEM2wfH=w461-h240-k-no,93.0,19,2025-05-04T16:08:29.456Z,Comercio
Asia supermercado,Supermercado,,Ijurco 2802,,Tandil,Provincia de Buenos Aires,-37.2935343,-59.1142938,5.0,19,https://streetviewpixels-pa.googleapis.com/v1/thumbnail?panoid=5ms7COkjHcyBastyEvGmBw&cb_client=search.gws-prod.gps&w=408&h=240&yaw=143.91153&pitch=0&thumbfov=100,1.0,1,2025-05-04T16:08:29.456Z,Comercio
Multirrubro,Tienda de alimentaci贸n,,Aeronautica Argentina 2198-2100,,Tandil,Provincia de Buenos Aires,-37.2916467,-59.1212689,4.1,20,https://lh3.googleusercontent.com/gps-cs-s/AC9h4noIwOjELh_gMdUkd5E-D1gh1ggUsh2ZKqvMIInnQeUvk4jrlY045ga78GisaGSV3QNqemhzPwjxgD7G-QjI41WKhFEKdqc5eX9uewULfcUc67v_EOeCnyA5z2AoKPez_TWkX2QGdQ=w408-h723-k-no,6.0,20,2025-05-04T16:08:29.456Z,Comercio
Cantaba la rana,Tienda de ropa infantil,,C. Juan XXIII 538,+54 249 464-2378,Tandil,Provincia de Buenos Aires,-37.3396953,-59.1132961,3.0,22,https://streetviewpixels-pa.googleapis.com/v1/thumbnail?panoid=loyt1STbXffQuWe0leRkIw&cb_client=search.gws-prod.gps&w=408&h=240&yaw=310.30573&pitch=0&thumbfov=100,1.0,1,2025-05-04T16:08:30.015Z,Comercio
Panaderia,Panader铆a,,Pasaje Terni 552,,,Provincia de Buenos Aires,-37.3393899,-59.1124781,,23,,,0,2025-05-04T16:08:30.015Z,Comercio
"TXOKO, LUGAR DE ENCUENTRO",Cafeter铆a,,C. John Lennon,+54 249 463-4726,,Provincia de Buenos Aires,-37.341173,-59.1136737,5.0,24,https://lh3.googleusercontent.com/p/AF1QipOtnUTf6eBnXEJQegZMPxOfyZfpTJP9FpqLUG6I=w426-h240-k-no,8.0,4,2025-05-04T16:08:30.015Z,Comercio
Fruteria & Verduler铆a El Pocho,Tienda de alimentaci贸n,,Av. Monse帽or Actis 2037,,Tandil,Provincia de Buenos Aires,-37.3059773,-59.1067077,,27,https://streetviewpixels-pa.googleapis.com/v1/thumbnail?panoid=7jOcQ_Eavq67RyMvAmtXkg&cb_client=search.gws-prod.gps&w=408&h=240&yaw=135.02606&pitch=0&thumbfov=100,1.0,0,2025-05-04T16:08:30.241Z,Comercio
Carlos Rub茅n Galeano contrucci贸n de piletas de ormigon,Cuchiller铆a,,San Francisco 973,+54 249 427-4288,Tandil,Provincia de Buenos Aires,-37.3046015,-59.1045942,2.0,28,https://lh3.googleusercontent.com/p/AF1QipPZDhFDHTagHkEGSvDV1uUJB9e-QN-0HmH-dmX3=w426-h240-k-no,12.0,1,2025-05-04T16:08:30.241Z,Comercio
EL ECONOMICO ABERTURAS,,,Independencia 660,+54 249 451-6552,Tandil,Provincia de Buenos Aires,-37.3066142,-59.1000352,5.0,29,https://lh3.googleusercontent.com/gps-cs-s/AC9h4nplwGVXsmbZhrvK4FG2Ublhkylv-pGP53Avs-ESfbkcYwGXGt2aFU6wQvT8D_hDwfgK0L8wYBU-MPWFdg34Z5O1eulg1NBQVKyGCtduzQKjDMocKn_Bsw16wS6VSVmIXLCjXVJc=w452-h240-k-no,4.0,4,2025-05-04T16:08:30.242Z,Comercio
Estribos Tandil,Tienda de materiales para la construcci贸n,https://www.instagram.com/estribostandil?igsh=amowbW5ncXU5d2di,2280,+54 249 446-7687,Tandil,Provincia de Buenos Aires,-37.3037187,-59.1039751,,30,https://lh3.googleusercontent.com/p/AF1QipNLB8LSRKFsrMhu_oq5FWZvnVmTK3U8B84br4yg=w408-h326-k-no,12.0,0,2025-05-04T16:08:30.242Z,Comercio
Libreria Actis,Librer铆a,https://www.facebook.com/Actis-Librer%C3%ADa-y-papeler%C3%ADa-375639539752462/,Av. Monse帽or Actis 2295,+54 249 421-7402,Tandil,Provincia de Buenos Aires,-37.3035129,-59.1039192,5.0,31,https://lh3.googleusercontent.com/gps-cs-s/AC9h4nobKFsl9-DYjDIwm7lTXdjweyFZUsff05C7tsKatkPmDwoOEByqCrl8FXRPaOCLsJebbzDOmXsTtJjKqDG9tpYR_P0SGDgPktiPF8olbpiwRZGpFKmWZU4-TCEu1n0T-wCPULjk=w426-h240-k-no,6.0,5,2025-05-04T16:08:30.242Z,Comercio
Materiales Serranos,Tienda de materiales para la construcci贸n,,Newton 2365,+54 249 468-0200,Tandil,Provincia de Buenos Aires,-37.3018081,-59.103869,4.7,32,https://lh3.googleusercontent.com/p/AF1QipMqgZQCZiADlc8Ug9gkau3YQCnXtYh1AVtXJub2=w408-h306-k-no,130.0,12,2025-05-04T16:08:30.242Z,Comercio
Muebleria j.h,Tienda de muebles,,Palacios 2228,+54 249 424-1379,Tandil,Provincia de Buenos Aires,-37.3059185,-59.102436,,33,https://lh3.googleusercontent.com/p/AF1QipOtsQf5KoXIX3nSJAbq5l8TaPWwvDjLkWQ3mPcl=w408-h408-k-no,9.0,0,2025-05-04T16:08:30.242Z,Comercio
ZIPA BABY & KIDS,Tienda de art铆culos para beb茅s,http://www.zipababykids.com.ar/,S. Sombra 2745,+54 249 434-5075,Tandil,Provincia de Buenos Aires,-37.3049344,-59.0918453,,34,https://lh3.googleusercontent.com/gps-cs-s/AC9h4npTjTlNwdpFPwr4L5o3v3KIXUQWhJos0XDOnJhN0RQdvbFUR2OrZ-qAGp6ZQbDtnBPGjkjJKw2RoClToXEU_MW_PwgookCD8xaRi2Y1sJvZK9GI_Yb3tljmxgVmmEf57YHnhWU=w408-h723-k-no,31.0,0,2025-05-04T16:08:30.242Z,Comercio
l milagro,Tienda de alimentaci贸n,,Las Calas 2535,,Tandil,Provincia de Buenos Aires,-37.3185786,-59.1948044,,2,,,0,2025-05-04T16:08:31.452Z,Comercio
Autoservicio DEL CERRO,Supermercado,,J. Bisogni 2487,,Tandil,Provincia de Buenos Aires,-37.3175381,-59.1969675,,5,,,0,2025-05-04T16:08:31.452Z,Comercio
Mercado La Movediza,Tienda general,,Los Jazmines 2052,+54 249 454-9621,Tandil,Provincia de Buenos Aires,-37.3092138,-59.1786193,4.7,8,https://lh3.googleusercontent.com/p/AF1QipOqhpCRpe_YmqtnH6NKXPiho023xLVxH6VMEibm=w426-h240-k-no,4.0,13,2025-05-04T16:08:31.452Z,Comercio
Almacen La Palmas,Supermercado,,Av. Juan B. Justo 1393,,Tandil,Provincia de Buenos Aires,-37.3248815,-59.1712629,4.1,11,https://lh3.googleusercontent.com/gps-cs-s/AC9h4npWs5pusWh2ojBbYYeVd1HvajBriy3RnrINpugTnUgBnDlTg_1uPrm3m1w3wzB6qy-GcIPSL6UoiUg83t4ynXHggNAznywRVeubD6fUWDSz9btl1RLViGTcKaf34WMVif7fzf6YPA=w408-h884-k-no,5.0,33,2025-05-04T16:08:31.452Z,Comercio
La Sole,Supermercado,,Salta 1867,,Tandil,Provincia de Buenos Aires,-37.3082877,-59.1790731,5.0,12,https://streetviewpixels-pa.googleapis.com/v1/thumbnail?panoid=A0eMsa_brRPagcccmEzMww&cb_client=search.gws-prod.gps&w=408&h=240&yaw=248.24716&pitch=0&thumbfov=100,1.0,5,2025-05-04T16:08:31.452Z,Comercio
Avicola Martin,Tienda de alimentaci贸n,,Las Amapolas 1960,+54 249 462-7070,Tandil,Provincia de Buenos Aires,-37.3129452,-59.1801734,4.1,13,https://lh3.googleusercontent.com/gps-cs-s/AC9h4npQWsCdRMwCJie9yZxdR-gifUiR1y9qvomT8d56jcrjplgW8E0hSjzU9TTaHdpNjAR-varIVLMSQFPMy5PRg6DQQ8QUFVLLiOSaKPDb5Q_ZzTqtOSGlhpDw3S3rEWJYsvPHTP8=w408-h725-k-no,5.0,7,2025-05-04T16:08:31.452Z,Comercio
GastroLobos,Comercio,,Av. Lunghi 2242,,Tandil,Provincia de Buenos Aires,-37.3001875,-59.1711552,,14,https://streetviewpixels-pa.googleapis.com/v1/thumbnail?panoid=zdG93cNqId3BtzZXobYe-g&cb_client=search.gws-prod.gps&w=408&h=240&yaw=217.91841&pitch=0&thumbfov=100,1.0,0,2025-05-04T16:08:31.452Z,Comercio
SABAS,Tienda general,,Av. Monse帽or D Andrea 325,,Tandil,Provincia de Buenos Aires,-37.3276116,-59.1521317,4.3,16,https://lh3.googleusercontent.com/gps-cs-s/AC9h4noDYJONPfsFmGiYeONmU-hRey16BcgylOJGFAUxcg3e-ulpfsYe6XDjA59tx1mf4WHU2NAKcoc2h4X0tl6Z5xL8LidncJu--7601DzXRyjnTKx5J_GJuoUrNYfxQd7kXa5iLR19=w408-h723-k-no,28.0,3,2025-05-04T16:08:31.453Z,Comercio
Autoservicio Aguilera,Tienda general,,Cnel. j. Aguilera,+54 249 462-2562,Tandil,Provincia de Buenos Aires,-37.3249204,-59.1677744,,17,https://lh3.googleusercontent.com/gps-cs-s/AC9h4noWqR4GMEkLWTGO5C_JRT2c7jaQlfcMptkQR8BIHZ8zqRY_at_bMVzgqckCf-VEUrzp6n_n_KxHwbIvHZJRY3KiTWjjcBFOeCox0cTlY7BnnxSCfrvthuQKDS4RcwpsYFkPzE4Db1C4aKU-=w408-h906-k-no,1.0,0,2025-05-04T16:08:31.453Z,Comercio
El Rebajon,Supermercado,,La Pastora 1111,+54 249 455-6406,Tandil,Provincia de Buenos Aires,-37.3104972,-59.1742147,5.0,18,https://lh3.googleusercontent.com/p/AF1QipP_OJBVbSYdUkUNbUHRfzl1LtO0-Dbdq6pL9KA=w408-h725-k-no,4.0,4,2025-05-04T16:08:31.453Z,Comercio
Insumos para sublimar,Comercio,,Margarita Galfre 1966,+54 249 430-7549,Tandil,Provincia de Buenos Aires,-37.305587,-59.1714396,5.0,19,https://lh3.googleusercontent.com/p/AF1QipOeN8GEqtJHxlrXnoiptAsFIfcIBpPEgafyHZTv=w408-h725-k-no,25.0,6,2025-05-04T16:08:31.453Z,Comercio
Mercado 4 Soles,Tienda general,,Sta. Cruz,,Tandil,Provincia de Buenos Aires,-37.3055526,-59.1733564,,20,,,0,2025-05-04T16:08:31.453Z,Comercio
Kiosco del Le贸n,Kiosco,,C. Arroyo Seco 00,,Tandil,Provincia de Buenos Aires,-37.3225456,-59.0812531,5.0,3,https://lh3.googleusercontent.com/p/AF1QipNIkG4NnzXcS5i47AyDNZIRCicPuyz2w6iZMHaD=w408-h725-k-no,1.0,1,2025-05-04T16:08:33.950Z,Comercio
Lex Indumentaria Ecuestre,Comercio,,Av. Falucho,,Tandil,Provincia de Buenos Aires,-37.3200256,-59.1059878,5.0,6,https://streetviewpixels-pa.googleapis.com/v1/thumbnail?panoid=eL-SA6OfEz_V-o2THdFhbw&cb_client=search.gws-prod.gps&w=408&h=240&yaw=223.88643&pitch=0&thumbfov=100,1.0,1,2025-05-04T16:08:33.950Z,Comercio
Ana Maria Fernandez,Comercio,,Liniers 136,+54 249 442-3345,Tandil,Provincia de Buenos Aires,-37.3223817,-59.1074738,5.0,7,https://streetviewpixels-pa.googleapis.com/v1/thumbnail?panoid=ldYtqbWlJ9hRfM1gDI912Q&cb_client=search.gws-prod.gps&w=408&h=240&yaw=31.394987&pitch=0&thumbfov=100,1.0,1,2025-05-04T16:08:33.950Z,Comercio
Alea y C铆a S.A. - Suc. Tandil,Mercado de productos agr铆colas,http://www.aleaycia.com/,Primera Junta 243 Oficina 5,+54 9 249 421-4349,Tandil,Provincia de Buenos Aires,-37.3204631,-59.1075096,4.7,8,https://lh3.googleusercontent.com/p/AF1QipMRoBaYurDGJujcJxzE5JqyvaQCy0oPOWrTEUCF=w408-h306-k-no,4.0,12,2025-05-04T16:08:33.950Z,Comercio
Talabarter铆a El Gallego,Comercio,,Av. Falucho 1303,+54 249 444-8823,Tandil,Provincia de Buenos Aires,-37.3200275,-59.1057103,4.5,10,https://streetviewpixels-pa.googleapis.com/v1/thumbnail?panoid=MoM1S0_wJNPal_KB2B3p0w&cb_client=search.gws-prod.gps&w=408&h=240&yaw=145.82353&pitch=0&thumbfov=100,1.0,25,2025-05-04T16:08:33.950Z,Comercio
Torneria Eli-ezer,Comercio,,Darragueira 94,,Tandil,Provincia de Buenos Aires,-37.3183331,-59.1013787,,13,https://streetviewpixels-pa.googleapis.com/v1/thumbnail?panoid=I0zOPW_dPwJTguTP6zF2AA&cb_client=search.gws-prod.gps&w=408&h=240&yaw=221.29565&pitch=0&thumbfov=100,1.0,0,2025-05-04T16:08:33.950Z,Comercio
Despensa Las Acacias,Tienda de alimentaci贸n,,Las Acacias 32,,Tandil,Provincia de Buenos Aires,-37.3157491,-59.094904,4.2,14,https://streetviewpixels-pa.googleapis.com/v1/thumbnail?panoid=AMuhiT0o2zj5ELpPwcHETw&cb_client=search.gws-prod.gps&w=408&h=240&yaw=55.790096&pitch=0&thumbfov=100,1.0,21,2025-05-04T16:08:33.950Z,Comercio
"""EL GAUCHO"" MAYORISTA Y MINORISTA",Tienda de alimentaci贸n,https://www.facebook.com/profile.php?id=100073810730579,S. Sombra 1585,+54 249 402-1384,Tandil,Provincia de Buenos Aires,-37.3157275,-59.1048892,4.6,15,https://lh3.googleusercontent.com/p/AF1QipPLHYXdaqE2Oz0WNa6FUjWIHWgf285MXHplgjCq=w408-h408-k-no,13.0,34,2025-05-04T16:08:33.950Z,Comercio
TiendaCHIC,Tienda de ropa de mujer,,C. los Fresnos,,Tandil,Provincia de Buenos Aires,-37.3239163,-59.0920407,5.0,16,,,4,2025-05-04T16:08:33.950Z,Comercio
maderera San Jorge,Comercio,,Canada 1398,+54 249 449-9390,Tandil,Provincia de Buenos Aires,-37.317398,-59.1072886,4.5,17,https://lh3.googleusercontent.com/p/AF1QipMtk6CixoFdmpdt6UM_kcMrJn8uwOgPH17RFbjb=w408-h306-k-no,11.0,30,2025-05-04T16:08:33.951Z,Comercio
Eraiki,Comercio,https://www.instagram.com/eraikitandil?igsh=MXJ1d3Q3bjIwa2lhdw==&utm_source=qr,Colectora Pugliese 604,+54 9 249 428-8444,Tandil,Provincia de Buenos Aires,-37.315547,-59.1099017,,20,https://lh3.googleusercontent.com/p/AF1QipOx8q0zI44gNQiW2JwH3Vlgr6rc1Av-QCt8f5F3=w408-h544-k-no,25.0,0,2025-05-04T16:08:33.951Z,Comercio
Minimercado san Jose,Tienda de alimentaci贸n,,Av. Falucho 797,,Tandil,Provincia de Buenos Aires,-37.3246314,-59.1118722,4.8,6,https://streetviewpixels-pa.googleapis.com/v1/thumbnail?panoid=kLX7E-tf2C5QWQLDDAdeLg&cb_client=search.gws-prod.gps&w=408&h=240&yaw=321.71225&pitch=0&thumbfov=100,1.0,4,2025-05-04T16:08:35.055Z,Comercio
Lo de sara,Tienda de alimentaci贸n,,Av. Falucho 1045b,+54 249 465-0488,Tandil,Provincia de Buenos Aires,-37.3224959,-59.1086857,4.5,11,https://lh3.googleusercontent.com/gps-cs-s/AC9h4nr58pcWe_epko829zNrM49KqTX9Dut9Xifegw1SR-98HALNHPj2alOsKazEpzebIQq-mefH_cjPm3Hr0dxSqXyk8IXVDt1yaDG74dhqHbMVdVzwBwHy6M8dDxXmhFVSo4t9MwIE=w408-h725-k-no,7.0,33,2025-05-04T16:08:35.056Z,Comercio
Negro Mercado,Cafeter铆a,,Juan C. Ariztegui 1216,,Tandil,Provincia de Buenos Aires,-37.329748,-59.0953389,4.2,15,https://lh3.googleusercontent.com/gps-cs-s/AC9h4nq7Jyywx7Ild_MaQsDflZpoa2TTKPclX_NapD6Z972sqrZH9r1FjXzQd-adz_Az77aIOQ-Hq-KZjfV-yORnEe4ya-9R2IZqoQXX6mMrVr0XnFSkEBuTuITmmqw-Ba-1ml2nUTURAg=w408-h544-k-no,75.0,37,2025-05-04T16:08:35.056Z,Comercio
HyF Distribuciones,Comercio,http://www.hyfdistribuciones.com.ar/,Colectora Sur J. C. Pugliese 209,+54 249 402-9602,Tandil,Provincia de Buenos Aires,-37.3229871,-59.1001416,4.9,16,https://lh3.googleusercontent.com/p/AF1QipP7uG1Uw8bgftA_q0KDLAXehVp_o-TG0p4OqS6E=w408-h263-k-no,11.0,22,2025-05-04T16:08:35.056Z,Comercio
Ohana,Fruter铆a,,Av. Falucho 808,,Tandil,Provincia de Buenos Aires,-37.3243649,-59.1117506,,18,https://lh3.googleusercontent.com/gps-cs-s/AC9h4no4dO0ryVHVGhQulOIv4KkuBHQiwfLvB-vfulQSoonMpJK6sDphSJ-InoYiA-xxOFU-zP6rwO5izonPvd2h9QucEp9eEPur-YLAkAM-ceCPb9t53aY8e1BL7S62VO3XDTmP4qJ6=w532-h240-k-no,8.0,0,2025-05-04T16:08:35.056Z,Comercio
La gringa tandil,Tienda de alimentaci贸n,,"SALUSTIANO, Rivas 870",+54 249 424-7201,Tandil,Provincia de Buenos Aires,-37.3250353,-59.1100561,4.5,19,https://lh3.googleusercontent.com/gps-cs-s/AC9h4nozLWizOSCzrLgDCGBCz4ra0GbUqR92wc7L6n2FAAl_kqhy6BXjclU9G5UUlG1TEYqYTPUDgc2GFgAhfpC-f1wtm3ZFzP5jtQPEokXNMoALeAD2w6ExRypAwuU1oO-iP7cnaI8ADw=w408-h306-k-no,9.0,6,2025-05-04T16:08:35.056Z,Comercio
CURI CURA,Tienda de alimentos naturales,,base cerro centinela,,Tandil,Provincia de Buenos Aires,-37.3558333,-59.1722222,4.0,10,https://lh3.googleusercontent.com/gps-cs-s/AC9h4nq_33RJm2bwnROq6yN2sNfd3dBVcRv9d-Iv8-gD7aHwqsiqwTEjyXBIQLb7Dt9jUeTy7C82FnyQa2-ExWmQJNklm_UTh0anUSovYzItxeSRbkfZg0REw9L47AFgCGWSrMFkSPdHJA=w408-h306-k-no,8.0,3,2025-05-04T16:08:35.764Z,Comercio
Multirubro Piscis ,Tienda general,,O'higgins 282,,Tandil,Provincia de Buenos Aires,-37.3312407,-59.1491376,,13,https://lh3.googleusercontent.com/gps-cs-s/AC9h4nr17oIQryRTTrfrTK9WmvGnlpb58sr_S2AoyyMLagfkFwocUhB8iflog10ncDhKQdHacWvDz7-v6z6nOkmJnf7s_MhW0Kiafuf_XOUmp0Y1uhKrmo9go7ZSAAdUQsm3u_BfMAk57g=w408-h287-k-no,2.0,0,2025-05-04T16:08:35.764Z,Comercio
Minimercado Cristy,Supermercado,,Paraguay 260,,Tandil,Provincia de Buenos Aires,-37.3298198,-59.1495107,5.0,14,https://streetviewpixels-pa.googleapis.com/v1/thumbnail?panoid=LGSP6mtIAzDKnU2PRDXWDg&cb_client=search.gws-prod.gps&w=408&h=240&yaw=181.406&pitch=0&thumbfov=100,1.0,6,2025-05-04T16:08:35.764Z,Comercio
Almendras,Tienda de postres,,San Lorenzo 313,+54 249 442-1862,Tandil,Provincia de Buenos Aires,-37.3319843,-59.1399051,4.8,15,https://streetviewpixels-pa.googleapis.com/v1/thumbnail?panoid=mk5Dh3PrS9XyL3T1QewREg&cb_client=search.gws-prod.gps&w=408&h=240&yaw=39.83132&pitch=0&thumbfov=100,1.0,5,2025-05-04T16:08:35.764Z,Comercio
Hipermercado,Tienda de alimentaci贸n,,Panam谩 351,+54 11 6894-1850,Tandil,Provincia de Buenos Aires,-37.3238688,-59.1144356,,30,https://streetviewpixels-pa.googleapis.com/v1/thumbnail?panoid=h-alHAX9ZtKqczIrplImzA&cb_client=search.gws-prod.gps&w=408&h=240&yaw=50.097515&pitch=0&thumbfov=100,1.0,0,2025-05-04T16:08:37.547Z,Comercio
Av铆cola LyM,Comercio,,,+54 249 433-6441,Tandil,Provincia de Buenos Aires,-37.3250834,-59.1120712,,31,https://lh3.googleusercontent.com/p/AF1QipO1jLNtTEomh6PpX-yW6y_A7FWF-nJ5QBVYYVA=w408-h544-k-no,7.0,0,2025-05-04T16:08:37.547Z,Comercio
Avico,Tienda de alimentaci贸n,,Av. Falucho 798,,Tandil,Provincia de Buenos Aires,-37.3246317,-59.1116953,,37,https://streetviewpixels-pa.googleapis.com/v1/thumbnail?panoid=R9V-HKXBs_uvy0Iz12J6-A&cb_client=search.gws-prod.gps&w=408&h=240&yaw=44.437325&pitch=0&thumbfov=100,1.0,0,2025-05-04T16:08:37.547Z,Comercio
Mandale Fruta,Fruter铆a,https://www.facebook.com/mandale.fruta.986,Av. Falucho 789,+54 249 432-0215,Tandil,Provincia de Buenos Aires,-37.3248589,-59.1117618,4.1,42,https://lh3.googleusercontent.com/gps-cs-s/AC9h4nqTvKnI9EdH5fGtUmb09V28ugvHs5cgcw_L3J3jnhszoy0XBdyaWAcctVvNYbZT47kuiy74H45VbP5EK1xBQ1Iwtte9PV3Uj804wUrKJAeJVsW7XB0yjxw9UPJLddg0kuABF6Fc=w426-h240-k-no,57.0,11,2025-05-04T16:08:38.318Z,Comercio
Drugstore del Paseo,Kiosco,https://www.instagram.com/drugstoredelpaseo/,Av. Brasil 184 Local 3,,Tandil,Provincia de Buenos Aires,-37.328752,-59.112996,4.1,45,https://lh3.googleusercontent.com/gps-cs-s/AC9h4nroakAU76PWhg1NUdOrV2DljqPgdXzoHTFQMXusF2MZsgtZiPZyEvCn-HsYN65aQSND9IOwJnOkajSC7wQceBic0IcQcaPYFJCVQJEogI8FURbwblr8yWEEdDUnot33m0G2Z-t9-g=w408-h544-k-no,8.0,14,2025-05-04T16:08:38.318Z,Comercio
Campo & Asociados,Mercado de productos agr铆colas,http://www.campoyasociados.com.ar/,Av. Falucho 865,+54 249 443-2071,Tandil,Provincia de Buenos Aires,-37.3241735,-59.1108652,4.5,46,https://lh3.googleusercontent.com/p/AF1QipO-Cars8m8EvQCW1-PmGQ1N7O30_JkIXsebx0pw=w408-h271-k-no,8.0,22,2025-05-04T16:08:38.318Z,Comercio
Carrefour Hipermercado Tandil I,Hipermercado,https://www.carrefour.com.ar/,Panam谩 351,+54 11 6894-1850,Tandil,Provincia de Buenos Aires,-37.3240224,-59.1144571,4.1,47,https://lh3.googleusercontent.com/gps-cs-s/AC9h4nrMxjuzxMO5U_jML2my0xjq3adXmMXAGgvOA47rIGOVLJCsFvZHPQTcWkRjNHgzUhGiue571L1SffjaBJI2aZHA7XdDqmOrfTkwTzycvquJhZOqTt40WXTyBQwmUJ54UMptxeaSXw=w408-h306-k-no,3460.0,8037,2025-05-04T16:08:38.318Z,Comercio
TUPPERWARE en TANDIL ~ Laura,Tienda de art铆culos para el hogar,https://www.facebook.com/tupperwaretandil/,Nicaragua,+54 9 249 456-1470,Tandil,Provincia de Buenos Aires,-37.3257137,-59.114861,4.6,48,https://lh3.googleusercontent.com/p/AF1QipP4x4VmAROMZHdc3nFVd3DSUWKkuRyYqEoFUc_q=w408-h544-k-no,24.0,17,2025-05-04T16:08:38.318Z,Comercio
Artistica Claudina,Centro art铆stico,,Venezuela 121,+54 249 437-0326,Tandil,Provincia de Buenos Aires,-37.3245676,-59.1094929,4.6,49,https://lh3.googleusercontent.com/gps-cs-s/AC9h4npSkBupC3BvWGVFAblkmF2ZkrGKnOWgEj7hZpYM4K-7DEWe4QzqsuPFNpPl7u_jw8cudB52ph70FsybQGCpUN4ibY3oxgZZTAGZvFA0C4O-JHWycViQtSug0IxWmnhjt6nqEyIi=w408-h725-k-no,9.0,58,2025-05-04T16:08:38.318Z,Comercio
Tandiet,Tienda de alimentos naturales,,Parana 351 local 10,+54 249 451-6507,Tandil,Provincia de Buenos Aires,-37.323954,-59.1144866,3.5,50,https://lh3.googleusercontent.com/p/AF1QipOfwf88SMd-_97bMdJNfAvwAxk6VektEttmwgzb=w426-h240-k-no,15.0,2,2025-05-04T16:08:38.318Z,Comercio
Topo's Agroestudio,Mercado de productos agr铆colas,,Av. Falucho 1010,+54 249 443-2517,Tandil,Provincia de Buenos Aires,-37.3225484,-59.1094025,1.7,51,https://lh3.googleusercontent.com/gps-proxy/ALd4DhEtPmU6we8LYu40R8nPxuDLvXzPeKT4z1Q_RwbqVyjnWDMX4QfEoflsOyEdcgLzIPcZv6BJg0XCSq28U5B39ff2BddM1JDexgUk10s1wWxr6XaIk-CCNDyZeIS0fK8W6zDbVozqBnURsIY4MkeANuqspakP9BrdPZ2S_3ebvlPdR9uOBJew1sRldzdxBVX612D-Anw=w408-h306-k-no,2.0,3,2025-05-04T16:08:38.318Z,Comercio
El Logro,Fruter铆a,,Av. Falucho 493,,Tandil,Provincia de Buenos Aires,-37.3248137,-59.1116924,4.8,52,https://streetviewpixels-pa.googleapis.com/v1/thumbnail?panoid=kLX7E-tf2C5QWQLDDAdeLg&cb_client=search.gws-prod.gps&w=408&h=240&yaw=142.03331&pitch=0&thumbfov=100,1.0,5,2025-05-04T16:08:38.319Z,Comercio
Requeterico,Cafeter铆a,,Av. Brasil 293,+54 249 425-2023,Tandil,Provincia de Buenos Aires,-37.3304423,-59.1127276,4.1,53,https://lh3.googleusercontent.com/gps-cs-s/AC9h4nrJgSL8hfvoPvITMRzEjJ89-_TdkY2nqzzeczVR8kHrjjrIP07Im-zvZdQExvotLX-x-ACL95EjuvdoTHXja58twPY6lWLq44tFq_55ReXLN7Uwbr3a3EMxIx3eYR9qbO0JtT8LLA=w408-h306-k-no,141.0,29,2025-05-04T16:08:38.319Z,Comercio
Shell,Gasolinera,https://find.shell.com/ar/fuel/10129225-santillan-omar-horacio-y-casares-alicia/es_AR,Avenida Avellaneda Brasil,+54 249 442-2184,Tandil,Provincia de Buenos Aires,-37.3272204,-59.1146533,4.0,54,https://lh3.googleusercontent.com/gps-cs-s/AC9h4nrmlS4cg0YL0YckNEZZo7lrDPxDM9l0H87JmzoE5x8EggmdTWNiAWe97kOUjpYgbSecYeBzsbSt8jf4HWsOzkmRlkeZplhTb7U6BpFIUeM628CD0auqDk0umBG6MV_tsd-17y9F=w426-h240-k-no,16.0,299,2025-05-04T16:08:38.319Z,Comercio
Aromas Caseros,Panader铆a,,Pozos 502,,Tandil,Provincia de Buenos Aires,-37.3289786,-59.1125952,4.8,55,https://lh3.googleusercontent.com/gps-cs-s/AC9h4npa5JVQdKBSmEVDH5FLAbkwnsvOe_5-lF3-D_ONMajEBHBb-tvfCNlKtcJ0FlLMCILztHI4g6Ua4e674P0N3bnWQnei8psBbmdeQWIUuGAVEMvdIvkLwrxQGRu0a1zpWxOyJnY1=w408-h544-k-no,3.0,23,2025-05-04T16:08:38.319Z,Comercio
Todomoda,Tienda de accesorios de moda,https://ar.todomoda.com/,"Carrefour, Panam谩 351 Local 21",,Tandil,Provincia de Buenos Aires,-37.3238525,-59.1145197,4.5,56,https://lh3.googleusercontent.com/p/AF1QipMq50c--beVT6giQeub8tfSM6O7pPhCkFd1NF8o=w418-h240-k-no,8.0,15,2025-05-04T16:08:38.319Z,Comercio
Que Comemos?,Tienda de pasta,,Rosal铆a de Castro 641,+54 249 452-1969,Tandil,Provincia de Buenos Aires,-37.3252993,-59.1145725,4.7,58,https://lh3.googleusercontent.com/p/AF1QipOHKh0OvWfCvRlq4rvZq2pnvIQkjg0vKLvftY_C=w408-h306-k-no,11.0,14,2025-05-04T16:08:38.319Z,Comercio
VER,Tienda de ropa de mujer,http://www.ver.com.ar/,Panam谩 351,,Tandil,Provincia de Buenos Aires,-37.3239995,-59.1144576,4.7,59,https://streetviewpixels-pa.googleapis.com/v1/thumbnail?panoid=SPdvLSZ_skhYXnS55TPM3A&cb_client=search.gws-prod.gps&w=408&h=240&yaw=50.23992&pitch=0&thumbfov=100,1.0,13,2025-05-04T16:08:38.319Z,Comercio
Open Sports (Sucursal Tandil - Carrefour),Tienda de ropa,http://www.opensports.com.ar/,Panam谩 351,+54 249 443-3207,Tandil,Provincia de Buenos Aires,-37.3240558,-59.1145045,3.9,60,https://lh3.googleusercontent.com/gps-cs-s/AC9h4nrUVqEOxJEy19WYMsEwUqUOHLGyAjAxbb5l8UBQ4Kwz6-aZCn7-kZuQgjZpybnHl_ql71aipZixF9QHvDfZYYwztsRgLqMxq___zkQLNhgUlqQtqBXS6F6kN7Yxg_W2AfwZU_8=w426-h240-k-no,16.0,138,2025-05-04T16:08:38.319Z,Comercio
Galp贸n Butik,Tienda de art铆culos para el hogar,https://galponbutik.mitiendanube.com/,Av. Brasil 130,+54 249 464-8837,Tandil,Provincia de Buenos Aires,-37.3283921,-59.1132526,4.7,61,https://lh3.googleusercontent.com/p/AF1QipN6ovRwK5L9leDu70i7_li7C9StdQZcyzYX2_c4=w408-h544-k-no,26.0,35,2025-05-04T16:08:39.172Z,Comercio
Ruca - Quimey,Tienda de animales,,Panam谩 351 Loc. 9,+54 249 435-7902,Gran Buenos Aires,Provincia de Buenos Aires,-37.323705,-59.114034,2.9,62,https://lh3.googleusercontent.com/gps-cs-s/AC9h4npV8GMVLfUBGdZTcSvU5dQPF-vZAh92lQt_pdPCsZU7xpsUY62uqhiPsGNTFADK7WJY6yNEGG7zBR2P0YPmi1nwckkR2GZNKo1jTP285NWeER4OCwNGM02Oberjsw-quHcvkF4=w408-h544-k-no,2.0,20,2025-05-04T16:08:39.172Z,Comercio
LumierebyML,Tienda de ropa,https://instagram.com/lumierebyml,Carriego 567,+54 249 401-4392,Tandil,Provincia de Buenos Aires,-37.334188,-59.1122342,5.0,63,https://streetviewpixels-pa.googleapis.com/v1/thumbnail?panoid=FOVI3zTFlzp4uM7OEYWPOA&cb_client=search.gws-prod.gps&w=408&h=240&yaw=224.017&pitch=0&thumbfov=100,1.0,4,2025-05-04T16:08:39.172Z,Comercio
Floreria y Vivero Crataegus,Florister铆a,,Av. Brasil 85,+54 249 422-1422,Tandil,Provincia de Buenos Aires,-37.3277684,-59.1137405,4.9,64,https://lh3.googleusercontent.com/p/AF1QipMPODHPDUMWNO8_mFCtFE6EhvH6DrxrGitUth7k=w408-h321-k-no,8.0,14,2025-05-04T16:08:39.172Z,Comercio
Caseritos X 2,Tienda de pasta,,Nicaragua 164,+54 249 400-1019,Tandil,Provincia de Buenos Aires,-37.3268739,-59.1136425,3.3,65,https://lh3.googleusercontent.com/p/AF1QipMuBQRpvqG5RqHgNWJtU_6k7g3tKakYNPmWqfE=w408-h408-k-no,8.0,6,2025-05-04T16:08:39.172Z,Comercio
Tienda Hilo Tandil,Zapater铆a,,"Carrefour Buenos Aires AR, Panam谩 351",+54 249 428-1273,HXG,Provincia de Buenos Aires,-37.3268083,-59.1153997,4.1,66,https://lh3.googleusercontent.com/p/AF1QipNcKy4KLNalVjXsGL3vAZk_uXNexgULDv5pyqym=w408-h272-k-no,154.0,18,2025-05-04T16:08:39.172Z,Comercio
Lo de Arellano de Carlos Arellano,Tienda de componentes electr贸nicos,https://www.facebook.com/Lo-de-Arellano-de-Carlos-Arellano-e-Hijos-112678693545216/,Serrano 1650,+54 249 463-1201,Tandil,Provincia de Buenos Aires,-37.3312301,-59.1148695,5.0,67,https://lh3.googleusercontent.com/p/AF1QipNistAmtnVADahjuFk6oICH1uVbT-lB8eryqwSu=w426-h240-k-no,48.0,1,2025-05-04T16:08:39.172Z,Comercio
Tecnos Agronom铆a,Proveedor de semillas,https://www.facebook.com/TecnosAgronomia/,Rosal铆a de Castro 849,+54 249 442-5104,Tandil,Provincia de Buenos Aires,-37.3233879,-59.1122078,4.7,68,https://lh3.googleusercontent.com/p/AF1QipMCn1cTjDBNIOumCUcsmGkVP4QYc9-ZM74IpC2S=w408-h269-k-no,5.0,12,2025-05-04T16:08:39.172Z,Comercio
Aurolimp,Tienda de art铆culos de nataci贸n,https://www.aurolimp.com/,Av. Brasil 583,+54 249 442-7107,Tandil,Provincia de Buenos Aires,-37.3336669,-59.1108043,4.6,69,https://lh3.googleusercontent.com/gps-cs-s/AC9h4nqRG3qeN-xyBvqzlYE6IM0weSpOpv6eFGfQZ6faSgt8H_AT25D1lb_W33uTvOHIWXHvkDNUl-SqXwKEJnk6Wz2UOkNvtmpmn0LE-Sf1R_sHmN0bQTtaEQYYUxP0YrcN45toV5dt=w408-h723-k-no,14.0,95,2025-05-04T16:08:39.172Z,Comercio
Carniceria Julian,Carnicer铆a,,Canada 716,,Tandil,Provincia de Buenos Aires,-37.3235112,-59.1146735,4.6,70,https://lh3.googleusercontent.com/gps-cs-s/AC9h4noCaveePfG1QMshg7XHEERNgsy-UyMl59GdEODsPDIwm8aCBNWGFBA6fieyBsvTe8gRQDx7NiLWMpOcPUKlbJTmPQoqiYjzy0k7OUWXRw3e97uvtMT4HX4jpM6WUoydDqwt-xA=w408-h306-k-no,3.0,36,2025-05-04T16:08:39.172Z,Comercio
Perfumer铆a Yaz Perfum,Perfumer铆a,http://yazperfum.mitiendanube.com/,Barrio 21 de Abril,+54 249 468-2133,Tandil,Provincia de Buenos Aires,-37.3253409,-59.1146726,,71,https://streetviewpixels-pa.googleapis.com/v1/thumbnail?panoid=MnEz_YOJf5epi_i3vzZmRg&cb_client=search.gws-prod.gps&w=408&h=240&yaw=147.96004&pitch=0&thumbfov=100,1.0,0,2025-05-04T16:08:39.172Z,Comercio
Fruteria Todo oca,Fruter铆a,,Pozos 808,+54 249 420-8610,Tandil,Provincia de Buenos Aires,-37.3262651,-59.1093305,4.7,72,https://lh3.googleusercontent.com/gps-cs-s/AC9h4nq-56pRG6QFvsMAStcaEQwBd3J0iOPzdysnv-pzjVxHnvMfSdfE56h9wey1Ya_PnpBBfXvv37dFlEMviLmKLlMDqdPoCcd4UQtDx8_95t6NqczoLadSkxLoLl4jXZikpV80I5RCLA=w426-h240-k-no,149.0,68,2025-05-04T16:08:39.173Z,Comercio
El Sol,Tienda de ropa,,"Carrefour, Panam谩 351",+54 249 443-2342,Tandil,Provincia de Buenos Aires,-37.3236902,-59.1139481,,73,https://lh3.googleusercontent.com/gps-proxy/ALd4DhFmg63f8fJHmzUOgTYPaPh2lKhELYTksTpTjjCGctogn5JNuBn9uJn5a_UWHO3vNIJDMCMuq-HRT1y47xZX-h0fiJzi5S0dl0wt_3DSWRMSdFgyVcfBolyaMoE27zFgBqfG0aFCC4sdwfmcwblnddVekWu79Wp-oCL4BlvZ3kNSafZgH9O_v4nv1JjjpVCF-91tMg=w408-h306-k-no,6.0,0,2025-05-04T16:08:39.173Z,Comercio
Barraca y forrajeria Falucho,Tienda de alimentos para animales,,Av. Falucho 693,+54 249 466-3413,Tandil,Provincia de Buenos Aires,-37.3257235,-59.1128359,4.5,74,https://lh3.googleusercontent.com/gps-cs-s/AC9h4nrDUcEt5_hlYtWCf2vHvNxzsYaa4EeZHIsQbLBo2A36K0lbvnWPdiY5jj8v6wREexn-9G8VEswkl-HV2TJNFjDpkbIvBcYhM3AL5CvD1t7aSfWBERsm2rQM6407PV8snTfK841gdQ=w408-h544-k-no,8.0,54,2025-05-04T16:08:39.173Z,Comercio
Auxilio y remolque GAMA,Concesionario de remolques,,Av. Falucho,+54 249 460-1000,Tandil,Provincia de Buenos Aires,-37.3269032,-59.114323,4.8,75,https://lh3.googleusercontent.com/gps-cs-s/AC9h4nrzfwKbx8qshZrkxiRsrbAgMR7Dsb9gr-jaJeQchds_JmGR3pqdwoYtrs1Ad2Cyw2FEEno_exm4QwlH6_H3ZXbvYc5ofAK_pIVymESB1Ae5lkIHxDnu8YSBYFx1JyYG82EC2Ek=w408-h541-k-no,46.0,40,2025-05-04T16:08:39.173Z,Comercio
RIPSA pagos,Kiosco,,Canada 722,,Tandil,Provincia de Buenos Aires,-37.3234709,-59.1149134,2.7,76,https://streetviewpixels-pa.googleapis.com/v1/thumbnail?panoid=grCF5JkDTsl_fFQuGC8bmw&cb_client=search.gws-prod.gps&w=408&h=240&yaw=321.49045&pitch=0&thumbfov=100,1.0,3,2025-05-04T16:08:39.173Z,Comercio
Ferreter铆a Falucho,Ferreter铆a,,Av. Falucho 807,+54 249 457-0019,Tandil,Provincia de Buenos Aires,-37.3246275,-59.1114755,4.4,77,https://lh3.googleusercontent.com/p/AF1QipP0eeOtTgc8KVWum_GDPaUeho6XVOUJd9OPi4_4=w408-h725-k-no,10.0,77,2025-05-04T16:08:39.173Z,Comercio
La Ferreter铆a,Ferreter铆a,https://laferreteria.store/,Juan C. Ariztegui 1216,+54 249 420-8877,Tandil,Provincia de Buenos Aires,-37.329748,-59.0953389,5.0,78,https://lh3.googleusercontent.com/p/AF1QipPm8OmUuLVbtfu2J4AkvwtiCqNSnvCAkSFzQupz=w408-h305-k-no,33.0,4,2025-05-04T16:08:39.173Z,Comercio
Charmbe Design,Tienda de ropa,,Unnamed Road,+54 249 438-1513,Tandil,Provincia de Buenos Aires,-37.3225926,-59.0996,,79,https://streetviewpixels-pa.googleapis.com/v1/thumbnail?panoid=xzxMhU3YlKRH4wU50Rgi9w&cb_client=search.gws-prod.gps&w=408&h=240&yaw=54.12481&pitch=0&thumbfov=100,1.0,0,2025-05-04T16:08:39.173Z,Comercio
Manjares Express,Cafeter铆a,,Panam谩 353,,Tandil,Provincia de Buenos Aires,-37.3238347,-59.1143652,3.8,80,https://lh3.googleusercontent.com/gps-cs-s/AC9h4nrkFQ-1Mi0xdpuUGaWOKemS69E2R1G9uAa7bzmJM-i5iSyQmNIWAtziahI7JDzmx8VXQLoAiYEVGidyOBJVn7EQCO0MSxnjPyQBDww-WlCCUdm13U983O58dguj756RdGVXyiek=w408-h306-k-no,6.0,37,2025-05-04T16:08:39.173Z,Comercio
Radiadores Franco,Tienda aire acondicionado,,Av. Brasil 64,+54 2244 43-7727,Tandil,Provincia de Buenos Aires,-37.3275963,-59.1138783,5.0,81,https://lh3.googleusercontent.com/gps-cs-s/AC9h4nq7s3Fvnd85bOOA0AR95tUr5-RFS88O35o1KUrxlYMtWRz2Cv--71R8UkNEFXX_FPAWl-lbKWFbJfcya9hzXEuI5ZmZqkzU0R8ZpU-bDP_eu6TOJ7j9tNc8vHS4aWTOfmGNtdA=w408-h544-k-no,2.0,1,2025-05-04T16:08:40.047Z,Comercio
Panader铆a del Sol (Av. Brasil y Fugl),Panader铆a,,Av. Brasil 406,+54 249 422-1330,Tandil,Provincia de Buenos Aires,-37.3318438,-59.1118707,4.3,82,https://lh3.googleusercontent.com/gps-cs-s/AC9h4nq9COH3oIsJHGAPsh2nfwHaFqWVHXOxpMjBtIvK6P0f-zF1n6j0CtUbNv-QK14fT8_QX1ppjlC73ll60iBodPtHvnaOPKUJDkNVceA7OoYJC-6OFoebmR1UDM4NpM4EXCo6BZOTvA=w426-h240-k-no,3.0,292,2025-05-04T16:08:40.047Z,Comercio
Emma del rey,Tienda de ropa,,"dr, Av. Salceda 709",,Tandil,Provincia de Buenos Aires,-37.3247714,-59.1127079,3.8,83,https://lh3.googleusercontent.com/gps-cs-s/AC9h4noDjJnUFgCgcGk50PVsksGtJUaevOhY31R_VkkDycxEznh3LKwprLdLPJWOnccQQXQShmVEKqH-8_qTf70S28g8OVMDWp8FO9hQ-xRReXb-d8KUbyBHM1y0FBZWZcf7QRp9VUcz=w408-h481-k-no,5.0,9,2025-05-04T16:08:40.047Z,Comercio
Floreria La Japonesita,Florister铆a,,Av. Brasil 537,+54 249 438-7446,Tandil,Provincia de Buenos Aires,-37.3333418,-59.110876,4.6,84,https://lh3.googleusercontent.com/gps-proxy/ALd4DhFlkwk8saCca0huLAxR8AvjLePIyuhXEeai8hZzP_p7g-GrJ7EvfYGuU6vmi9Br8A7HqkDNVIUxdjTQlxKXkzW-7S8WSzBykfUC4AC7NO-8cQ8nMqvflDYBlzFoMJRV1LARhmO_q-FZz_aHOlh1mtUjMo0erJBUicjVfMkJmsIPqtsrI0ynDesI2Fs7fGznjXtYltY=w408-h306-k-no,14.0,74,2025-05-04T16:08:40.047Z,Comercio
"Cotillon ""AYWN""",Comercio,,Av. Falucho 821,+54 249 460-3514,Tandil,Provincia de Buenos Aires,-37.3245734,-59.111189,4.0,85,https://lh3.googleusercontent.com/gps-cs-s/AC9h4noo6b1tuvl3JK-_ObxEwpUyC5j1x85rXnqoKzyR3vd3sKxQG_n70zN7X_vQCvzkjgWI_JhP_k-jFG4SiQBawcuEtyZB9JWdCg5NhM-vwb79lzlc72s2TRtlHOtAIUTn4m8GAe5b3g=w426-h240-k-no,8.0,2,2025-05-04T16:08:40.047Z,Comercio
Lubricantes Canning,Tienda de repuestos para autom贸viles,,Av. Falucho 831,+54 249 444-0330,Tandil,Provincia de Buenos Aires,-37.3244259,-59.111227,4.5,86,https://lh3.googleusercontent.com/p/AF1QipP19MZKP0xTsDjtK92TCjJN1HFoVZWvXWqOT69D=w408-h612-k-no,7.0,119,2025-05-04T16:08:40.048Z,Comercio
Salamandras verellen,Tienda de art铆culos para el hogar,http://www.salamandrasverellen.com.ar/,Colectora Sur J. C. Pugliese 51,+54 9 249 459-5007,Tandil,Provincia de Buenos Aires,-37.3223751,-59.1014369,4.7,87,https://lh3.googleusercontent.com/p/AF1QipOfNjCk2tHfrGg7eGFovmwccb0XaWxqXwA5nMhd=w408-h408-k-no,63.0,103,2025-05-04T16:08:40.048Z,Comercio
Floreria LOS AROMOS,Florister铆a,,,+54 249 460-6424,Tandil,Provincia de Buenos Aires,-37.3281442,-59.0929967,4.6,88,https://lh3.googleusercontent.com/gps-cs-s/AC9h4npUvLDmNiYjb5KqWSgyrM7HjVWNIr95TjbN_MtDJAmDAeEWGaTSkxsQsyJf8mhf9Roq6kMnaDJRXzeJc3z9zCMqvHG563ThjpzvmDQ0jO_NVCCnRS-h4RNVBf6jViRnWP_zdUTP=w426-h240-k-no,42.0,157,2025-05-04T16:08:40.048Z,Comercio
ABC libreria,Papeler铆a,https://www.instagram.com/abclibreria.tandil?igsh=azc3bGQ4bnowNm1k,Av. Brasil 90,,Tandil,Provincia de Buenos Aires,-37.3279365,-59.1136907,,89,https://streetviewpixels-pa.googleapis.com/v1/thumbnail?panoid=tYi76y3UYjYkm_rGBV2X3Q&cb_client=search.gws-prod.gps&w=408&h=240&yaw=40.214157&pitch=0&thumbfov=100,1.0,0,2025-05-04T16:08:40.048Z,Comercio
Casa de T茅 Las Acacias,Cafeter铆a,,C. Adolfo Berruti 525,+54 249 425-1888,Tandil,Provincia de Buenos Aires,-37.3347122,-59.1080962,5.0,90,https://lh3.googleusercontent.com/p/AF1QipN5Je5qgJdR4JN9SmvhZAlvLMNPpBKCyBtHdE_e=w408-h510-k-no,19.0,3,2025-05-04T16:08:40.048Z,Comercio
Decoraciones Marino,Tienda de cortinas,http://www.decoracionesmarino.com.ar/,Rivas 545,+54 9 249 428-2549,BGA,Provincia de Buenos Aires,-37.3279253,-59.1130719,4.6,91,https://lh3.googleusercontent.com/gps-proxy/ALd4DhGuOrdzqJK3-QmMrcypFpjglrYhetl4VP1el8AmvHCth1KBBw301oTkWbRtJUyTKcQ3NkZ9g5pEpy-DE6EI7cwsQLtEgTer2wVpKjZhNrfIduhQobohCLorbieLrUGAK2RZG7jLz72M4Ye4QsPqD_piSaBFKznbR3LQ3jItMnynX2Hr-IdDfF-wBPFVgdjp2flExQ=w408-h306-k-no,26.0,41,2025-05-04T16:08:40.048Z,Comercio
Casa Country,Interiorista,,Av. Brasil 184 Local 6,+54 249 442-1588,Tandil,Provincia de Buenos Aires,-37.32877,-59.112899,4.8,92,https://lh3.googleusercontent.com/gps-proxy/ALd4DhF43yRn3xv9o7qzglTpC3Sj_69rBuIW2s8XwJvpXVejvWLG8Tx8VOiehhWQe7QZbarjULErKvRxMKAVbwf8Ljg0r1PM2EJvXolQVIQ5k8doWsvVEtBrCMv3LRgxZ_IGspuHZgaBINp1PxAejGydPhMrGckNDauWptOtdvoSwq2LO9e4lPZOK_PXix4r8H8hrVYWro8=w408-h306-k-no,3.0,6,2025-05-04T16:08:40.048Z,Comercio
Gregui Pisos y Revestimientos,F谩brica,http://www.grupogregui.com.ar/,"JC, Colectora Sur J. C. Pugliese 357 Bis",+54 249 424-1177,Tandil,Provincia de Buenos Aires,-37.3245843,-59.0984662,5.0,93,https://lh3.googleusercontent.com/p/AF1QipPomhbNWrLR4ihzEqa1mIYQPrX_BwMgCcQao4nH=w427-h240-k-no,147.0,166,2025-05-04T16:08:40.048Z,Comercio
Chimuelo ropa interior,Tienda de ropa,https://chimueloropainterior.empretienda.com.ar/,Los Fresnos 770,+54 249 458-4514,Tandil,Provincia de Buenos Aires,-37.325021,-59.0903526,,94,https://lh3.googleusercontent.com/p/AF1QipMEZWbLPwlxQZRXFJjEAv6SpBbjZzpzeFJJ5d3R=w408-h510-k-no,18.0,0,2025-05-04T16:08:40.048Z,Comercio
Av铆cola Supre Poll,Carnicer铆a,,Av. Falucho 761,,Tandil,Provincia de Buenos Aires,-37.3250837,-59.1120692,5.0,95,https://lh3.googleusercontent.com/gps-proxy/ALd4DhHFOpe3hZeCWKlGh44pmwpGXp7E8nPwGdYKrtvjg5AQwr33_TmB7GCcOEjjY24CUIeAmFahgb0LE-LwT_FKK2bQCHIB01jLpUw-vS3Oa3xNmHuQ1RszasPRbLIKXyqbXvlERmiK0wjrzPwIuca3zSHnhin3yswFkXVyLVcYaUiLEvq9_QhKmHo6myg6t-uWLhFdt_Y=w408-h306-k-no,3.0,2,2025-05-04T16:08:40.049Z,Comercio
Panader铆a de Adrian,Panader铆a,,Pozos 502,,Tandil,Provincia de Buenos Aires,-37.3292978,-59.1129151,,96,https://streetviewpixels-pa.googleapis.com/v1/thumbnail?panoid=NgCxt1QMp9hCjvKU93MTOQ&cb_client=search.gws-prod.gps&w=408&h=240&yaw=21.330912&pitch=0&thumbfov=100,1.0,0,2025-05-04T16:08:40.049Z,Comercio
Prestigio,Tienda de pinturas,https://www.prestigio.com.ar/,Av. Brasil 98,+54 249 400-2463,Tandil,Provincia de Buenos Aires,-37.3279589,-59.1136684,,97,https://streetviewpixels-pa.googleapis.com/v1/thumbnail?panoid=tYi76y3UYjYkm_rGBV2X3Q&cb_client=search.gws-prod.gps&w=408&h=240&yaw=54.903137&pitch=0&thumbfov=100,1.0,0,2025-05-04T16:08:40.049Z,Comercio
Proshop Tandil (Golf),Tienda de ropa,https://proshoptandil.wixsite.com/proshop-tandil,Av. Fleming 1050,+54 11 5744-8371,Tandil,Provincia de Buenos Aires,-37.3306837,-59.1006331,,98,https://lh3.googleusercontent.com/p/AF1QipOUDJ-EurA-pnyUf8sjpPPUCCIcEO6Y08E5ePLz=w408-h408-k-no,10.0,0,2025-05-04T16:08:40.049Z,Comercio
Carnicer铆a El Mago,Carnicer铆a,,Av. Falucho 887,+54 249 444-2882,BJD,Provincia de Buenos Aires,-37.323995,-59.1106812,4.5,99,https://lh3.googleusercontent.com/gps-proxy/ALd4DhEvBm-s7CPN8fD9H1mtKXreuJ5dcuXFIp4bpJlBNBDDf6DxV4R0GMHPvM4kP1C8DGSiIEyRFhrTL-oDbsEJva138DhKVdzb5DwTLnBb4_p5eRr6Rl7HfFobBb3PPiguuxgkZPT44pO33aqMxA5xkuOy41wrlc-OPwryR6kRqO1ebOlze_W11Ei1PnQ4sNcdz-jzMRw=w408-h306-k-no,5.0,84,2025-05-04T16:08:40.049Z,Comercio
New Garden Tandil,Tienda de alimentos naturales,http://newgarden.com.ar/,Av. Brasil 44,+54 249 401-1669,Tandil,Provincia de Buenos Aires,-37.3273699,-59.1138715,4.4,100,https://lh3.googleusercontent.com/gps-cs-s/AC9h4noPpkaiJ9P99YNqrTGQ9z7HdPfDJ2iGXJpvbw3PpKt_uRDYhDRp-JVPtr_mHV-rpFnuhmlmpq3T-6BEB0HP_g2R9OWVPGENsrWvjDrUMHZDNnmm0N6KRCAQbDTUnFyOIdZ9CVb_=w408-h541-k-no,7.0,12,2025-05-04T16:08:40.049Z,Comercio
Lo de Zoraida,Comercio,,Av. Monse帽or D Andrea 300,+54 249 455-7281,Tandil,Provincia de Buenos Aires,-37.3275833,-59.1515363,4.5,3,https://lh3.googleusercontent.com/p/AF1QipMnBHvcOVXj9cFJ7xXGqaH5CbnsFDJKUkTva3BV=w426-h240-k-no,679.0,221,2025-05-04T16:08:42.361Z,Comercio
Granja El Calvario,Tienda de fiambres,,Payr贸 825,+54 249 424-9117,Tandil,Provincia de Buenos Aires,-37.3284924,-59.1509072,4.7,11,https://lh3.googleusercontent.com/p/AF1QipNTGn2Cy5bADOgGWRa7LZKka7fiwzCu3qG5iJhY=w408-h306-k-no,251.0,614,2025-05-04T16:08:42.361Z,Comercio
Natura Tandil Olavarria,Tienda de cosm茅ticos,https://www.instagram.com/natura.tandil.olava,"Pinto 700, Ruca Mal茅n 1900",+54 9 2284 53-0621,Tandil,Provincia de Buenos Aires,-37.344654,-59.1763755,5.0,13,https://lh3.googleusercontent.com/p/AF1QipPYljMod8YIhUd0gXdI1sVfNbWDSzywZVetsBtO=w408-h725-k-no,20.0,5,2025-05-04T16:08:42.362Z,Comercio
Dulcer铆a El Cazador,F谩brica,https://www.instagram.com/dulceselcazador/,Ruca Mal茅n 1450-Acceso Cerro Centinela,+54 249 466-9562,Tandil,Provincia de Buenos Aires,-37.349451,-59.169906,4.4,14,https://lh3.googleusercontent.com/p/AF1QipPo4jm4iKgDB1va3b4nspCXgx-1ZY7xoSfZ8nPh=w408-h306-k-no,141.0,153,2025-05-04T16:08:42.362Z,Comercio
Entre a mi pago Artesan铆as,Tienda de recuerdos,,Av. Estrada 1395,+54 249 448-5948,Tandil,Provincia de Buenos Aires,-37.3450427,-59.1595277,4.8,16,https://lh3.googleusercontent.com/p/AF1QipMcQu_UdbaJMtbZk-F4urLcBHpMev9r_hMs0BzR=w426-h240-k-no,63.0,107,2025-05-04T16:08:42.362Z,Comercio
Los Olivos Recuerdos Regionales.,Tienda de recuerdos,https://www.instagram.com/losolivos.tandil?igsh=MTRsanVmbXRiMmVjYw==,Av. Monse帽or D Andrea 261,,Tandil,Provincia de Buenos Aires,-37.3271617,-59.1510823,4.6,18,https://lh3.googleusercontent.com/p/AF1QipN8vz2y1tUQ0vsm5bNR_-AA2Xi5EJSRSEAusH9u=w408-h306-k-no,11.0,9,2025-05-04T16:08:42.362Z,Comercio
Urbanus Pintureria,Tienda de pinturas,,Av. Brasil 60,+54 249 469-6453,Tandil,Provincia de Buenos Aires,-37.327597,-59.1138787,4.9,101,https://lh3.googleusercontent.com/p/AF1QipMScpnKro4y-B49FCHaCFWoPe_swDy_JKFm9cvv=w408-h408-k-no,34.0,9,2025-05-04T16:08:42.369Z,Comercio
Carlos Cabrera Pesca,Tienda de art铆culos de pesca,,Av. Avellaneda 1756,+54 249 444-3613,Tandil,Provincia de Buenos Aires,-37.3270603,-59.1153184,4.8,102,https://lh3.googleusercontent.com/p/AF1QipM9siOBwD3lkHX3fc81q_H-zBLLkUyuzX0o-3es=w408-h408-k-no,4.0,5,2025-05-04T16:08:42.369Z,Comercio
Panaderia Nogal Ii,Panader铆a,,Canada 722,,Tandil,Provincia de Buenos Aires,-37.323477,-59.1149165,4.5,103,https://lh3.googleusercontent.com/gps-cs-s/AC9h4nqr1nLs8QudIcoh66cm6zi0-K7V0YfQ_HNJ3yFKb56OYHjSMseUcdFekg3Zuzpu38k_BuqMZ39M0AWbG8JDJpC4kt0q00NeT7gaGQIFdFx6pRaa_C0IGoG5D1RxrT7JIgCNl3Vd=w408-h544-k-no,3.0,30,2025-05-04T16:08:42.369Z,Comercio
Vinoteca Black,Tienda de vinos,,Av. Brasil 345,+54 249 467-3906,Tandil,Provincia de Buenos Aires,-37.3310704,-59.1122369,4.8,104,https://lh3.googleusercontent.com/p/AF1QipMHqb2tYiFNyx1rLEeFo4N8DDUB4E9mFdzDA8zG=w408-h424-k-no,29.0,63,2025-05-04T16:08:42.369Z,Comercio
Uzcudun Tandil,Concesionario Toyota,https://www.uzcudun.com.ar/,Av. Avellaneda 1790,+54 249 444-1500,Tandil,Provincia de Buenos Aires,-37.3267303,-59.1150684,4.6,105,https://lh3.googleusercontent.com/gps-cs-s/AC9h4nq9GGWF5x3kIqEK8bBrIZjrp0p8Wf4vFvuP5aEHmvo1aawxKcPRxnhRTgpQ04sdvblU2MaDKleiPBi-KHF9YZJoM-XNLiIJwRfrEOpiZcl0buFKtC7QXy1WRiIu0lfSRG_94iP-zg=w408-h306-k-no,159.0,451,2025-05-04T16:08:42.369Z,Comercio
Brave sal贸n,Peluquer铆a,http://www.wonoma.com/salon/brave,"7000, Av. Brasil 102",,Tandil,Provincia de Buenos Aires,-37.3281836,-59.1134666,4.7,106,https://lh3.googleusercontent.com/gps-cs-s/AC9h4nrBccMjEJWUk2HzqFUCzvwKWykwsOpKH7XWeVsrt4JctE6fjFtjGK8W_Rp82EXvF6GwMu5oA1PW-uLLxcVTz-cccThL3S0w436_11cDn5jwIDz2jjenf72snYp-JnurQFfHJBc=w408-h271-k-no,71.0,44,2025-05-04T16:08:42.369Z,Comercio
Oshum,Tienda de ropa de mujer,http://www.oshum-bsas.com.ar/,"Carrefour, Panam谩 351",+54 249 443-8236,Tandil,Provincia de Buenos Aires,-37.3239995,-59.1144576,3.0,107,https://lh3.googleusercontent.com/gps-proxy/ALd4DhHwCzw8XoaxxBanSybOTGYDChVOynOoQDYn-IKRu4TpQQ3B-Uasw_GcM3D0aiDzNrNodOepcjdd6VnwtynZM1VQ9xZ2VanuVtldDHzUIMfmx0PqJyEUhon7ViQZegRkpzWblh9Qyfz0cW_X4vJLgxR8TTmv3HElhMThzKO8Hla4W_kDnrfr65IJU4ZDwiLQr1qj_Q=w408-h306-k-no,3.0,3,2025-05-04T16:08:42.369Z,Comercio
CITRO GALL,Tienda de repuestos para autom贸viles,https://www.facebook.com/CITRO-GALL-1376746842460374/?modal=admin_todo_tour,Rosal铆a de Castro 830,+54 249 442-1673,Tandil,Provincia de Buenos Aires,-37.3233945,-59.1125578,5.0,108,https://lh3.googleusercontent.com/p/AF1QipNFLDwb9j-l3zu4zBJ5Qq5EviXHuUbq8EsFoX_L=w426-h240-k-no,3.0,3,2025-05-04T16:08:42.369Z,Comercio
"iGUi Piscinas, Tandil y la zona.",Piscina,https://www.igui.com.ar/,"casi llegando a, Colectora Pugliese, Holmberg 81",+54 249 451-1684,Tandil,Provincia de Buenos Aires,-37.3228336,-59.1005089,5.0,109,https://lh3.googleusercontent.com/p/AF1QipNL_BQlx7GsUbRWHWlE6PMfPGLA34ZoByglXpe3=w408-h408-k-no,31.0,15,2025-05-04T16:08:42.369Z,Comercio
La serranita,Panader铆a,,Av. Falucho 843,,Tandil,Provincia de Buenos Aires,-37.3243376,-59.1110036,5.0,110,https://streetviewpixels-pa.googleapis.com/v1/thumbnail?panoid=9ynRi5DYYwxOOz1TURhe5w&cb_client=search.gws-prod.gps&w=408&h=240&yaw=144.76418&pitch=0&thumbfov=100,1.0,7,2025-05-04T16:08:42.369Z,Comercio
inmobiliaria.tandil.cabanas,Tienda de alimentaci贸n,http://www.inmobiliariacabanas.com/,Km163.4 RN226 Tandil Buenos Aires AR,+54 249 455-7000,GZY,Provincia de Buenos Aires,-37.3241491,-59.0965609,5.0,111,https://lh3.googleusercontent.com/gps-cs-s/AC9h4npvI_JIZ0HyZ3dJ29DRzVVUgklcI76GuEz1qERDGmUy-qlYi07VO7DG7smUkmZ6WeTeVShuoU_kIu1YXZ6y5Wj_4Ly33a1_AOUOx8APcMGfh5-sannoiyEMkOpMm_U3AgtsPVKU=w408-h297-k-no,4.0,3,2025-05-04T16:08:42.369Z,Comercio
Morfeo Barista Caf茅,Cafeter铆a,,Av. Brasil 308,+54 9 249 420-6885,Tandil,Provincia de Buenos Aires,-37.330875,-59.1121046,4.5,112,https://lh3.googleusercontent.com/gps-cs-s/AC9h4nqDe5oSPovC3_VsInASCWQhXQI81utld0Iueu0D_y1k0XxTGMh7iSAUF4E0zFlqdOGIJtHwhGjHP4nywYmxn_vOd8f3ADv0tKkDOAP-J83m91-beAhcj2b4ocPpMscpojPVqrBK=w408-h543-k-no,76.0,81,2025-05-04T16:08:42.369Z,Comercio
Librer铆a Nancy,Librer铆a,http://www.librerianancy.com.ar/,"Carrefour, Panam谩 351, B7001HXG",+54 249 443-6360,Tandil,Provincia de Buenos Aires,-37.3239995,-59.1144576,5.0,113,https://streetviewpixels-pa.googleapis.com/v1/thumbnail?panoid=SPdvLSZ_skhYXnS55TPM3A&cb_client=search.gws-prod.gps&w=408&h=240&yaw=50.23992&pitch=0&thumbfov=100,1.0,13,2025-05-04T16:08:42.369Z,Comercio
Farmacia Subelza,Farmacia,https://farmaciasdeturnotandil.com.ar/farma/1589058556850,"B7001BJC Esquina, Avenida Falucho, Panam谩 701",+54 249 444-3038,Tandil,Provincia de Buenos Aires,-37.3255537,-59.1126592,4.8,114,https://lh3.googleusercontent.com/gps-cs-s/AC9h4nojmI2VjTPh-ghcRWGqDaHDclwBqFGEunxyAXitg3E82TGQMQ9sMK8zqgouZVGqCbQVW5qRb1WigCR840UDrCZxe1w5higUWGO-9NDLXme1oMfI2-iFpgbSikkrxOvD-54W1bTl0Q=w408-h306-k-no,3.0,25,2025-05-04T16:08:42.449Z,Comercio
Modo Salva,Tienda de ropa para beb茅s,https://modosalvabebes.empretienda.com.ar/,Av. Falucho 953 5 C,+54 249 457-5468,Tandil,Ciudad Aut贸noma de Buenos Aires,-37.3235228,-59.1097411,,115,https://lh3.googleusercontent.com/p/AF1QipPe-czhKJHYxkTXQ4eSphqRXawN28C-m8yvQeIW=w408-h510-k-no,2.0,0,2025-05-04T16:08:42.449Z,Comercio
Afra,Tienda de ropa de mujer,https://wa.me/c/5492494377746,Rivas 1068,+54 249 460-6861,Tandil,Provincia de Buenos Aires,-37.3229945,-59.1075924,,116,https://lh3.googleusercontent.com/p/AF1QipM9ugAcX8NJxUFWgCWuyAWfoenvhpAuYzCraGo=w408-h592-k-no,2.0,0,2025-05-04T16:08:42.449Z,Comercio
Sinergia Solar,Proveedor de equipos de energ铆a solar,http://www.sinergiasolar.com.ar/,Juan C. Ariztegui 1399,+54 249 465-7131,Tandil,Provincia de Buenos Aires,-37.3285512,-59.0936371,4.7,117,https://lh3.googleusercontent.com/p/AF1QipNQO2YAFp1u5fLe78fdQZhvy79dnaRuL3w1Uvs0=w408-h309-k-no,27.0,3,2025-05-04T16:08:42.449Z,Comercio
FARMACIA BRASIL,Farmacia,https://www.instagram.com/farmaciabrasil_tandil/?hl=es,Av. Brasil 165,+54 249 424-8988,Tandil,Provincia de Buenos Aires,-37.3289612,-59.1136376,4.5,118,https://lh3.googleusercontent.com/p/AF1QipOEvd0Kszb0oVKji4tf6yLCMDS7cdJTwlD0P6OO=w408-h306-k-no,8.0,4,2025-05-04T16:08:42.450Z,Comercio
DG AUTOMOTORES,Tienda de veh铆culos de segunda mano y de ocasi贸n,,Av. Falucho 503,+54 249 454-9255,Tandil,Provincia de Buenos Aires,-37.3269447,-59.114313,,119,https://lh3.googleusercontent.com/p/AF1QipOWGZg4HWF0LGat3_rOSbsbxGoqR8PrXVyUO9aY=w408-h306-k-no,3.0,0,2025-05-04T16:08:42.450Z,Comercio
DON CARLOS MATERIALES PARA LA CONSTRUCCION,Tienda de materiales para la construcci贸n,,"COLECTORA LUIS MARIA MACAYA NORTE 544, TANDIL ENTRE C.FONTANA, Dr. Pere Y",+54 249 468-6928,Tandil,Provincia de Buenos Aires,-37.3256285,-59.0953935,,120,https://lh3.googleusercontent.com/p/AF1QipPDPQKAweGPesfZMKTWtK8cUaeSLTsPLUK00xed=w408-h318-k-no,3.0,0,2025-05-04T16:08:42.450Z,Comercio
Peque帽as Partidas,Tienda de bebidas alcoh贸licas,https://pequenaspartidas.com.ar/,C. Pueblo Vasco 1785,+54 9 249 467-4746,Tandil,Provincia de Buenos Aires,-37.3667745,-59.1185327,4.9,3,https://lh3.googleusercontent.com/p/AF1QipMK3AJgScdQf40aDOOyfdBuBxobET3UClg_CgMl=w408-h361-k-no,25.0,9,2025-05-04T16:08:43.462Z,Comercio
Tandi-Leuquen,Tienda de productos de chocolate,http://www.tandi-leuquen.com.ar/,"Av. Don Bosco, Suiza &",+54 249 467-0987,Tandil,Provincia de Buenos Aires,-37.3635226,-59.1181082,4.6,4,https://lh3.googleusercontent.com/p/AF1QipNfLGm-4wWwXeBAVZ5SYT5BXftSVYrwpjlegrsd=w426-h240-k-no,420.0,1095,2025-05-04T16:08:43.462Z,Comercio
Manjar Casa Serrana,Delicatessen,https://instagram.com/manjar.casa.serrana?igshid=1pdjmrzny2vok,C. Ecuador 1357,+54 9 249 465-3395,Tandil,Provincia de Buenos Aires,-37.3628211,-59.1130778,5.0,9,https://lh3.googleusercontent.com/p/AF1QipPPqyM72JopsPK7ns82uLR7QjkgDgdzxsxnYLuS=w408-h612-k-no,1.0,2,2025-05-04T16:08:43.463Z,Comercio
Arcor,Comercio,,Gral. Rodr铆guez 43 20,,Tandil,Provincia de Buenos Aires,-37.3331607,-59.1324789,5.0,12,https://streetviewpixels-pa.googleapis.com/v1/thumbnail?panoid=tE_F0zDQpMX9j7Zwbugaig&cb_client=search.gws-prod.gps&w=408&h=240&yaw=84.20923&pitch=0&thumbfov=100,1.0,2,2025-05-04T16:08:43.463Z,Comercio
La casita de las Dinas,Delicatessen de carnicer铆a,,Francia 2409,,Tandil,Provincia de Buenos Aires,-37.3617105,-59.1253078,5.0,14,https://lh3.googleusercontent.com/p/AF1QipMQfZ-GKQlaBMufMEYFiNBf_n6pXcYUj-sEd1KS=w408-h545-k-no,17.0,4,2025-05-04T16:08:43.463Z,Comercio
RINCN GALES,Cafeter铆a,https://www.instagram.com/rincongalestandil/,Suiza 1794,+54 249 460-8912,Tandil,Provincia de Buenos Aires,-37.3653073,-59.1199975,4.6,20,https://lh3.googleusercontent.com/p/AF1QipO4G0FaWfwABLxdlR3hubUbtSWk1V1mVcESlbcs=w493-h240-k-no,332.0,282,2025-05-04T16:08:43.463Z,Comercio
Igl煤 Helados,Helader铆a,,Av. Falucho 775,+54 249 443-3019,Tandil,Provincia de Buenos Aires,-37.3247541,-59.1120721,4.4,121,https://lh3.googleusercontent.com/gps-cs-s/AC9h4npxJtV76BeC5COB6tclSWnthBSu8C7hQyrulCqJxv0cK4KC03he6X_u1t5gRfxH1GYx9shnr8i7gRtfs5U7xFPmbvLCiXCKqD73GkTTNP39NhbTevSGI0abJEJjY8FfvFqEAtm-2w=w408-h306-k-no,19.0,243,2025-05-04T16:08:45.040Z,Comercio
Pronto Helados,Helader铆a,https://pronto.ola.click/products?fbclid=PAAaadPqzAOjEA9ftW8MN7YKe3e1Bwo9sGgxosDnZDQMpc_UhEZ983qXeYO9o,Av. Brasil 285,+54 249 401-8250,Tandil,Provincia de Buenos Aires,-37.3302786,-59.1127234,4.3,122,https://lh3.googleusercontent.com/gps-cs-s/AC9h4nrZGeP4VLrvcSV9pM_RF7ohfZtopAMtuHlw9aubm9ys4RkFgTHyJOZHQirxY08KNHP32SA5bWM_uiRL4xjPTyAks0UEQFG-a_t2stvxsFnHZzsNsDf77TGu2t2wcvfwOrcz6ryDWQ=w533-h240-k-no,18.0,99,2025-05-04T16:08:45.040Z,Comercio
Bater铆as Ayatan y Lubricantes,Tienda de repuestos para autom贸viles,,Panam谩 224,+54 249 449-7906,Tandil,Provincia de Buenos Aires,-37.3253983,-59.1132295,5.0,123,https://streetviewpixels-pa.googleapis.com/v1/thumbnail?panoid=BvBXVq1bpZTz5CFYw5xzaQ&cb_client=search.gws-prod.gps&w=408&h=240&yaw=240.05864&pitch=0&thumbfov=100,1.0,1,2025-05-04T16:08:45.040Z,Comercio
Las Animas Wine Bar,Tienda de vinos,https://www.instagram.com/lasanimas_winebar/,Av. Brasil 184 local 2,+54 249 438-2696,Tandil,Provincia de Buenos Aires,-37.3287811,-59.1130523,4.6,124,https://lh3.googleusercontent.com/gps-cs-s/AC9h4noD0loKkGdwHogHmztogwDIlt8Vwp_xuYB3jaUMGFF-gwg358ReCVmHmQeyU1HptkS8kdin_rcqPG3K34ovz5HM6o76h6lliCCyEwyVJlSexFj7BJ9SyFRKXTIRz-3AAfOhBNDq=w408-h306-k-no,33.0,56,2025-05-04T16:08:45.040Z,Comercio
Helados Nevada,Helader铆a,,Av. Avellaneda 1797,,Tandil,Provincia de Buenos Aires,-37.3272785,-59.1146342,,125,https://streetviewpixels-pa.googleapis.com/v1/thumbnail?panoid=9d3jV-_SeGuVwtREBHHoqQ&cb_client=search.gws-prod.gps&w=408&h=240&yaw=153.64854&pitch=0&thumbfov=100,1.0,0,2025-05-04T16:08:45.040Z,Comercio
hey baby tandil,Tienda de ropa para beb茅s,,Av. Brasil 102,,Tandil,Provincia de Buenos Aires,-37.3280831,-59.1134731,,126,https://streetviewpixels-pa.googleapis.com/v1/thumbnail?panoid=pxKs2D_5dui3cRJUr9kidg&cb_client=search.gws-prod.gps&w=408&h=240&yaw=70.94938&pitch=0&thumbfov=100,1.0,0,2025-05-04T16:08:45.040Z,Comercio
El Don,Pizzer铆a,http://www.facebook.com/eldon,Av. Brasil 184,+54 249 428-8935,Tandil,Provincia de Buenos Aires,-37.3287589,-59.1129159,4.3,127,https://lh3.googleusercontent.com/gps-cs-s/AC9h4noHKkuaq1M11sRpxNfHFql60gtQiXsZdbBR-OjGsWBHu1_MC2jQzTw1bGTKvMfMlVQh7ALZmFuZeBAz0eOBMujGfrAooQOzEaU3EUpOZtYDtsSdQrnFK-izW6zB8lDOl4GN3omw=w426-h240-k-no,135.0,481,2025-05-04T16:08:45.040Z,Comercio
Fauna al sereno,Restaurante,https://instagram.com/fauna_tandil,Av. Brasil 130,+54 249 460-0068,Tandil,Provincia de Buenos Aires,-37.3283921,-59.1132526,4.5,128,https://lh3.googleusercontent.com/p/AF1QipMcuTOumNIDJCHkitecwQwT8DACPMS1zkg6WQFV=w408-h544-k-no,228.0,302,2025-05-04T16:08:45.041Z,Comercio
Despensa La Galleguita,Kiosco,,Av. Falucho,,Tandil,Provincia de Buenos Aires,-37.3198502,-59.1059681,4.8,20,https://lh3.googleusercontent.com/gps-cs-s/AC9h4nr3ZAPuD4N2fDW1F_x029sc89ECh5EfPwGjyfAf8RRGVi3wtgTLwv0iDU2VAHm6pgputmfyaCzpgmU912DQjTiNzrugFjGo54_w-TC0gwwA_NfSgbWY50s35CAc7D9BsIM3ieEI=w408-h544-k-no,5.0,4,2025-05-04T16:08:49.059Z,Comercio
Abait - Mercado Frutihorticola,Fruter铆a,,Av. Santamarina 181,+54 249 411-9705,Tandil,Provincia de Buenos Aires,-37.3290309,-59.1275087,4.5,1,https://lh3.googleusercontent.com/p/AF1QipOcuOlfbyii4dE2IC_-QBWWoo_3fmi4NJVJs4iP=w408-h245-k-no,4.0,64,2025-05-04T16:08:49.748Z,Comercio
Todo Cuotas Sa,Comercio,,Chacabuco 926,,Tandil,Provincia de Buenos Aires,-37.3234966,-59.1416556,4.3,3,https://streetviewpixels-pa.googleapis.com/v1/thumbnail?panoid=VQqUsUDZCPh7J72BuQKBbA&cb_client=search.gws-prod.gps&w=408&h=240&yaw=217.823&pitch=0&thumbfov=100,1.0,4,2025-05-04T16:08:49.748Z,Comercio
CLORUM,Comercio,,Av. Avellaneda 545,,Tandil,Provincia de Buenos Aires,-37.3341747,-59.1331206,,5,https://streetviewpixels-pa.googleapis.com/v1/thumbnail?panoid=77Jzu1aW_E24MMeB7t0WyA&cb_client=search.gws-prod.gps&w=408&h=240&yaw=153.149&pitch=0&thumbfov=100,1.0,0,2025-05-04T16:08:49.749Z,Comercio
La Casa del Calefon Miguel Angel Coria,Comercio,,Garibaldi 270,+54 249 442-9210,Tandil,Provincia de Buenos Aires,-37.3231485,-59.1440455,4.0,7,https://streetviewpixels-pa.googleapis.com/v1/thumbnail?panoid=bTWC7_2Ciru3810JD95Kxw&cb_client=search.gws-prod.gps&w=408&h=240&yaw=334.26126&pitch=0&thumbfov=100,1.0,31,2025-05-04T16:08:49.749Z,Comercio
Las lomitas Formosa,Comercio,,Leandro Alem 612,,Tandil,Provincia de Buenos Aires,-37.3250974,-59.134,,8,https://streetviewpixels-pa.googleapis.com/v1/thumbnail?panoid=tu19PgVue3wtcwU6pOnGeA&cb_client=search.gws-prod.gps&w=408&h=240&yaw=249.84956&pitch=0&thumbfov=100,1.0,0,2025-05-04T16:08:49.749Z,Comercio
"Maxikiosco ""Lugar So帽ado''",Tienda de alimentaci贸n,,Av. Espa帽a 676,,Tandil,Provincia de Buenos Aires,-37.3222279,-59.1377444,4.9,9,https://lh3.googleusercontent.com/p/AF1QipMujnlU2kqSn0SMWYZDzGeG7tV_3Wb5cDRWvaqZ=w532-h240-k-no,2.0,7,2025-05-04T16:08:49.749Z,Comercio
Kiosko Rodriguez 142,Kiosco,,Gral. Rodr铆guez 142,,Tandil,Provincia de Buenos Aires,-37.3319734,-59.133482,4.9,10,https://lh3.googleusercontent.com/p/AF1QipNkFrsPcjDD51m7ldJDT1sCzIVb7Yf-IgKwBdgD=w426-h240-k-no,32.0,11,2025-05-04T16:08:49.749Z,Comercio
Espa帽a,Fruter铆a,,Av. Espa帽a 340,+54 249 422-2525,Tandil,Provincia de Buenos Aires,-37.3238623,-59.1425294,4.4,11,https://lh3.googleusercontent.com/gps-proxy/ALd4DhExL88mcr8EWkJGAuClKOmO9nfUMK-JreQ21-WPt1Tj-8RZZrlvTjUc3drThHOya2zh_j_7f_K85F0sZc-meMeS28DO1OOjnuynqrxU17teYWR6nnC2qQ2jX9u9A3tFmAGevyPdVlWiJAITXabE6nMTN69A9P9gZAGVRtrKDsYYsztWWGm9sJycp4u0m1QmxrDGjeg=w408-h306-k-no,16.0,31,2025-05-04T16:08:49.749Z,Comercio
Ana Joyas,Comercio,,Sarmiento 545,,Tandil,Provincia de Buenos Aires,-37.3255304,-59.1380639,4.7,12,https://streetviewpixels-pa.googleapis.com/v1/thumbnail?panoid=ePwiorOocZkfvIgsZv_fQQ&cb_client=search.gws-prod.gps&w=408&h=240&yaw=132.61563&pitch=0&thumbfov=100,1.0,3,2025-05-04T16:08:49.749Z,Comercio
Loter铆a de la Provincia,Tienda de loter铆a,,Av. Rivadavia 497,+54 249 444-6670,Tandil,Provincia de Buenos Aires,-37.3307299,-59.144059,4.7,13,https://lh3.googleusercontent.com/gps-proxy/ALd4DhF6xPmvWM9jECDI0Xe0tpFtm0XWsvlzOu0m_0ccgKE1hQX-51QElgfKkqNtYWZSTmXXck-upndrfc7Zp-mSotxW_Xf3M3FiRf_e3PigC4Q9pFYBncEyojBwodp06TRI6WSvqiLbeg3HgKaEWojK8F8p23fmeGVcI70IBeoPw3PrkIma7j8_jOk4vwKx3LsirOvW5w=w408-h306-k-no,2.0,12,2025-05-04T16:08:49.749Z,Comercio
GEMMA TANDIL,Tienda general,,"Buenos Aires AR, 1ra Junta 627",,Tandil,Provincia de Buenos Aires,-37.3287999,-59.1367167,,14,https://lh3.googleusercontent.com/p/AF1QipOiA8p5aMicCM3kXklXxpaEdoaC_hVNzNZgo4-e=w408-h408-k-no,1.0,0,2025-05-04T16:08:49.749Z,Comercio
Bel Mar,Tienda de uniformes,http://www.belmaruniformes.com.ar/,Alsina 415,+54 249 446-7664,Tandil,Provincia de Buenos Aires,-37.3252291,-59.12621,4.5,15,https://lh3.googleusercontent.com/p/AF1QipM37sAVMy_VYpg5UtGt4QO8gBDbfviFL-zNJo6T=w425-h240-k-no,7.0,124,2025-05-04T16:08:49.749Z,Comercio
Los Andes Peatonal,Tienda de cuberter铆a,,San Mart铆n 730,+54 249 422-7319,Tandil,Provincia de Buenos Aires,-37.3254515,-59.1349208,4.6,16,https://lh3.googleusercontent.com/p/AF1QipPqGxjvOsMc6YXBBckVkZ8fRiN6suHKxh8Qx_65=w408-h304-k-no,15.0,8,2025-05-04T16:08:49.749Z,Comercio
Vitalcer,Tienda de alimentos naturales,http://www.vitalcer.com/,9 de Julio 440,+54 249 401-2211,Tandil,Provincia de Buenos Aires,-37.3278771,-59.1341046,4.6,17,https://lh3.googleusercontent.com/p/AF1QipNVGizSaB23tpGxHbWDa-YgWTaQoH7jxPUGbUpP=w408-h306-k-no,7.0,9,2025-05-04T16:08:49.749Z,Comercio
Alimar,Carnicer铆a,,San Lorenzo 410,+54 249 422-2434,Tandil,Provincia de Buenos Aires,-37.3308576,-59.1408034,5.0,18,https://streetviewpixels-pa.googleapis.com/v1/thumbnail?panoid=85zue7V7lp4mnw1zl9B8LQ&cb_client=search.gws-prod.gps&w=408&h=240&yaw=260.9333&pitch=0&thumbfov=100,2.0,2,2025-05-04T16:08:49.749Z,Comercio
Tienda Cyber Store,Tienda de juegos,,Mitre 578,+54 11 3188-8492,Tandil,Provincia de Buenos Aires,-37.3241007,-59.1385929,3.7,19,https://lh3.googleusercontent.com/p/AF1QipN10fajeTN48hemePdE82LW53oIOLtTQN4Lg1Kp=w408-h408-k-no,8.0,6,2025-05-04T16:08:49.749Z,Comercio
Chuick,Tienda de accesorios de moda,,9 de Julio 954 Local C,+54 249 422-0401,Tandil,Provincia de Buenos Aires,-37.3276545,-59.1343727,4.7,20,https://lh3.googleusercontent.com/gps-proxy/ALd4DhErlZiiVrZeVlgQubu-qsdKgtt0xNkenyhbvnnbDJFs6vnVmZpOdbMlYe9CWNrzuL-NI_xPaMnjgY6e7CUKWKHLoF896G_p6S8cDJv2sDG3utoqoncAqHpCyD6JnPHXoz81tihtGmGSt9f9y9G7CYXR6vo29bkZsWgacc1gN4pw3-5iMgt5xsgrjMHySLIB4pCw4o4=w408-h306-k-no,3.0,6,2025-05-04T16:08:49.749Z,Comercio
Easy golf - Proshop Tandil,Tienda de art铆culos de golf,https://www.elvalledetandil.com.ar/proshop,Ceferino Namuncura 1430,+54 9 249 434-6193,Tandil,Provincia de Buenos Aires,-37.3716481,-59.0998223,5.0,22,https://lh3.googleusercontent.com/p/AF1QipNA2Rqq2DV5RbIymM_8bEEce6GEy6GRb2vUbETK=w408-h544-k-no,6.0,3,2025-05-04T16:08:50.195Z,Comercio
Posada La Protegida & Resto,Hotel,http://www.posadalaprotegida.com.ar/,C. Pueblo Vasco 2115,+54 11 7390-1029,Tandil,Provincia de Buenos Aires,-37.3702198,-59.1137909,4.7,23,https://lh3.googleusercontent.com/p/AF1QipPemF5SK52PtZUHpjd-em6eiLX--ycxaZOf65u3=w408-h272-k-no,1956.0,826,2025-05-04T16:08:50.195Z,Comercio
MUNDO DISEO CREATIVO. GRFICA,Tienda de ropa,,"355,, Tandil",+54 249 459-6838,Guti茅rrez,Provincia de Buenos Aires,-37.3242575,-59.1208392,5.0,29,https://lh3.googleusercontent.com/p/AF1QipPfj_3JfhTC512g32a4YkktciB07SnAd3meW_BF=w426-h240-k-no,3.0,5,2025-05-04T16:08:50.584Z,Comercio
"Mercado de Pulgas ""San Juan Bosco""",Chatarrer铆a,,"&, Av. Per贸n, Av. Monse帽or D Andrea &",,Tandil,Provincia de Buenos Aires,-37.3262862,-59.147491,4.1,33,https://lh3.googleusercontent.com/p/AF1QipPaC93Pu2YzF8qkPsx1aS6A-E5gH-XSe1Ia-KeE=w408-h300-k-no,84.0,46,2025-05-04T16:08:50.584Z,Comercio
Tienda Encantada,Tienda de regalos,https://www.tiendaencantada.com.ar/,Gral. Rodr铆guez 771,+54 249 425-1630,Tandil,Provincia de Buenos Aires,-37.3243608,-59.1376009,4.0,34,https://lh3.googleusercontent.com/p/AF1QipMnnDAjbN1M7kNrouDzHHBopVBFOomLXGFNxlFX=w408-h725-k-no,25.0,62,2025-05-04T16:08:50.584Z,Comercio
Estamperia Tandil,Tienda de suministros para serigraf铆a,,Constituci贸n 708,,Tandil,Provincia de Buenos Aires,-37.3317342,-59.1315241,4.0,35,https://streetviewpixels-pa.googleapis.com/v1/thumbnail?panoid=iZ7QY9z-Thw0UPT-Sd_aHw&cb_client=search.gws-prod.gps&w=408&h=240&yaw=331.86066&pitch=0&thumbfov=100,1.0,5,2025-05-04T16:08:50.584Z,Comercio
Eximia,Tienda de ropa,,Sarmiento 713,+54 249 435-5566,Tandil,Provincia de Buenos Aires,-37.3245749,-59.1356393,3.1,38,https://lh3.googleusercontent.com/p/AF1QipOWVjhgqgq3eLW2X8wxnYf4Yd9YcaYW5HDvauO9=w408-h725-k-no,2.0,15,2025-05-04T16:08:50.584Z,Comercio
Siglo XXI,Kiosco,,Belgrano 799,,Tandil,Provincia de Buenos Aires,-37.3278399,-59.1321709,4.8,39,https://lh3.googleusercontent.com/p/AF1QipNk_8tHQAgQC4Nbb9eEfXWH6B2OgR5lBhbXgbCc=w426-h240-k-no,4.0,6,2025-05-04T16:08:50.584Z,Comercio
Essen Gisela Tandil,Tienda de cuberter铆a,http://www.essen.com.ar/,9 de Julio 738,+54 249 455-5448,Tandil,Provincia de Buenos Aires,-37.3242142,-59.1363998,3.0,40,https://lh3.googleusercontent.com/p/AF1QipMrsqxlGBe3pyCpKwGLW4k8SoXcAXgbk7Gk-4Zq=w408-h272-k-no,7.0,2,2025-05-04T16:08:50.584Z,Comercio
INDIANA Tandil,Marroquiner铆a,https://indianatandil.wixsite.com/indianatandil,Gral. Rodr铆guez 631,+54 249 443-6361,Tandil,Provincia de Buenos Aires,-37.3258599,-59.1368817,4.7,41,https://lh3.googleusercontent.com/p/AF1QipOdS9tXUGnrKLfi6iL1GdaIn8-2pJ8kRSLeB2dY=w408-h272-k-no,55.0,191,2025-05-04T16:08:51.255Z,Comercio
Minimercado Norma,Tienda de alimentaci贸n,,,,Tandil,Provincia de Buenos Aires,-37.3235908,-59.1293004,,42,https://lh3.googleusercontent.com/p/AF1QipMpCm9vCN1X-Xfg7kFZdF7vfX16ULetf2xVMzMh=w408-h306-k-no,3.0,0,2025-05-04T16:08:51.255Z,Comercio
Roccabianca,Tienda de alimentaci贸n,,9 de Julio 107,+54 249 466-9701,Tandil,Provincia de Buenos Aires,-37.3317059,-59.1314968,4.8,43,https://lh3.googleusercontent.com/p/AF1QipOpcrH6c5rwReVf4Fz5Wf_MKdOzLyHKOhInr3eE=w408-h263-k-no,14.0,8,2025-05-04T16:08:51.255Z,Comercio
Persico Sorrentinos Tandil,Tienda de pasta,,"7000, Av. Santamarina 56",+54 9 249 451-1630,Tandil,Provincia de Buenos Aires,-37.33077,-59.12701,4.4,45,https://lh3.googleusercontent.com/p/AF1QipNS2YozpcMdOLLNBZk6SxJp1urTO80Df45IClXf=w408-h306-k-no,30.0,95,2025-05-04T16:08:51.255Z,Comercio
Lo de GiGi,Tienda general,,25 de Mayo 618,,Tandil,Provincia de Buenos Aires,-37.3310574,-59.1335208,,46,https://streetviewpixels-pa.googleapis.com/v1/thumbnail?panoid=OPyNYKQPkydXo8G-f6Kilg&cb_client=search.gws-prod.gps&w=408&h=240&yaw=309.77112&pitch=0&thumbfov=100,1.0,0,2025-05-04T16:08:51.255Z,Comercio
Tomy Y Daly,Librer铆a,,Mitre 931,,Tandil,Provincia de Buenos Aires,-37.3222101,-59.1332238,,47,https://streetviewpixels-pa.googleapis.com/v1/thumbnail?panoid=R_D6a_RYOjG_AMBrSlkZ3w&cb_client=search.gws-prod.gps&w=408&h=240&yaw=131.54012&pitch=0&thumbfov=100,1.0,0,2025-05-04T16:08:51.255Z,Comercio
Spinaker,Tienda de ropa de hombre,,9 de Julio 773,+54 249 444-7687,Tandil,Provincia de Buenos Aires,-37.3237661,-59.1363019,5.0,48,https://lh3.googleusercontent.com/gps-proxy/ALd4DhE5FTcRVlTWyobZVM9ODuN1HjPtLYfxuD1DV3Ez4YYMleiml92gH4WJ9orWpLLHBH_XId3qcMWtm5zBiEJgfQPs_s2lqkhGXU8bTITT1V9EEaDtw5Woad7j4-AWoKmomx7CufVCjp8osGg1GyDcCKLSh7o5Ia-5v2xJWhei8zUG5tvBYIzWu5vpxuemIDK8Qm1HxVE=w408-h306-k-no,2.0,1,2025-05-04T16:08:51.255Z,Comercio
Lenzi,Comercio,,,,Tandil,Provincia de Buenos Aires,-37.3257928,-59.1369273,4.6,50,https://streetviewpixels-pa.googleapis.com/v1/thumbnail?panoid=eUB46RLZUvsdM8wuvlbJPA&cb_client=search.gws-prod.gps&w=408&h=240&yaw=61.39311&pitch=0&thumbfov=100,1.0,5,2025-05-04T16:08:51.255Z,Comercio
Castellanas,Tienda de ropa,http://www.castellanas.com.ar/,San Mart铆n 650,,Tandil,Provincia de Buenos Aires,-37.3260183,-59.1360609,4.3,52,https://lh3.googleusercontent.com/p/AF1QipMR4vVtcm-ypjeZOkVnXSk86JZEpfQlRaqE7dH_=w408-h544-k-no,9.0,323,2025-05-04T16:08:51.255Z,Comercio
Charcuter铆a Tandilera,Carnicer铆a,https://www.instagram.com/charcuteriatandilera,Chacabuco 1015,+54 249 443-6643,Tandil,Provincia de Buenos Aires,-37.3222957,-59.1421317,4.6,54,https://lh3.googleusercontent.com/p/AF1QipNJUk7s8hHTR36G-KfN9dGyQG5ujDOHng396aTJ=w426-h240-k-no,23.0,69,2025-05-04T16:08:51.255Z,Comercio
Ferretac,Tienda de herramientas,,Av. Per贸n 1120,+54 249 451-1618,Tandil,Provincia de Buenos Aires,-37.3233224,-59.1488819,4.4,55,https://lh3.googleusercontent.com/p/AF1QipMksnRcoYAyQk0-QYUhqsgYdow03Gp4VWAYIrSN=w408-h544-k-no,26.0,37,2025-05-04T16:08:51.255Z,Comercio
Copy & Paper,Copister铆a,,9 de Julio 395,,Gran Buenos Aires,Provincia de Buenos Aires,-37.328506,-59.133528,4.7,56,https://lh3.googleusercontent.com/gps-proxy/ALd4DhG5-PA8ccF1A6fIdRJy4iOAEZQVobw78yiUk_NdNpPgtyZrUXEzY-TDhgjNo56gtLLKjCcZn1kqcwAOvzUJFeI7PUD5nUEaE0FVSfUOQbehiju5N2bKfDhrGYAzzVOxSr9nHxwJZ_tnEMdMk85LzdjC6wVoigtp_NJvb8cIolkR9kPsouyM5dsyhVqFTxLUwa_I-w=w408-h306-k-no,7.0,36,2025-05-04T16:08:51.255Z,Comercio
Lo de Sim贸n.,Tienda de alimentos para animales,,Av. Rivadavia 476,+54 249 406-0266,Tandil,Provincia de Buenos Aires,-37.3312773,-59.1442796,,57,https://lh3.googleusercontent.com/p/AF1QipNLgmWFCj160Gf-Ru5zrmHSRanCulGYn1kYM2nw=w408-h306-k-no,24.0,0,2025-05-04T16:08:51.255Z,Comercio
La Carpinter铆a Indumentaria,Tienda de ropa,https://www.facebook.com/La-Carpinteria-166836270169709/?fref=ts,Mitre 699,+54 249 444-2310,Tandil,Provincia de Buenos Aires,-37.323543,-59.136696,4.3,58,https://lh3.googleusercontent.com/gps-proxy/ALd4DhGmMJU1bUNsfJ5gkwg-V7zLINAxRL3_r2KNNcBBGe2AgxxH0qnz1BDRJ6n--vxCrXS-qHLCrxxi0oT7Le_20kCGDD-RCUUc107sP0O8FZi7dej1cY0ZxhgEN_2ad8a9zUHy8ZhY51iwSFuwz-s0mtQBWE8RiYeXZ9vjWIZ2GDNVC6vnR5cehAk8ZUogY6h9HSJHFrU=w408-h306-k-no,3.0,11,2025-05-04T16:08:51.255Z,Comercio
Ssence Tandil,Tienda de ropa,https://www.ssencestore.com.ar/,rodriguez 621 tandil,+54 9 249 435-4693,Ciudad Aut贸noma de Buenos Aires,Provincia de Buenos Aires,-37.3259935,-59.1367868,5.0,59,https://lh3.googleusercontent.com/p/AF1QipMdExLJO_Ud6WUj2w0DU-Taja3E2V5Wa-kTp0DL=w408-h306-k-no,7.0,1,2025-05-04T16:08:51.255Z,Comercio
Only One,Tienda de regalos,https://www.facebook.com/tandil599,9 de Julio 599,,Tandil,Provincia de Buenos Aires,-37.325823,-59.1350487,4.0,60,https://lh3.googleusercontent.com/p/AF1QipOoEQgQl7Rs_eQPGCcNYjVaoyLN-4D0yEf0SOE3=w426-h240-k-no,23.0,61,2025-05-04T16:08:51.256Z,Comercio
Diet茅ticas Tomy,Tienda de alimentos naturales,http://www.dieteticastomy.com.ar/,San Mart铆n 686,+54 249 451-6507,Tandil,Provincia de Buenos Aires,-37.3258408,-59.1356263,4.4,61,https://lh3.googleusercontent.com/p/AF1QipNUx5S4FN2K4vXZh5iR3spqezq90sLGMwgbf6ld=w408-h306-k-no,3.0,33,2025-05-04T16:08:51.991Z,Comercio
Frutihorticola Volver,Fruter铆a,https://m.facebook.com/FrutihorticolaVolver/?locale2=es_LA,Av. Avellaneda 399,+54 249 438-7541,Tandil,Provincia de Buenos Aires,-37.3348132,-59.1350236,4.7,62,https://lh3.googleusercontent.com/p/AF1QipP5vrxalvb-95iGD1NLUcTvaY8s8RwSzkqduTG9=w426-h240-k-no,21.0,292,2025-05-04T16:08:51.993Z,Comercio
Extra帽o Angel,Tienda de ropa,,9 de Julio 750,+54 249 444-9120,Tandil,Provincia de Buenos Aires,-37.3240856,-59.136354,4.1,63,https://lh3.googleusercontent.com/gps-proxy/ALd4DhE5ZsWg6wnyyE-Yy8612I-dbNED0I-lJvxt-SBP6YOofmNiC7Egb8112pv5GnbCm6JuYN3Zs0PBQnGsUoQGC1AxqpwDOqenqNaYDubuCJCpy63LwsmkfBfL5rnMfYN1tnfO1_xvX7zRevfQZRfRnptE1PlpusaOLpBl5ewel06y2Kfihq0H8WXKK0AWiT8m9S7OUVM=w408-h306-k-no,6.0,7,2025-05-04T16:08:51.993Z,Comercio
Alejandro Belgrano,Tienda de inform谩tica,,Leandro Alem 329,+54 9 249 432-3752,Tandil,Provincia de Buenos Aires,-37.328645,-59.1315899,,64,https://lh3.googleusercontent.com/gps-proxy/ALd4DhGbjMEMjh-7tEJmFu-wj5wXcrCPkjApHgcj0wMql08VzHKFlUqDmhiQKTOc7RzMcBYPdGCPrq2kZIpbHXuiEwhmevRcg2w5HXmoatHfXNMJ3xDP7pjnKObKbwYcOyH8hccB1-fA-xlOefFC47olyqNf69i7wtVYVlx_g-jjOn2anKuKiZ_1e9Qd3MigTG40AtTnQDY=w408-h306-k-no,3.0,0,2025-05-04T16:08:51.993Z,Comercio
Carrefour Market,Supermercado,https://www.carrefour.com.ar/,9 de Julio 548,+54 800-444-8484,Tandil,Provincia de Buenos Aires,-37.3262889,-59.1350953,3.9,65,https://lh3.googleusercontent.com/p/AF1QipOcbSChMCKzDDG0gnOcdcqwxH4nA7jxTMy_qw-f=w426-h240-k-no,117.0,1786,2025-05-04T16:08:51.993Z,Comercio
NyM Cambio,Numism谩tico,,Pinto 709,+54 249 438-7780,Tandil,Provincia de Buenos Aires,-37.3270151,-59.1343925,4.2,66,https://streetviewpixels-pa.googleapis.com/v1/thumbnail?panoid=rEOKfUb-CsjNmmOu2aer3Q&cb_client=search.gws-prod.gps&w=408&h=240&yaw=164.98898&pitch=0&thumbfov=100,1.0,18,2025-05-04T16:08:51.993Z,Comercio
"Maxikiosco ""Sarmiento""",Librer铆a,,"GMO, Sarmiento 763",,Tandil,Provincia de Buenos Aires,-37.3243516,-59.1349974,,67,https://streetviewpixels-pa.googleapis.com/v1/thumbnail?panoid=nE-IV8Jn6H4fgx96lYxdJA&cb_client=search.gws-prod.gps&w=408&h=240&yaw=136.74046&pitch=0&thumbfov=100,1.0,0,2025-05-04T16:08:51.994Z,Comercio
Alen's,Joyer铆a,,Gral. Rodr铆guez 755,+54 249 442-4154,Tandil,Provincia de Buenos Aires,-37.3245523,-59.1378482,4.3,68,https://lh3.googleusercontent.com/gps-proxy/ALd4DhFOQAPm6FSru4dN3-a9HtwLXuakW0_geqw9wrrq-MBDCFCZiSJvmpTwKdiPeANsNDPe76BHghgcKxL1cQDtKSf9QU1PEZM8fLkgflS0HC03evsEzi9LyQB6Y4UFL7DeNbBE27DQHQv6xM9E4-mL4qPZIxz7SuPKKslJUOS54Y8klFi-uTzXux8HTT2ZXJyZkg7jRtc=w408-h306-k-no,2.0,4,2025-05-04T16:08:51.994Z,Comercio
Ferreteria el Cid,Ferreter铆a,,Av. Espa帽a 701,+54 249 444-8544,Tandil,Provincia de Buenos Aires,-37.3223069,-59.137139,4.3,69,https://lh3.googleusercontent.com/gps-proxy/ALd4DhEm0YRjUJx39Pq9hrLwxC7U3aB737GxBmybGJGTl3RcRIx7eIc3Qhzwxt-Sr5UMvyqYdt4FlfMZLfSkTC04CFij1OnPbi5MgXA2ZgXWKSoHRJwNDiWwiysBm9hCzuXGzXLm-GTIezLxf9OUFBBNt9HPgf0AabIAvBMaKtLM7s4Un4xJd_Xttmbf2R9_SAuoIj88grg=w408-h306-k-no,9.0,122,2025-05-04T16:08:51.994Z,Comercio
Playschool libreria y kiosco,Librer铆a,,Belgrano 1310,+54 249 436-5455,Tandil,Provincia de Buenos Aires,-37.3248311,-59.1246395,4.7,70,https://lh3.googleusercontent.com/p/AF1QipMlda5jqLrK6goaCs8Ud1mZ5jTbCNJEDAUGoUvj=w425-h240-k-no,13.0,35,2025-05-04T16:08:51.994Z,Comercio
Margaritas,Tienda de ropa,,Av. Per贸n 1020,,Tandil,Provincia de Buenos Aires,-37.3242889,-59.1482657,4.7,71,https://streetviewpixels-pa.googleapis.com/v1/thumbnail?panoid=MV44cvHijQKp4tCmiuxx4w&cb_client=search.gws-prod.gps&w=408&h=240&yaw=248.95592&pitch=0&thumbfov=100,1.0,65,2025-05-04T16:08:51.994Z,Comercio
Avicola El Sabor,Tienda de alimentaci贸n,,Mitre 464,+54 249 465-9251,Tandil,Provincia de Buenos Aires,-37.3245738,-59.139973,5.0,72,https://streetviewpixels-pa.googleapis.com/v1/thumbnail?panoid=S6dGLxWbTxLIogUxw9M9Iw&cb_client=search.gws-prod.gps&w=408&h=240&yaw=353.17505&pitch=0&thumbfov=100,1.0,1,2025-05-04T16:08:51.994Z,Comercio
OSSK,Tienda de ropa,,Gral. Rodr铆guez 749,,Tandil,Provincia de Buenos Aires,-37.3246512,-59.1376006,,73,https://streetviewpixels-pa.googleapis.com/v1/thumbnail?panoid=9motu-sZ-_n4loN08sNKMg&cb_client=search.gws-prod.gps&w=408&h=240&yaw=40.073357&pitch=0&thumbfov=100,1.0,0,2025-05-04T16:08:51.994Z,Comercio
El Ojo de Ugin,Cafeter铆a,,Hip贸lito Yrigoyen 731,+54 249 465-1688,Tandil,Provincia de Buenos Aires,-37.3252248,-59.1386664,4.8,74,https://lh3.googleusercontent.com/p/AF1QipOx2uEnvOPS4g7cnK6nLYzPfutsyr2VsFLxv20s=w408-h272-k-no,236.0,286,2025-05-04T16:08:51.994Z,Comercio
Bringeri Hogar,Tienda de electr贸nica,https://www.bringerihogar.com.ar/,9 de Julio 634,,Tandil,Provincia de Buenos Aires,-37.325473,-59.1356908,3.8,75,https://lh3.googleusercontent.com/p/AF1QipO_Agj0H0KA4ec1Vo7Pa3hsq3LgzRszD_up7Oks=w408-h270-k-no,4.0,18,2025-05-04T16:08:51.994Z,Comercio
QDEP,Tienda de ropa,https://qdep.mitiendanube.com/?utm_source=nube_keyboard&utm_medium=store_share&utm_campaign=nube_keyboard,Gral. Rodr铆guez 256,+54 249 421-6249,Tandil,Provincia de Buenos Aires,-37.3307201,-59.1342342,,76,https://lh3.googleusercontent.com/p/AF1QipM0AGV1eJCGN6hPG4HoJwgJBxQIaMg6HX0PJVp-=w408-h544-k-no,13.0,0,2025-05-04T16:08:51.994Z,Comercio
Buzzella Hogar S.A,Tienda de art铆culos para el hogar,,9 de Julio 130,+54 249 442-6203,Tandil,Provincia de Buenos Aires,-37.3315836,-59.1319427,4.6,77,https://lh3.googleusercontent.com/p/AF1QipP9iIS9EF-CQ8EtJe_cUyOQeD-AjHcTRKxnOknt=w408-h544-k-no,7.0,259,2025-05-04T16:08:51.994Z,Comercio
Los Troncos Panaderia & Comidas,Panader铆a,,"Maipu esq, 4 de Abril",+54 249 428-1701,Tandil,Provincia de Buenos Aires,-37.3273734,-59.12704,3.9,78,http://t0.gstatic.com/images?q=tbn:ANd9GcSJrapZE0ygv3AAi9wVEYIze1Z5ddwCqLz_K-gYuCdQKKoWp8Pt,44.0,51,2025-05-04T16:08:51.994Z,Comercio
Vinoteca El Tronador,Tienda de vinos,,Av. Santamarina 145,+54 249 444-6937,Tandil,Provincia de Buenos Aires,-37.3295784,-59.1273528,4.6,79,https://lh3.googleusercontent.com/p/AF1QipOoFk6f309DJWx2igo9j0YhhTlmmWZKpeRbF8HW=w408-h680-k-no,19.0,299,2025-05-04T16:08:51.994Z,Comercio
Secretos Compartidos,Tienda de ropa,,"GMO, Sarmiento 797",,Tandil,Provincia de Buenos Aires,-37.3242162,-59.1345608,,80,https://lh3.googleusercontent.com/p/AF1QipPNE4dI0Db4sCZU0hrXTZlxeMlzHuxYDg1PHfIm=w425-h240-k-no,2.0,0,2025-05-04T16:08:51.994Z,Comercio
Ferreter铆a Belgrano,Ferreter铆a,,Belgrano 1402,+54 249 422-5278,Tandil,Provincia de Buenos Aires,-37.3243001,-59.1231927,4.4,81,https://lh3.googleusercontent.com/p/AF1QipO16lnB6F2Mf7TVNp_-4CUEEqQHgw5cjOX1xLo2=w426-h240-k-no,11.0,115,2025-05-04T16:08:52.828Z,Comercio
La Queser铆a,Queser铆a,,Gral. Rodr铆guez 299,+54 249 452-7699,Tandil,Provincia de Buenos Aires,-37.330131,-59.134356,4.5,82,https://lh3.googleusercontent.com/p/AF1QipM4tffGJkce4wdcvaHo8wPVaZ1xOO-zuZwW83qI=w408-h306-k-no,169.0,530,2025-05-04T16:08:52.829Z,Comercio
Ivka,Tienda de accesorios de moda,,Sarmiento 505,+54 249 438-8558,Tandil,Provincia de Buenos Aires,-37.3257226,-59.1385309,5.0,83,https://lh3.googleusercontent.com/p/AF1QipMjBlp9ryb7UYCJ8kv-v_utdZ7pmf5QA025Zm8C=w408-h725-k-no,16.0,6,2025-05-04T16:08:52.829Z,Comercio
Tienda la Razon,Tienda de ropa,,9 de Julio 474,+54 249 442-6352,Tandil,Provincia de Buenos Aires,-37.3275176,-59.134319,4.7,84,https://lh3.googleusercontent.com/p/AF1QipNQRgL2Q4gfUGuenuNxkqIYA4_1R2uEGJOxbetF=w520-h240-k-no,27.0,9,2025-05-04T16:08:52.829Z,Comercio
Casa Sampietro,Tienda de art铆culos para el hogar,https://sampietroweb.com.ar/,"9 de Julio, San Mart铆n esquina",+54 810-333-6534,Tandil,Provincia de Buenos Aires,-37.3258321,-59.1352677,4.0,85,https://streetviewpixels-pa.googleapis.com/v1/thumbnail?panoid=ZT78iD49rfaEDh89mTXNbA&cb_client=search.gws-prod.gps&w=408&h=240&yaw=188.1569&pitch=0&thumbfov=100,2.0,4,2025-05-04T16:08:52.829Z,Comercio
One Cell,Tienda de CDs,,Gral. Rodr铆guez 668,+54 249 442-4746,Tandil,Provincia de Buenos Aires,-37.3255895,-59.1372288,4.0,86,https://lh3.googleusercontent.com/p/AF1QipN6nVi0t0D72NnOiJw4XX4yWpyUEpeNmgLu7L1z=w408-h300-k-no,3.0,65,2025-05-04T16:08:52.829Z,Comercio
Panaderia & Confiteria Laura Elaboracion Artesanal,Panader铆a,,Sarmiento 481,+54 249 438-7002,Tandil,Provincia de Buenos Aires,-37.3257807,-59.1390397,3.7,87,https://streetviewpixels-pa.googleapis.com/v1/thumbnail?panoid=V_5qWvlf-YbvyefkxrgMxQ&cb_client=search.gws-prod.gps&w=408&h=240&yaw=53.855717&pitch=0&thumbfov=100,1.0,3,2025-05-04T16:08:52.829Z,Comercio
MATELEC,Tienda de electricidad,http://www.matelec.com.ar/,"Leandro N, Leandro Alem 725",+54 249 444-4445,Tandil,Provincia de Buenos Aires,-37.3236985,-59.1346055,4.4,88,https://lh3.googleusercontent.com/p/AF1QipNZCAKMqWmsnD-YG8Nq3j4qmGYUo9Rw62acB5l4=w408-h544-k-no,140.0,499,2025-05-04T16:08:52.829Z,Comercio
Fruter铆a Pocholo,Fruter铆a,,,,Tandil,Provincia de Buenos Aires,-37.3329951,-59.1417566,,89,https://streetviewpixels-pa.googleapis.com/v1/thumbnail?panoid=JvBNSq-2HeXVpYr1iu02kw&cb_client=search.gws-prod.gps&w=408&h=240&yaw=149.30237&pitch=0&thumbfov=100,1.0,0,2025-05-04T16:08:52.829Z,Comercio
PINTURERIA WOLPE,Tienda de pinturas,,,,Tandil,Provincia de Buenos Aires,-37.3233362,-59.1399798,,90,https://streetviewpixels-pa.googleapis.com/v1/thumbnail?panoid=whpj0BGPQU6Sw1_qRpPwwQ&cb_client=search.gws-prod.gps&w=408&h=240&yaw=77.84589&pitch=0&thumbfov=100,1.0,0,2025-05-04T16:08:52.829Z,Comercio
Joyeria Riz,Joyer铆a,,San Mart铆n 581,+54 249 452-3132,Tandil,Provincia de Buenos Aires,-37.326637,-59.1373017,5.0,91,https://lh3.googleusercontent.com/gps-proxy/ALd4DhE0YCLrSZpD9F7QO7IXN1IWUXfXzik0_IW-KORDTqI3-JdkImxVbW5ZcGxBPDFIBRydBuMtFri7kzi14FzSs8TNZAv89OlcgZZt8bBro4_BWrNBEttR1UGCoBWYrBz7e__gDFUPBEHS5fiiZfFBORtuN2Qg7q-PujVR-gGlJtND10wobDadYDT4Y4e5jCAyGmDX5ZE=w408-h306-k-no,3.0,7,2025-05-04T16:08:52.829Z,Comercio
Dash Deportes,Tienda de ropa,https://www.tiendadash.com.ar/,9 de Julio 698,+54 11 5944-6655,Tandil,Provincia de Buenos Aires,-37.3247347,-59.1360236,4.2,92,https://lh3.googleusercontent.com/gps-proxy/ALd4DhEQAICwZakW7yVO42tYEzgNn_JYx3xd56am1Q7viiN4sTS19jEnLSFc654wW3GOPj4qI4GXFoM2M5t98r7YogSpGGv1NsbaMctLNhkQnWgu0SA3eH0iYbStXG4KqmPW0nsYi4IOlGh08GQjUEPHtBwNNXsPwHPRuuo5wihAw8KrwaBhDM3FEPnEnm-j-9nO8FrGcak=w408-h306-k-no,4.0,103,2025-05-04T16:08:52.830Z,Comercio
En Cueros,Tienda de ropa,,Pinto 935 Loc. 8,+54 249 442-4954,Tandil,Provincia de Buenos Aires,-37.3257532,-59.1311081,4.8,93,https://lh3.googleusercontent.com/gps-proxy/ALd4DhHc4H0gFezdb-2KCi81hoYC0yB3RLt_7NHgjy0QV_GuHhP_EHxddBxCr_gTa3DaX11l50AbclxPVP0HPt7OIVQ45ssMCMAydWLDCpQNYT8JDN9Q9ouAKqxk8PPP0_-KNNzmQffQn5O2m9iVcgwYOymUg4JQiXJzz6COxZRHCJ2MP4oQhE3B6PQcMrBzGrB6XV6J-YI=w408-h306-k-no,7.0,12,2025-05-04T16:08:52.830Z,Comercio
Free Zone,Soporte y servicios inform谩ticos,https://www.facebook.com/freezonecomputacion/,Av. Espa帽a 158,+54 249 463-4074,Tandil,Provincia de Buenos Aires,-37.3249369,-59.1451023,4.4,94,https://lh3.googleusercontent.com/p/AF1QipO4-bU56lFp6RIp-agsedhf_lIDW_eLQmS4ywlu=w408-h306-k-no,4.0,36,2025-05-04T16:08:52.831Z,Comercio
Santeria Maria de Nazaret,Tienda de art铆culos religiosos,,Belgrano 511,+54 249 443-3537,Tandil,Provincia de Buenos Aires,-37.3294066,-59.1360974,5.0,95,https://lh3.googleusercontent.com/p/AF1QipMu0Z5edZ_901BkeUjsdtBUnizN2eov4DY-0mj1=w426-h240-k-no,8.0,5,2025-05-04T16:08:52.831Z,Comercio
Lady Big,Tienda de ropa,,Alberdi 478,+54 249 454-1054,Tandil,Provincia de Buenos Aires,-37.3306509,-59.1428967,,96,https://lh3.googleusercontent.com/p/AF1QipPHzhYQe9zJAz3jYntAWe8SRdQEvxU4Qc80QVsY=w408-h642-k-no,6.0,0,2025-05-04T16:08:52.831Z,Comercio
Kiosko,Tienda de alimentaci贸n,,Pinto 1097,,Tandil,Provincia de Buenos Aires,-37.3247559,-59.128607,3.6,97,https://streetviewpixels-pa.googleapis.com/v1/thumbnail?panoid=SPUAJWfoe6Ga7S8pT49srw&cb_client=search.gws-prod.gps&w=408&h=240&yaw=186.4893&pitch=0&thumbfov=100,1.0,5,2025-05-04T16:08:52.831Z,Comercio
Lacteos Y C铆a,Tienda de productos l谩cteos,,"B7000GKP, Maip煤 1135",+54 249 436-1736,Tandil,Provincia de Buenos Aires,-37.3271546,-59.1264791,4.5,98,https://lh3.googleusercontent.com/p/AF1QipNtqdzaQq9_01ZNg0wxyN0GdxXGS8chJVTMDc1y=w408-h306-k-no,3.0,192,2025-05-04T16:08:52.831Z,Comercio
Somos M,Tienda de ropa de mujer,http://somosm.mitiendanube.com/,Leandro Alem 850,+54 9 249 400-6257,Tandil,Provincia de Buenos Aires,-37.3224691,-59.1356572,,99,https://lh3.googleusercontent.com/p/AF1QipMM_4G0h4_mCZohM5h7YZjJA8m9y2m5qxmVkv_S=w408-h261-k-no,2.0,0,2025-05-04T16:08:52.831Z,Comercio
Zoobichos,Tienda de productos para mascotas,,9 de Julio 301 7000,+54 249 444-4466,Tandil,Provincia de Buenos Aires,-37.3294103,-59.132996,4.5,100,https://lh3.googleusercontent.com/p/AF1QipOYGdXNPJsCf2YF21eIUAmBxDhqb0sVQOvM9O6R=w426-h240-k-no,72.0,633,2025-05-04T16:08:52.831Z,Comercio
Centro Pinturer铆as,Tienda de pinturas,https://www.pintureriasdelcentro.com/,Sarmiento 898,+54 249 453-7228,Tandil,Provincia de Buenos Aires,-37.3234212,-59.1332612,4.7,101,https://lh3.googleusercontent.com/p/AF1QipMnB3kwe_GIMBiOkqalJ_GnfH-FtShFGu00Qgrx=w426-h240-k-no,15.0,195,2025-05-04T16:08:53.522Z,Comercio
Scigliano & Bollier,Tienda de mobiliario de oficina,,Leandro Alem 810,+54 249 442-5231,Tandil,Provincia de Buenos Aires,-37.322828,-59.135417,4.5,102,https://lh3.googleusercontent.com/gps-proxy/ALd4DhF4oGxZWiC7fFvkrEmNdNvnF5g6rIw2ltYmK1knJ0HmhA78ekllex2qMUAvK-9OksHnFgvCvOV-YW6wPEvFNvqZs90mSyzAumQTBsgScEivmYH-rHn4tGpOC3ay0awrGln10RUVp0BT-tPZFDdamYM96pxhlVsHf2Cv3imXOMKpprQVONzeJlSsop1If9_J-7ANQQ=w408-h306-k-no,6.0,20,2025-05-04T16:08:53.522Z,Comercio
Bon O Bon,Tienda de alimentaci贸n,,San Mart铆n 335,,Tandil,Provincia de Buenos Aires,-37.3277981,-59.1401495,,103,https://streetviewpixels-pa.googleapis.com/v1/thumbnail?panoid=iG9gmKNPIPdpOgBQurZBqw&cb_client=search.gws-prod.gps&w=408&h=240&yaw=143.01813&pitch=0&thumbfov=100,2.0,0,2025-05-04T16:08:53.522Z,Comercio
Hernan_colorista venta de pinturas automotriz,Tienda de pinturas,,Cnel. Brandsen 565,+54 249 427-8361,Tandil,Provincia de Buenos Aires,-37.3304785,-59.1461658,,104,https://streetviewpixels-pa.googleapis.com/v1/thumbnail?panoid=oQAB1ROPIhm7_rG9LlteZw&cb_client=search.gws-prod.gps&w=408&h=240&yaw=82.02894&pitch=0&thumbfov=100,1.0,0,2025-05-04T16:08:53.522Z,Comercio
PC Home Computaci贸n,Tienda de inform谩tica,http://www.pchome.com.ar/,Hip贸lito Yrigoyen 588,+54 249 442-8146,Tandil,Provincia de Buenos Aires,-37.3271102,-59.138066,4.5,105,https://lh3.googleusercontent.com/p/AF1QipORIaJAoNspF9Q9tNvVKSEK68TV_R3FVKl0lG_t=w427-h240-k-no,112.0,88,2025-05-04T16:08:53.522Z,Comercio
Ruanaway Showroom ,Tienda de ropa,,Gral. Roca 60,+54 249 423-4640,Tandil,Provincia de Buenos Aires,-37.3289741,-59.1225593,5.0,106,https://lh3.googleusercontent.com/p/AF1QipNQI9YMG-AQGYMovxyEkoHwH8qmsVR-oE_rJHQj=w408-h725-k-no,24.0,4,2025-05-04T16:08:53.522Z,Comercio
HUQUE Taller de dise帽o,Imprenta,,9 de Julio 54,,Tandil,Provincia de Buenos Aires,-37.3324277,-59.131482,5.0,107,https://streetviewpixels-pa.googleapis.com/v1/thumbnail?panoid=wjWNRgBRN4NjTup5c_5u5Q&cb_client=search.gws-prod.gps&w=408&h=240&yaw=257.97836&pitch=0&thumbfov=100,1.0,3,2025-05-04T16:08:53.522Z,Comercio
Reynas,Tienda de ropa de mujer,,Gral. Rodr铆guez 915,+54 249 442-8361,Tandil,Provincia de Buenos Aires,-37.3224825,-59.1388186,,108,https://lh3.googleusercontent.com/gps-proxy/ALd4DhHxe3KIxAlT6Th79tlMDQGem4-Yah2id8qn38wJ1dEEt1Ml3CXpslsaQzL8OW_e2NlVScupJ4hW9j1VOaK05IjTUM8yonoAQE3jsZLKpSAN5sZJ-7iUAB5EE9mW6dsXe3WLF_vmx0xQ79FpBdgS7tXv4tWENTMXKyaQyH7dzlGnHxCFOPkuOWLzdKxBiwV5hJGh77k=w408-h306-k-no,5.0,0,2025-05-04T16:08:53.522Z,Comercio
Vivi Fashion,Tienda de ropa,,Gral. Rodr铆guez 898,,Tandil,Provincia de Buenos Aires,-37.3231347,-59.1386858,,109,https://streetviewpixels-pa.googleapis.com/v1/thumbnail?panoid=cnAdrR_j0AH4zeQchl_VMg&cb_client=search.gws-prod.gps&w=408&h=240&yaw=214.3186&pitch=0&thumbfov=100,1.0,0,2025-05-04T16:08:53.523Z,Comercio
Rusconi Aldo Flavio Rusconi Os,Tienda de ropa,,Garibaldi 241,+54 249 438-7013,Tandil,Provincia de Buenos Aires,-37.3234303,-59.1443976,,110,https://streetviewpixels-pa.googleapis.com/v1/thumbnail?panoid=6zF5PM73lDfsP-4322zqdg&cb_client=search.gws-prod.gps&w=408&h=240&yaw=158.07175&pitch=0&thumbfov=100,1.0,0,2025-05-04T16:08:53.523Z,Comercio
Portsaid,Tienda de ropa,,Gral. Paz 583,,Tandil,Provincia de Buenos Aires,-37.3249887,-59.1320353,,111,https://streetviewpixels-pa.googleapis.com/v1/thumbnail?panoid=3j-YYzaXtlAOouzwlP821A&cb_client=search.gws-prod.gps&w=408&h=240&yaw=65.58564&pitch=0&thumbfov=100,1.0,0,2025-05-04T16:08:53.523Z,Comercio
"Facturer铆a ""Facturas De Tandil""",Panader铆a,,Constituci贸n 425,,Tandil,Provincia de Buenos Aires,-37.3331791,-59.1352988,5.0,112,https://streetviewpixels-pa.googleapis.com/v1/thumbnail?panoid=hPA-Z48cik9Ltd3fT6Di-w&cb_client=search.gws-prod.gps&w=408&h=240&yaw=326.23557&pitch=0&thumbfov=100,1.0,5,2025-05-04T16:08:53.523Z,Comercio
Calchero,Tienda de ropa infantil,,9 de Julio 656,+54 249 444-5443,Tandil,Provincia de Buenos Aires,-37.3251436,-59.1357087,4.4,113,https://lh3.googleusercontent.com/gps-proxy/ALd4DhF3YQimFW0KTwlDybLbpAKIKq89trscFXOKXuN4ZAeler7RTpedKoCjHQ-CuBe-B0M49a4FeIvXTMz099jvKty-kB27Sjnchy5xGCPASBv79vbja0ckT4qyIdtrPZDkPavEsQ6NEZleMXZFrAL3eMZng3VRqubqXlmDKoToG3B_y4in6eFxTU98pp2kJnRMjoxbVBU=w408-h306-k-no,7.0,8,2025-05-04T16:08:53.523Z,Comercio
Mas-Son,Boutique,,Av. Sim贸n Bol铆var 269,+54 249 442-8876,Tandil,Provincia de Buenos Aires,-37.3346115,-59.1247045,5.0,114,https://lh3.googleusercontent.com/gps-proxy/ALd4DhHdQxDkAF3tCPth3BLz-FQW6ORSYokJlj_Dm0IZHfqp_RLrj1dR6qWZ5O9HiQAzyEBDg3pdbyFUxPfqgg8K4F4w9rAYaS4Nl7EC6jeel5YAX_uSQG7HJ_6P-IewHFRU0GnlwqwNTYuJEpQ0AgXhsnpV6X-7i0iXjdIEjd5ycQbu0PI2IsZrcz06YkYv-YILF8vhW48=w408-h306-k-no,2.0,1,2025-05-04T16:08:53.523Z,Comercio
La Pilcher铆a,Tienda de ropa de mujer,,San Mart铆n 730 Local 33,+54 249 438-7750,GKP,Provincia de Buenos Aires,-37.3255454,-59.1349817,,116,https://lh3.googleusercontent.com/gps-proxy/ALd4DhGKDYnQQffnrFi97WU1BBQOai46bUAMmByhXbqFoovtfYguUGob10pjebZ3eV7Ny0qYFgV62ObNVFLGblmlGNJIfRbF2NLgVOaq3284ITO2886fpC8_8QnZDznPr3AWz04DScg31-UM3d3WqYTmHcoOp3Wdd05qXvvxxZdDIxqsjmwevJEmYOzY3WQAeWf1NumEP7w=w408-h306-k-no,2.0,0,2025-05-04T16:08:53.523Z,Comercio
Calzados Mell,Zapater铆a,,Pinto 615,+54 249 444-5349,Tandil,Provincia de Buenos Aires,-37.3274992,-59.1357615,3.0,117,https://streetviewpixels-pa.googleapis.com/v1/thumbnail?panoid=NidS7VpEINBuZAacJVRPSA&cb_client=search.gws-prod.gps&w=408&h=240&yaw=176.28914&pitch=0&thumbfov=100,1.0,2,2025-05-04T16:08:53.523Z,Comercio
Ortopedia Medac,Zapater铆a,,Sarmiento 557,,Tandil,Provincia de Buenos Aires,-37.3254796,-59.1380462,,118,https://streetviewpixels-pa.googleapis.com/v1/thumbnail?panoid=TxJotn78w4CxxzxJcIiPNA&cb_client=search.gws-prod.gps&w=408&h=240&yaw=165.73125&pitch=0&thumbfov=100,1.0,0,2025-05-04T16:08:53.523Z,Comercio
Capibara cafe,Cafeter铆a,,,,Tandil,Provincia de Buenos Aires,-37.3287999,-59.1367167,5.0,119,,,2,2025-05-04T16:08:53.523Z,Comercio
Joyeria Renata,Joyer铆a,,"AON, Gral. Rodr铆guez 676",,Tandil,Provincia de Buenos Aires,-37.3255327,-59.137301,4.4,120,https://lh3.googleusercontent.com/p/AF1QipMxRxJ5FAzB22wNfnM32tZZVdmDPHeLeZm2_T5l=w408-h544-k-no,2.0,8,2025-05-04T16:08:53.523Z,Comercio
Despensa el sol,Tienda general,,PV95+6H,,Tandil,Provincia de Buenos Aires,-37.2819314,-59.1410505,5.0,1,https://lh3.googleusercontent.com/p/AF1QipN1X7SXLC_kCNZ3QgtTcqwhqPimik7P1blq1Ji3=w408-h906-k-no,4.0,3,2025-05-04T16:08:54.764Z,Comercio
Comercial TDL srl,Tienda de materiales para la construcci贸n,https://www.comercialtdl.com.ar/,"37.273761, -59 154563",+54 249 461-4000,Tandil,Provincia de Buenos Aires,-37.2741697,-59.1549331,4.9,6,https://lh3.googleusercontent.com/p/AF1QipN35hhxMGJndR-MVKjoF7FBGhUw7hrvsIhQHTwv=w408-h444-k-no,19.0,10,2025-05-04T16:08:54.764Z,Comercio
La Blanqueada,Comercio,,RN226 km 170,,Tandil,Provincia de Buenos Aires,-37.2929924,-59.1474648,4.3,7,https://lh3.googleusercontent.com/p/AF1QipNeZw_k1DG1MniwHK69qSZ0BHLbnEqJHmDWYbf7=w408-h306-k-no,19.0,20,2025-05-04T16:08:54.764Z,Comercio
MERCADO ZARCOIRIS,Tienda de alimentaci贸n,,Entre R铆os,,Tandil,Provincia de Buenos Aires,-37.2916496,-59.1574893,,9,https://streetviewpixels-pa.googleapis.com/v1/thumbnail?panoid=fHXvflU9ixJe1nQcysCbcQ&cb_client=search.gws-prod.gps&w=408&h=240&yaw=164.20619&pitch=0&thumbfov=100,1.0,0,2025-05-04T16:08:54.764Z,Comercio
ALI-MAR Pilchas,Tienda de ropa,,Independencia 2346,+54 249 431-2772,Tandil,Provincia de Buenos Aires,-37.2913161,-59.1196088,4.5,15,https://lh3.googleusercontent.com/p/AF1QipPIJOCjGiu7D-t2hBdcz2KAQOe7A9fHPTq3QSIV=w408-h544-k-no,11.0,2,2025-05-04T16:08:54.765Z,Comercio
MAS Neum谩ticos multi marcas,Comercio,,Bereterbide 1437,+54 2244 42-4119,Tandil,Provincia de Buenos Aires,-37.2940409,-59.1455577,,17,https://lh3.googleusercontent.com/p/AF1QipMqMO7lfTdzH1S8m8J1iYeLe97t0h6xW-y086vo=w408-h306-k-no,4.0,0,2025-05-04T16:08:54.765Z,Comercio
Los nietitos,Supermercado,,Ameghino 2363,,Tandil,Provincia de Buenos Aires,-37.2892106,-59.1205189,4.8,19,,,5,2025-05-04T16:08:54.765Z,Comercio
Mini Suitis,Cafeter铆a,https://m.facebook.com/pages/category/Kitchen-Cooking/Mini-Suitis-202380773503172/,Constituci贸n 501,+54 249 436-6320,Tandil,Provincia de Buenos Aires,-37.3329741,-59.1342523,4.5,121,https://lh3.googleusercontent.com/p/AF1QipMOkj1Nc2DYj60wcnvTS6xr7NZ4iLpDTW0dwfWf=w426-h240-k-no,148.0,202,2025-05-04T16:08:54.950Z,Comercio
Lencer铆a Dana,Tienda de lencer铆a,,Sarmiento 592,+54 249 444-6684,Tandil,Provincia de Buenos Aires,-37.3251933,-59.1377082,4.0,122,https://lh3.googleusercontent.com/gps-proxy/ALd4DhGTRWpjXH-VT-0yH7WWD1P6ont2-kUhN9CaPXAjOJNn7GFIDeuGWUHO_DZoJ7KMYZNBfkFN6Yu4fJtGNpCMQkUCgMbc9TP0TFq4DB0EjVgKQEyCx4vjb3TFn1B8Ig_DbJG7KQnkAvarGWBY7i21XybkqIa-lfiNJ5TdTaq80xBl-YmfWZGu5UDz70NRSvucY_Dqd_Y=w408-h306-k-no,2.0,37,2025-05-04T16:08:54.950Z,Comercio
Zapateria Angel Express,Zapater铆a,,San Mart铆n 602,+54 249 442-5939,Tandil,Provincia de Buenos Aires,-37.3262681,-59.1366744,4.0,123,https://streetviewpixels-pa.googleapis.com/v1/thumbnail?panoid=mY0GLk8KkAaiqd9Zy6dwKw&cb_client=search.gws-prod.gps&w=408&h=240&yaw=357.5371&pitch=0&thumbfov=100,1.0,1,2025-05-04T16:08:54.950Z,Comercio
Metal Rock,Tienda de ropa,,Sarmiento 849,+54 249 457-6231,Tandil,Provincia de Buenos Aires,-37.3239957,-59.1337272,4.6,124,https://lh3.googleusercontent.com/gps-proxy/ALd4DhGfm14GnC8VnCe_8IUkhSObm5Sx0VlM_tnKXOPN_y1b7ebiLR9oDM2z2kCSQqsFKD1L6p7v0QMsZVk8hYW9zCB_ScQAj_y9BMWkAdbqOEHWmfy2Edh5Bi5ITzlXW7Qs4KiGJ720T3dzMoUWbm-aqhWIsoayaw41yaWNQ0q94mjqDdoMwIptqYLsArNLOFqbRJgtwxI=w408-h306-k-no,11.0,8,2025-05-04T16:08:54.950Z,Comercio
A Todo Color,Tienda de materiales para la construcci贸n,,Av. Santamarina 165,,Tandil,Provincia de Buenos Aires,-37.3293391,-59.1274778,,125,https://streetviewpixels-pa.googleapis.com/v1/thumbnail?panoid=OQEqwF1KPP9CZnUweJdRKA&cb_client=search.gws-prod.gps&w=408&h=240&yaw=50.52212&pitch=0&thumbfov=100,1.0,0,2025-05-04T16:08:54.950Z,Comercio
La Vereda,Cafeter铆a,https://www.instagram.com/lavereda_cafebar/,9 de Julio 578,+54 249 442-6796,Tandil,Provincia de Buenos Aires,-37.326102,-59.1352063,4.3,126,https://lh3.googleusercontent.com/p/AF1QipO60GbTU7UBnWrMLL9tPM5T5GDYlAuSohd_8eE7=w426-h240-k-no,851.0,2173,2025-05-04T16:08:54.950Z,Comercio
Alma Teen,Tienda de ropa,https://almateentienda.mercadoshops.com.ar/,Belgrano 849,+54 249 462-7096,Tandil,Provincia de Buenos Aires,-37.32759,-59.1315191,4.8,127,https://lh3.googleusercontent.com/p/AF1QipPbDKqgx2YOoPHIypFR0a3ylQSyi-WK6PgdpJ1c=w408-h306-k-no,4.0,4,2025-05-04T16:08:54.950Z,Comercio
ApplephoneOficial,Tienda de m贸viles,,Belgrano 767,,Tandil,Provincia de Buenos Aires,-37.3280989,-59.132759,,128,https://streetviewpixels-pa.googleapis.com/v1/thumbnail?panoid=hiO7xQR9TO4YOUYisyNXxQ&cb_client=search.gws-prod.gps&w=408&h=240&yaw=143.98734&pitch=0&thumbfov=100,1.0,0,2025-05-04T16:08:54.950Z,Comercio
MA Hombre&Mujer,Tienda de ropa,https://www.instagram.com/ma_hombremujer/,Av. Espa帽a 323,+54 4200867,Tandil,Provincia de Buenos Aires,-37.3242907,-59.1423223,,129,https://lh3.googleusercontent.com/p/AF1QipOlv4VPgZSk9YgFfp8vZUFr17aBAGDfLiwaBjY=w426-h240-k-no,3.0,0,2025-05-04T16:08:54.950Z,Comercio
Panader铆a del Sol,Panader铆a,https://www.instagram.com/panaderiasdelsoltandil/?hl=es,Gral. Paz 529,+54 249 401-7792,Tandil,Provincia de Buenos Aires,-37.3254362,-59.1317716,4.3,130,https://streetviewpixels-pa.googleapis.com/v1/thumbnail?panoid=7HQuS5IQUWStqfLf3TOfgg&cb_client=search.gws-prod.gps&w=408&h=240&yaw=97.60414&pitch=0&thumbfov=100,2.0,15,2025-05-04T16:08:54.950Z,Comercio
Librer铆as El Atril Tandil,Librer铆a,https://www.elatril.com.ar/,Gral. Rodr铆guez 891,+54 810-220-5427,Tandil,Provincia de Buenos Aires,-37.3230401,-59.1384971,5.0,131,https://lh3.googleusercontent.com/p/AF1QipN7A9Qugi2vLGLtG6iED6m2nryiRQL_11ETFPio=w408-h306-k-no,4.0,5,2025-05-04T16:08:54.950Z,Comercio
Plumitas,Poller铆a,,Av. Avellaneda 1178,+54 249 446-7109,Tandil,Provincia de Buenos Aires,-37.3302725,-59.1238675,5.0,132,https://lh3.googleusercontent.com/p/AF1QipNZPXIR947O9zdOjkQNk0GJJQmX_xDSG6OpDJt_=w428-h240-k-no,5.0,10,2025-05-04T16:08:54.950Z,Comercio
Di. Mayer,Zapater铆a,,"GON, Mitre 656",+54 249 442-9122,Tandil,Provincia de Buenos Aires,-37.3236449,-59.1374443,5.0,133,https://lh3.googleusercontent.com/gps-proxy/ALd4DhG0vuvVy3V7jm1BK4aa5WWAZxPOnhaz-rS9DviBtaGqAsRmmWu2zFDBlE9I5MapOmLwVMDtdX5hdoMmXBeR_3ih8xVoGALiTdeafl5RahHETgRuPaRQb6LqJya2kE1i4Od3pKkpbuhJoYTbCvLN1RiulULDOyEGRdXx4sWsI0_KpSvrWUlvT-kFWYhi5q4KCGQMVA=w408-h306-k-no,2.0,1,2025-05-04T16:08:54.950Z,Comercio
El Atelier del Tapicero,Tapicer铆a,,Av Espa帽a 403 Espa帽a esquina Chacabuco,+54 249 402-6731,Tandil,Provincia de Buenos Aires,-37.3238183,-59.1412649,5.0,134,https://lh3.googleusercontent.com/p/AF1QipPnQWguIU9wpnNs64wnzmVomCUFhcDjW6A8DVKq=w426-h240-k-no,37.0,2,2025-05-04T16:08:54.951Z,Comercio
LA PACHA almac茅n de frutas y verduras,Fruter铆a,https://instagram.com/lapachatandil?igshid=YmMyMTA2M2Y=,14 de Julio 596,+54 249 421-5444,Tandil,Provincia de Buenos Aires,-37.3280119,-59.1407014,,135,https://lh3.googleusercontent.com/p/AF1QipNxcyv8Oqki-zFXyGocxBQWC1H1orbRquEeQ9S3=w426-h240-k-no,20.0,0,2025-05-04T16:08:54.951Z,Comercio
Cinderella Shoes,Tienda de botas,,Maip煤 721,+54 249 422-1770,Tandil,Provincia de Buenos Aires,-37.3294438,-59.1326044,,136,https://lh3.googleusercontent.com/gps-proxy/ALd4DhFbTuWeEk-2xzFfPkX6nC-gdGZaVhF44btEJDtWoTd2wq5oDS2jhuASKgPyS0vm6BzPXRKuYTlhk6v2HyyKywLTgkY5z_8aJwRrWJfTc7iKhhinCx8G_Qjf5afkEQEdsMF4GvCwQ874JfcFU5rJLrfPqH6_iw34bgI8P4WrsJZKY7-ZWYoV6Fuf0YNswZ8xUQHHoOc=w408-h306-k-no,4.0,0,2025-05-04T16:08:54.951Z,Comercio
Carnicer铆a Navarro,Carnicer铆a,,Pinto 102,+54 249 467-4489,Tandil,Provincia de Buenos Aires,-37.329999,-59.14285,4.9,137,https://lh3.googleusercontent.com/p/AF1QipMGzRdok9CxaECj-BaNikuoNL4-LtEF6QVCq2Za=w408-h523-k-no,5.0,19,2025-05-04T16:08:54.951Z,Comercio
Filomena,Tienda de ropa,https://www.filomenadeli.com.ar/,Mitre 616,+54 249 442-1446,Tandil,Provincia de Buenos Aires,-37.3238354,-59.1378507,5.0,138,https://streetviewpixels-pa.googleapis.com/v1/thumbnail?panoid=z0xm248dnhmyQM7YQbbdqw&cb_client=search.gws-prod.gps&w=408&h=240&yaw=310.1095&pitch=0&thumbfov=100,1.0,1,2025-05-04T16:08:54.951Z,Comercio
Athenea MakeUp,Tienda de cosm茅ticos,,Gral. Paz 590,+54 249 460-2297,Tandil,Provincia de Buenos Aires,-37.3248514,-59.1323521,,139,https://lh3.googleusercontent.com/p/AF1QipMzwgmNqiY1ABkM0-UFyqL9N9Av6Y6LvSwoHNdY=w408-h408-k-no,2.0,0,2025-05-04T16:08:54.951Z,Comercio
Iphone Tandil 2D Techno Celulares,Tienda de m贸viles,https://www.guia-dorada.com.ar/guia/aviso-2d-techno-celulares-iphone-en-tandil-buenos-aires-25555.html,Hip贸lito Yrigoyen 690,+54 9 249 434-3213,Tandil,Provincia de Buenos Aires,-37.3258817,-59.1387785,3.8,140,https://lh3.googleusercontent.com/p/AF1QipNn10M3ok-l-gTpSl0stol74uwKILJfi7PC7K82=w408-h304-k-no,94.0,12,2025-05-04T16:08:54.951Z,Comercio
Antigua Pulper铆a,Tienda de antig眉edades,,Av. Estrada 1395,,Tandil,Provincia de Buenos Aires,-37.3451427,-59.1595084,3.3,10,https://lh3.googleusercontent.com/p/AF1QipNvG_AzEGDP3N6uj5xktMGCipDYx96lFssegJRD=w408-h544-k-no,2.0,4,2025-05-04T16:08:55.865Z,Comercio
Sal贸n Cerro el Centinela,Cafeter铆a,,JRQJ+VX,,Tandil,Provincia de Buenos Aires,-37.3603559,-59.1675246,3.0,19,https://lh3.googleusercontent.com/p/AF1QipNXb-v0fHIIMln-L2LrkhsUgJziHD33Fl7PYqKl=w408-h544-k-no,45.0,11,2025-05-04T16:08:55.946Z,Comercio
Parador Aerosillas,Cafeter铆a,,JRVH+MG,,Tandil,Provincia de Buenos Aires,-37.3557889,-59.1711539,3.4,26,https://lh3.googleusercontent.com/p/AF1QipO0_ZTg6ltkrrakVqMFvntAxrIGpUKeyYe8uodN=w408-h725-k-no,53.0,25,2025-05-04T16:08:57.130Z,Comercio
Hestia F R,Centro de deportes de aventura,,Mitre 628,+54 249 427-2588,Tandil,Provincia de Buenos Aires,-37.3236659,-59.1376571,,141,https://lh3.googleusercontent.com/p/AF1QipNHHvh5DPGkt40L5PGs3r4vxVYUe8C79odNqbZZ=w408-h408-k-no,12.0,0,2025-05-04T16:08:57.185Z,Comercio
JACKETANDIL1,Tienda de ropa,,9 de Julio 762,+54 249 420-9671,Tandil,Provincia de Buenos Aires,-37.3238857,-59.1364507,4.8,142,https://lh3.googleusercontent.com/p/AF1QipMCyh9g3cjpJsN8FPNQSDnb5bCL35HNtfNuwUM0=w408-h306-k-no,7.0,5,2025-05-04T16:08:57.185Z,Comercio
La Patrona,Tienda de ropa de mujer,,Gral. Paz 423,,Tandil,Provincia de Buenos Aires,-37.3268627,-59.1308883,5.0,143,https://lh3.googleusercontent.com/p/AF1QipNdiyURRCYPtEbAMktj-Me5qWIE-dXBZlcZcVqV=w408-h544-k-no,7.0,3,2025-05-04T16:08:57.186Z,Comercio
Panader铆a California,Panader铆a,,Pinto 176,,Tandil,Provincia de Buenos Aires,-37.3296838,-59.1419431,5.0,144,https://streetviewpixels-pa.googleapis.com/v1/thumbnail?panoid=6XQXWQ5So4x8f_97EtGv6g&cb_client=search.gws-prod.gps&w=408&h=240&yaw=331.46863&pitch=0&thumbfov=100,1.0,8,2025-05-04T16:08:57.186Z,Comercio
Calzados Garcia,Zapater铆a,https://www.instagram.com/calzados.garcia/,Gral. Rodr铆guez 739,,Tandil,Provincia de Buenos Aires,-37.3246886,-59.1375781,5.0,145,https://streetviewpixels-pa.googleapis.com/v1/thumbnail?panoid=9motu-sZ-_n4loN08sNKMg&cb_client=search.gws-prod.gps&w=408&h=240&yaw=72.22286&pitch=0&thumbfov=100,1.0,4,2025-05-04T16:08:57.186Z,Comercio
Bicicleter铆a F茅nix,Taller de bicicletas,https://www.instagram.com/bicicleteriafenix/?hl=es-la,Av. Santamarina 127,+54 249 420-5039,Tandil,Provincia de Buenos Aires,-37.3297159,-59.1272315,4.6,146,https://lh3.googleusercontent.com/p/AF1QipPKaSZLp8DtHp42B2tnDF9M8rSGu9VfOjG1Gn2N=w433-h240-k-no,15.0,44,2025-05-04T16:08:57.186Z,Comercio
Estacionamiento Plaza pint贸 caf茅,Cafeter铆a,,Pinto 528,+54 249 421-9343,Tandil,Provincia de Buenos Aires,-37.327822,-59.1369986,4.6,147,https://lh3.googleusercontent.com/p/AF1QipMpGkc4gvELDc4aAnOyrZqYE7jWwYfIvyeoRCQn=w408-h306-k-no,9.0,5,2025-05-04T16:08:57.186Z,Comercio
Julia Oses Manicur铆a Premium,Sal贸n de manicura y pedicura,https://academia-de-manicuria-tandil.webnode.com/metodos-de-ensenanza/,Fuerte Independencia 38 Dpto 1,+54 249 464-1435,Tandil,Provincia de Buenos Aires,-37.333697,-59.1341175,4.9,148,https://lh3.googleusercontent.com/p/AF1QipN7jFCTklk3h7Ny6Z7CRljJMgLneEhwh_9fAFpt=w408-h306-k-no,114.0,55,2025-05-04T16:08:57.186Z,Comercio
FARMACIA AMEMT II,Farmacia,,Gral. Rodr铆guez 589,+54 249 442-2542,Tandil,Provincia de Buenos Aires,-37.3265534,-59.1364869,3.6,149,https://streetviewpixels-pa.googleapis.com/v1/thumbnail?panoid=Nz0kQgxqf5gVuB4hIXJGWQ&cb_client=search.gws-prod.gps&w=408&h=240&yaw=47.527416&pitch=0&thumbfov=100,1.0,14,2025-05-04T16:08:57.186Z,Comercio
Nexus Caf茅,Cafeter铆a,https://grupofaroverderealestate.com.ar/,Belgrano 975,+54 249 451-5719,Tandil,Provincia de Buenos Aires,-37.3269992,-59.1297513,4.9,150,https://lh3.googleusercontent.com/p/AF1QipO8oOVj6qVSEAhrcb0bkOgQXceCKQY9SUfKVoKS=w408-h272-k-no,13.0,16,2025-05-04T16:08:57.246Z,Comercio
Prego,Cafeter铆a,https://www.instagram.com/pregotandil/,Av. Espa帽a 698,,Tandil,Provincia de Buenos Aires,-37.3221817,-59.1375154,4.1,151,https://lh3.googleusercontent.com/p/AF1QipP0cBHB9F4Xri5ula2xryxtdvWc9M20znKV4qsZ=w408-h544-k-no,203.0,257,2025-05-04T16:08:57.246Z,Comercio
Carniceria la Vaquita Compra Hacienda - Cerdo,Carnicer铆a,,"Saavedray 9 de Julio, Tandil, Buenos Aires",+54 249 447-8565,Tandil,Provincia de Buenos Aires,-37.3234468,-59.136822,,152,https://streetviewpixels-pa.googleapis.com/v1/thumbnail?panoid=2KNLKSvUammdthUkDlsRMw&cb_client=search.gws-prod.gps&w=408&h=240&yaw=301.76303&pitch=0&thumbfov=100,1.0,0,2025-05-04T16:08:57.247Z,Comercio
"I.D.A.P.E ""Instituto de Avanzada en Peluquer铆a y Est茅tica""",Academia de est茅tica,http://www.idape.com.ar/,San Mart铆n 912,+54 249 463-8472,Tandil,Provincia de Buenos Aires,-37.324388,-59.132302,4.9,153,https://lh3.googleusercontent.com/p/AF1QipNhvCrRjaZRNuy-kid5wp97oJI6kWgcKNvw1tov=w408-h271-k-no,68.0,86,2025-05-04T16:08:57.247Z,Comercio
Julieta Tejeda Fotograf铆a y dise帽o,Tienda de fotograf铆a,,,+54 9 249 463-3095,,,-37.3195228,-59.1427021,5.0,154,https://lh3.googleusercontent.com/p/AF1QipMAu-h77g_rxfvhZWSetVDSbeQHcLwOSg8HJa6f=w408-h271-k-no,5.0,1,2025-05-04T16:08:57.247Z,Comercio
Farmacia Del Pueblo,Farmacia,https://www.farmaciadelpueblotandil.com.ar/,San Mart铆n 668,+54 249 442-3260,Tandil,Provincia de Buenos Aires,-37.3258368,-59.1358746,4.5,155,https://lh3.googleusercontent.com/p/AF1QipMwui82vLGSAK-osQYzb1DhixGweikioDLoVUzz=w408-h335-k-no,11.0,26,2025-05-04T16:08:57.247Z,Comercio
Farmacia Traverso,Farmacia,http://www.farmaciatraverso.com/,Av. Sim贸n Bol铆var 301,+54 249 444-0076,Tandil,Provincia de Buenos Aires,-37.3350895,-59.1243865,4.5,156,https://lh3.googleusercontent.com/gps-proxy/ALd4DhFMvxP5fYlmIxtJGv7UM-fj_sfyGC2nMGHUp7so1kdnJgPLWDmpmBGP4H-X9jj3BUXOh9lVikyPhIpGpg0fr28prtx9wtk46bhAf7NdEheJDVUE8iii6Dkz7aRrvsiRiBcw9gPimyhDe3c-OE7uK2xKQOv3emON0xqXwmO97E3pZUgBMsbu88KUGeNTEZRWF8dFvA=w408-h306-k-no,3.0,29,2025-05-04T16:08:57.247Z,Comercio
Ortopedia Tandil,Tienda de art铆culos ortop茅dicos,http://www.ortopediatandil.com.ar/,Maip煤 345,+54 249 402-8630,Tandil,Provincia de Buenos Aires,-37.3314,-59.137713,4.8,157,https://lh3.googleusercontent.com/p/AF1QipOkvs5fc1WiXke0JmEzweltAZz6a_Dt5_hSJ2c=w408-h256-k-no,14.0,54,2025-05-04T16:08:57.247Z,Comercio
Farmacia Tandil,Farmacia,,9 de Julio 493,+54 249 444-2863,Tandil,Provincia de Buenos Aires,-37.3271748,-59.134257,4.0,158,https://lh3.googleusercontent.com/gps-proxy/ALd4DhEr2EDkOMw0dXUymUhszCgDgjN74DzZHi_k8ZWBioPCnoI1FGnT6AKdJ68N8Qb59doG89yt-MD_n-B7PlgC4yvGY1cAoYcjUno5xnz7wKLlRuf7wS4sfxiI70TfXMe09jTRxOru2rAQmpQKTOwn28Ty3-qDhrSKlOvQu3TmOOvWSqC27Entk9p9CaDAl0QrJll08Q=w408-h306-k-no,11.0,64,2025-05-04T16:08:57.247Z,Comercio
Dellprini Caf茅 Bar,Cafeter铆a,,Gral. Rodr铆guez 599,+54 249 411-3668,Tandil,Provincia de Buenos Aires,-37.3263947,-59.1365692,4.1,159,https://lh3.googleusercontent.com/gps-proxy/ALd4DhHA3-J7jwTdUsunQ2heuCg0E3v_FzDTlzIZgi5UjxmqjO1to_AIhZ_ft5bdhsRb_Kg3IBQVlW7p4989Sa-C4145RUBta4w6P_DffrGmjKdbF3Ity6_dD6faALnzii_IHxMrjUf0XbLRknBPMrQa1ek4619_2PRKQ3CJbzsc1sYuqFwhUUPUIAdJSRddp_Fejsd3aT4=w408-h306-k-no,223.0,701,2025-05-04T16:08:57.247Z,Comercio
Renzo Helados,Helader铆a,https://www.facebook.com/RenzoHelados/,San Mart铆n 417,+54 249 420-0679,Tandil,Provincia de Buenos Aires,-37.3273079,-59.1389489,4.5,160,https://lh3.googleusercontent.com/p/AF1QipMW5nYkyAdtMcWuV5l3xuUkk59F1ingafz23XT1=w408-h306-k-no,326.0,1333,2025-05-04T16:08:57.247Z,Comercio
Cervecer铆a Delpech,Tienda de cerveza,,MWJ6+67,,Tandil,Provincia de Buenos Aires,-37.3194754,-59.089254,,16,,,0,2025-05-04T16:08:58.052Z,Comercio
Compa帽铆a,Servicio agr铆cola,http://www.compania.com.ar/,Colectora Sur J. C. Pugliese 348,+54 249 442-0843,Tandil,Provincia de Buenos Aires,-37.3179071,-59.1067496,4.0,20,https://lh3.googleusercontent.com/gps-proxy/ALd4DhG5naGKAayBwR-OIBrWaboAp0nUOM4Ze3opXpuhLciT2GlOyvYNU--6IluGW__2euNCOkcsj20iVUpWnu3-WgqvgiypUkuJYKC8HPt7cxaA6eK1qBw7RYVq1QsFLTp5RcY5Leu44rlgpLFiWSonxmBH8aX6pNULTNtBQxFQc3QPMlFdkcSOAxIkG2ngzE3uiuGDK4Y=w408-h306-k-no,2.0,4,2025-05-04T16:08:58.052Z,Comercio
Fundas Para Sillones,Tienda de muebles,,Pinto 674,,Tandil,Provincia de Buenos Aires,-37.327083,-59.135182,,161,https://streetviewpixels-pa.googleapis.com/v1/thumbnail?panoid=esL9fmJJriPxA6ibVvPdXA&cb_client=search.gws-prod.gps&w=408&h=240&yaw=347.28564&pitch=0&thumbfov=100,1.0,0,2025-05-04T16:08:58.953Z,Comercio
Atenea Centro de Est茅tica,Centro de est茅tica,https://www.instagram.com/by.atenea.estetica,9 de Julio 639,+54 249 420-7587,Tandil,Provincia de Buenos Aires,-37.3252814,-59.135316,,162,https://lh3.googleusercontent.com/p/AF1QipMomSpFNDu2sfTVZbJgPNMetaD7pjQvB_7gITfe=w408-h305-k-no,13.0,0,2025-05-04T16:08:58.953Z,Comercio
Tatuajes impulso azul,Estudio de tatuajes,https://instagram.com/tatuajesimpulsoazul?utm_medium=copy_link,San Mart铆n 253,+54 249 437-9530,Tandil,Provincia de Buenos Aires,-37.3282403,-59.1414139,5.0,163,https://lh3.googleusercontent.com/p/AF1QipN_fIrMNtHSHu0b8pBSf5A-jivAgnJPML6x_HW7=w408-h306-k-no,31.0,12,2025-05-04T16:08:58.953Z,Comercio
Carnes La Rural,Carnicer铆a,,Av. Avellaneda 402,+54 249 451-8880,Tandil,Provincia de Buenos Aires,-37.3344267,-59.1348074,5.0,164,https://streetviewpixels-pa.googleapis.com/v1/thumbnail?panoid=tfQgEp4b5AcXbTnDcD1uSw&cb_client=search.gws-prod.gps&w=408&h=240&yaw=319.27127&pitch=0&thumbfov=100,1.0,3,2025-05-04T16:08:58.953Z,Comercio
Nivel Cero,Tienda de ropa de deportes,,Sarmiento 615,+54 249 443-5861,Tandil,Provincia de Buenos Aires,-37.3251185,-59.1370533,2.0,165,https://lh3.googleusercontent.com/gps-proxy/ALd4DhEI7M2kxFc0_9ltQaYJnqou9vj2IMm6NI7_VNMVQwm4ip9ZAUHwxLVKKf7U1d8EEnRnLU22eoRb0_dRrXxCBzKDrD89eaGiJl9_-YZmOwOV8AbYOegjcgJK6sLmimwJ_P83Ctm75zCI_Mta43B8Ic-KJaHfzMosBY1DkZmPVtsbdAGtYtuhJUg7U9A0vaLUtojrtLc=w408-h306-k-no,2.0,1,2025-05-04T16:08:58.953Z,Comercio
Az煤car pastel,Pasteler铆a,,Paraguay 54,+54 249 437-7622,Tandil,Provincia de Buenos Aires,-37.3287102,-59.1464943,5.0,166,https://streetviewpixels-pa.googleapis.com/v1/thumbnail?panoid=QE_ctanKEZXvnupVab-3ww&cb_client=search.gws-prod.gps&w=408&h=240&yaw=174.77106&pitch=0&thumbfov=100,1.0,5,2025-05-04T16:08:58.953Z,Comercio
Sonrie Chinito,Comercio,https://instagram.com/sonriechinito?igshid=ZDdkNTZiNTM=,,+54 9 249 457-7220,,,-37.3195228,-59.1427021,,167,https://lh3.googleusercontent.com/p/AF1QipPsaO9I_I2GAAPN8IdAPkC9e66z_lKbp_8APCI=w408-h544-k-no,28.0,0,2025-05-04T16:08:58.953Z,Comercio
Kiosco,Kiosco,,Dr. Saavedra Lamas 315,,Tandil,Provincia de Buenos Aires,-37.3516855,-59.1320139,,17,https://streetviewpixels-pa.googleapis.com/v1/thumbnail?panoid=wo91frfzfAG0JPk6mQ58gA&cb_client=search.gws-prod.gps&w=408&h=240&yaw=285.44696&pitch=0&thumbfov=100,1.0,0,2025-05-04T16:08:59.761Z,Comercio
FERRETERIA DEL HOGAR,Comercio,,Antonena 294,+54 249 451-9207,Tandil,Provincia de Buenos Aires,-37.3242633,-59.153364,4.7,12,https://lh3.googleusercontent.com/gps-cs-s/AC9h4npUGgKlXrtnOJRsC-1QZFcznNUm4exex_2Ly8HjNKdmtEDueOYkgBaazaZvlQm5e27aXlMlKUAJgN7CWdw8oqhDi-ettfczkJ_WcOLcjBzViMMIh4ufxQ4Jh8S1EEfj_6a3NUcDdw=w408-h725-k-no,10.0,37,2025-05-04T16:09:00.460Z,Comercio
Vivero El Cardal,Centro de jardiner铆a,,Av. Juan B. Justo 2560,+54 249 463-7914,Tandil,Provincia de Buenos Aires,-37.3321192,-59.179687,4.9,16,https://lh3.googleusercontent.com/p/AF1QipMhUYh_n_qPAM17Ag_xVglbUs1OOprvQuP4Ku35=w408-h271-k-no,4.0,36,2025-05-04T16:09:00.460Z,Comercio
LIVE ESTUDIO,Comercio,,Juan Viamonte 450,+54 249 465-1451,Tandil,Provincia de Buenos Aires,-37.3269881,-59.1543289,,18,https://streetviewpixels-pa.googleapis.com/v1/thumbnail?panoid=EsWRrp9pubx_AxflGodMeA&cb_client=search.gws-prod.gps&w=408&h=240&yaw=344.0313&pitch=0&thumbfov=100,1.0,0,2025-05-04T16:09:00.460Z,Comercio
Ver贸nica Rinaldi,Tienda de accesorios de moda,https://veronicarinaldi.empretienda.com.ar/,Dr. Saavedra Lamas,,Tandil,Provincia de Buenos Aires,-37.3504838,-59.1309607,,25,https://lh3.googleusercontent.com/gps-cs-s/AC9h4novKAjMEADTKkmT7o289LQLcsOPeqeJ9F2dzbBfIPm4fu0wKtFOTsZGsbX8QTyzgEmTs-ZoawnKnEE4z4SWTTxj1bBfc29buEhmy2Qtzu3wSodUKHccKz2zMPUb5ln6xDM5AWk=w408-h557-k-no,3.0,0,2025-05-04T16:09:01.051Z,Comercio
CTkayaks Tienda &Turismo,Tienda de deportes al aire libre,http://ctkayaks.com/,"Local de Ventas, Dr. Saavedra Lamas 365",+54 249 433-0543,Tandil,Provincia de Buenos Aires,-37.3519483,-59.132004,4.8,27,https://lh3.googleusercontent.com/p/AF1QipM2w1KBWWCDEe7lzP3a_MpsbkbGm0WA6k0gYP1q=w408-h541-k-no,71.0,47,2025-05-04T16:09:01.051Z,Comercio
