title,categoryName,website,street,phone,city,state,location/lat,location/lng,totalScore,rank,imageUrl,imagesCount,reviewsCount,scrapedAt,searchString
Polirrubros La Silvia,Kiosco,,Av. Ituzaingó 1317,,Olavarría,Provincia de Buenos Aires,-36.8954659,-60.3450999,4.8,1,https://lh3.googleusercontent.com/gps-cs-s/AC9h4nq8xvTgpbctG-9Ttr7o6i3CaKGMd4LM3Rf_NeHHFpLH0kQDvF_TCj5158sCZrdffbfsuK_P33Z2HuFPW5INdrX9Zu-hhdpWF96MJtmK75hX0m65UDNF3aQJ6Ht82xu2G3j6i16-=w426-h240-k-no,16.0,27,2025-05-29T00:56:12.806Z,comercio
Distribuidora Katy,Comercio,,"Pelegrino, Av. Ituzaingó e",+54 2284 71-1461,Olavarría,Provincia de Buenos Aires,-36.8904483,-60.3381332,,2,https://lh3.googleusercontent.com/p/AF1QipOckQKK6l6UC0Bscvd7bj3ooNV633aGRAkIiRqK=w408-h906-k-no,20.0,0,2025-05-29T00:56:12.808Z,comercio
Mercadito Gaby-Fer,Comercio,,Collinet 2595,+54 2284 41-7540,Olavarría,Provincia de Buenos Aires,-36.9009979,-60.3351212,5.0,3,https://lh3.googleusercontent.com/gps-cs-s/AC9h4nppJD_PwNOaY7KKxhxikJTrD07KEEWqgTzPGRUBj7NZCys094LG5SU9yJY5xYWIN11rj-R_GLbKFxKdfVoPeHlgy7XxMGPO78FAq3H6Nhff1pLpAApavrAbNNrp79Jvb2hufqmkXw=w408-h725-k-no,3.0,4,2025-05-29T00:56:12.808Z,comercio
Dulcemente,Tienda de alimentación,,Independencia 1700-1600,+54 2284 69-7125,Olavarría,Provincia de Buenos Aires,-36.8954927,-60.3396999,5.0,4,https://lh3.googleusercontent.com/gps-cs-s/AC9h4nrEJfRYx5qddAWVtHrsB_7KuVGCPgsZ2MiY9ZhSQmxWzUc0Dz_uEBfnJ-io_C2tccptzXYLASuVhxy4iKzr6ZIiWmOWQmGUd_1P77AhqX8KhdOyLDvtLxIr9IZki6VnwzJgWowY=w408-h408-k-no,2.0,2,2025-05-29T00:56:12.808Z,comercio
104 Polirrubro,Tienda de alimentación,,Azopardo 1598,+54 2284 42-1670,Olavarría,Provincia de Buenos Aires,-36.8930219,-60.341844,3.8,5,https://lh3.googleusercontent.com/gps-cs-s/AC9h4noqABoiN4MPRoW99qJulH_GSLhr0kfkd7lB3KAXZVzr1XPhv4CyM-R3pnrORN4RPYau1dEZdFmm1xNBcVW95pjnxdSyCgCpfAU4hTcYkdqyK1U1HT6GCNI3_uoG0jNTM3kKbCiEEA=w408-h544-k-no,18.0,4,2025-05-29T00:56:12.808Z,comercio
La Carapegueña,Tienda de ropa,,Ayacucho 1490,+54 2284 13-0379,Olavarría,Provincia de Buenos Aires,-36.8952891,-60.3424931,4.4,6,https://lh3.googleusercontent.com/gps-proxy/ALd4DhEJ9D7h9BYOC5tXC5CdS4EAL-pne0O8aGNjEi2GXQlBtPOIW4XYTH4KThZImbVX7x-W-U9YE5rDrZ68QRw129U-fZqrE9ZTq64p_MONQzJdHbYBrGN-ZkroGhqAf5l0u5pS8HmCuXxtGMyUW2qpWY2wwVuSXVlgbs5mLIbiBzQjb_8Pp9CL8VKcmpk3iSd-5rk6mQ=w408-h306-k-no,5.0,14,2025-05-29T00:56:12.808Z,comercio
La Casiana Fábrica,Tienda de productos lácteos,http://www.lacasiana.com/,"Av Alberdi y, C. 10 7400",+54 2284 42-5266,Olavarría,Provincia de Buenos Aires,-36.8947136,-60.361892,4.7,7,https://lh3.googleusercontent.com/p/AF1QipP9N2WiZO1uh3PzyWq47vRdMp38zZ_d4EqIzQgs=w408-h272-k-no,98.0,61,2025-05-29T00:56:12.808Z,comercio
Kceritos,Tienda de alimentación,,Av. Alberdi 2788,+54 2284 41-3655,Olavarría,Provincia de Buenos Aires,-36.881884,-60.3373641,4.3,8,https://lh3.googleusercontent.com/gps-cs-s/AC9h4nr_r6X7u2EyHaFfrauJl-p0uNPWaAiNMcXdU2QgCMcB4RQKYiBrKXyqleWHSwg7nUYl2dEDgw2ilPr87XeActtG5VLzLPo7eZeYqSH7W86Pupb7nLmCdhsD8sWOqnvxnJs6xrBZ=w408-h544-k-no,11.0,53,2025-05-29T00:56:12.808Z,comercio
Supermercado Andresito,Supermercado,,Av. Alberdi 2495,,Olavarría,Provincia de Buenos Aires,-36.883602,-60.3400673,4.1,9,https://lh3.googleusercontent.com/gps-cs-s/AC9h4noLiE8_ndAM46AeE7Eob1kFROYcQrI8DwpyGKgR3Qad6w8IaT2IyGEQVoUu6xz7WBaA67UBWDJ4z0GRrsBCP78PKbbduzRRj3WJ0KXJi9gjjOw7wklB3ICDJCZShrKc_zweDh_iYA=w408-h306-k-no,5.0,90,2025-05-29T00:56:12.808Z,comercio
Kiosco el 13,Kiosco,,Tacuarí 1935,+54 2284 24-5680,Olavarría,Provincia de Buenos Aires,-36.890031,-60.3414348,4.4,10,https://streetviewpixels-pa.googleapis.com/v1/thumbnail?panoid=fKTZ6YcR-GCTsBSB7rEpsg&cb_client=search.gws-prod.gps&w=408&h=240&yaw=320.2821&pitch=0&thumbfov=100,1.0,32,2025-05-29T00:56:12.809Z,comercio
"Agencia ""El Tero""",Tienda de lotería,,Av. Ituzaingó,,Olavarría,Provincia de Buenos Aires,-36.888985,-60.3368193,4.2,11,https://streetviewpixels-pa.googleapis.com/v1/thumbnail?panoid=QvCCSLTBW-mvA5oIF4r_UA&cb_client=search.gws-prod.gps&w=408&h=240&yaw=316.37012&pitch=0&thumbfov=100,1.0,5,2025-05-29T00:56:12.809Z,comercio
"Saladita ""La Esquina""",Tienda de ropa,,Azopardo,,Olavarría,Provincia de Buenos Aires,-36.8891448,-60.3465461,,12,https://streetviewpixels-pa.googleapis.com/v1/thumbnail?panoid=lm_0luV0S0igxHqA_bhW_w&cb_client=search.gws-prod.gps&w=408&h=240&yaw=247.03691&pitch=0&thumbfov=100,1.0,0,2025-05-29T00:56:12.809Z,comercio
Essen - Flopi Nievas,Bazar,http://www.instagram.com/essen.flopinievas,"Calle 11, casa 2485 entre Cnel Suarez, Bolívar y",+54 2284 22-6897,Olavarría,Provincia de Buenos Aires,-36.8803517,-60.3439055,5.0,13,https://lh3.googleusercontent.com/p/AF1QipOK6EcNRDTsGNO3K_zn1DKOwZ3oQVRwjS6Dohel=w408-h408-k-no,3.0,3,2025-05-29T00:56:12.809Z,comercio
Despensa Mercantil,Supermercado,,Piedras 2002,,Olavarría,Provincia de Buenos Aires,-36.8904126,-60.3397582,4.5,14,https://lh3.googleusercontent.com/gps-cs-s/AC9h4npGqMpF5B8svP2g9VsnQqBh6GRptx6dVm5o7cCksTGZgYrsXtMo9hfERDhTEST3punBIV8CzugjIDmGzs19wsmHc8Cbw3QxsZTuaZncQ0-xM-dX9Q8WDnEj1pOjIHTKzmSaC3PX=w408-h725-k-no,2.0,14,2025-05-29T00:56:12.809Z,comercio
Minimercado Riccobene,Comercio,,C. Muñoz 4331,+54 2284 44-4816,Olavarría,Provincia de Buenos Aires,-36.8936424,-60.2970224,4.0,15,https://lh3.googleusercontent.com/p/AF1QipPqz_6ryxec2u4WKEr5VKnaCxGhGDz3KNhh2IMj=w408-h305-k-no,49.0,54,2025-05-29T00:56:12.809Z,comercio
Distribuidora Ruma,Tienda de productos para mascotas,,Av. Ituzaingó 1235,+54 2284 61-3352,Olavarría,Provincia de Buenos Aires,-36.8960533,-60.3456568,4.8,16,https://lh3.googleusercontent.com/gps-cs-s/AC9h4nqrv97JasMF3Q-8i5DM1o5tCkjlemWqu62CE-6Bf6K0o5v-bZBr9ibdkRuO1enWK-elETBWDSBtD_e1_qMKObfZim0b-G8xZxveDmZ19__vuqvY6q5fgu-pHXF7-_yaii4mzoy2AA=w426-h240-k-no,14.0,15,2025-05-29T00:56:12.809Z,comercio
Chantir,Tienda de alimentación,,Av. del Valle 1799,+54 2284 42-1407,Olavarría,Provincia de Buenos Aires,-36.8911334,-60.3357738,4.7,17,https://streetviewpixels-pa.googleapis.com/v1/thumbnail?panoid=tKSEnfzJwCpF9d5CBz9C3Q&cb_client=search.gws-prod.gps&w=408&h=240&yaw=280.6546&pitch=0&thumbfov=100,1.0,6,2025-05-29T00:56:12.809Z,comercio
Kimera espacio creativo,Tienda de regalos,https://instagram.com/kimeraespaciocreativo?igshid=YmMyMTA2M2Y=,"13 Bis 2388 (esquina, Bolívar",+54 9 2284 72-3526,Olavarría,Provincia de Buenos Aires,-36.882019,-60.343596,5.0,18,https://lh3.googleusercontent.com/p/AF1QipMcNz1slEYbXNwmbEDjyR82rbYvdr35ud69fa7Q=w408-h408-k-no,57.0,2,2025-05-29T00:56:12.809Z,comercio
Arcor Sucesores de Juan C. Costa,Tienda de golosinas,http://www.arcor.com.ar/,Av. Alberdi 2395,+54 2284 41-4484,Olavarría,Provincia de Buenos Aires,-36.8842662,-60.3410843,4.1,19,https://streetviewpixels-pa.googleapis.com/v1/thumbnail?panoid=0OqWdObKzaqjOjUc4v1BQw&cb_client=search.gws-prod.gps&w=408&h=240&yaw=311.81784&pitch=0&thumbfov=100,5.0,24,2025-05-29T00:56:12.809Z,comercio
Kiosco 24 horas barrio 104,Kiosco,,"Buchardo, Av. Ituzaingó e",,Olavarría,Provincia de Buenos Aires,-36.8923965,-60.3408021,,20,https://lh3.googleusercontent.com/p/AF1QipO9BqVusZ_wQmscjCUxbadYTpdBGnV0uwV4ULwD=w408-h725-k-no,7.0,0,2025-05-29T00:56:12.809Z,comercio
Emprender tu negocio online,Diseñador de sitios web,https://emprendertunegocioonline.online/,Vicente Bahia 2719,+54 2284 69-4869,Olavarría,Provincia de Buenos Aires,-36.8787898,-60.342201,,2,,,0,2025-05-29T00:56:13.131Z,web
LG Servicios Web,Diseñador de sitios web,,Buchardo 3232,+54 2284 60-5178,Olavarría,Provincia de Buenos Aires,-36.9034739,-60.3272947,5.0,3,https://streetviewpixels-pa.googleapis.com/v1/thumbnail?panoid=Lj9v2MmXfo8SYvEUTirDmA&cb_client=search.gws-prod.gps&w=408&h=240&yaw=237.35367&pitch=0&thumbfov=100,1.0,1,2025-05-29T00:56:13.131Z,web
Web Inventa,Diseñador de sitios web,,Olavarría,+54 221 525-3081,Olavarría,Provincia de Buenos Aires,-36.9220374,-60.3180704,5.0,4,https://streetviewpixels-pa.googleapis.com/v1/thumbnail?panoid=3WJJOpLxdFG32o_M_MKtsg&cb_client=search.gws-prod.gps&w=408&h=240&yaw=239.0202&pitch=0&thumbfov=100,1.0,2,2025-05-29T00:56:13.132Z,web
SYWA - Sistemas y Webs Argentinos,Diseñador de sitios web,http://www.sywa.com.ar/,"DOW, 9 de Julio 3447",+54 2284 60-1842,Olavarría,Provincia de Buenos Aires,-36.8928086,-60.3125547,5.0,5,https://lh3.googleusercontent.com/p/AF1QipNxIZlW-rRCrguwj1HokVEw-nGdWIgyGz1J67ZO=w640-h240-k-no,19.0,2,2025-05-29T00:56:13.132Z,web
Horus Desarrollo Web,Diseñador de sitios web,,Vicente López,+54 2284 20-2672,Olavarría,Provincia de Buenos Aires,-36.8916641,-60.3215469,,6,https://streetviewpixels-pa.googleapis.com/v1/thumbnail?panoid=x7ODeBHkshozPjTeuiX3AQ&cb_client=search.gws-prod.gps&w=408&h=240&yaw=316.63336&pitch=0&thumbfov=100,2.0,0,2025-05-29T00:56:13.132Z,web
DSW Diseño y Soluciones Web,Diseñador de sitios web,,"Provincia, Argentina, Estrada 4360 Sur",+54 9 2284 30-8251,Olavarría,Provincia de Buenos Aires,-36.8958039,-60.2985448,,7,https://streetviewpixels-pa.googleapis.com/v1/thumbnail?panoid=DU9DlgGRa7ydN5VgExd7gg&cb_client=search.gws-prod.gps&w=408&h=240&yaw=234.44403&pitch=0&thumbfov=100,1.0,0,2025-05-29T00:56:13.132Z,web
Enfoque Design - comunicación visual y desarrollo web,Diseñador de sitios web,http://www.enfoquedesign.com.ar/,Sgto. Cabral 1600,+54 2284 47-6000,Olavarría,Provincia de Buenos Aires,-36.8828709,-60.3289807,,14,https://lh3.googleusercontent.com/p/AF1QipMZiD3OkEe3URzzzN8RDCgwjkhcrpulKHFQDRy9=w548-h240-k-no,29.0,0,2025-05-29T00:56:13.133Z,web
Colchones y blanqueria,Colchonería,,"Avenida Ituzaingó 1483 y, España 2762",+54 2284 24-6016,Olavarría,Provincia de Buenos Aires,-36.8944103,-60.3436326,4.1,22,https://lh3.googleusercontent.com/gps-proxy/ALd4DhGEPShmaR4i5qZShzO5_GBfFGVDty51ce-N6hkFWJv46WQkLJntXeluUz5CcWd0Tx4svKWoiWBPw_B-vNfKABffjIvHFCy2w6q9b_HmwKPB2cQ6SZ2823y7TcsgONl9xssTBgBNvQ82vhfTXNSSUlGNBNTMBqdEc84hRwGeav1s-KnLj8Hlzx52k1kx7QUMYKiYLIQ=w408-h306-k-no,14.0,73,2025-05-29T00:56:13.487Z,comercio
Lm Insumos Corporales,Tienda de productos de belleza,https://www.facebook.com/lm_insumos_corporales-112904754218051,Junín 1410,+54 2284 58-0740,Olavarría,Provincia de Buenos Aires,-36.8928108,-60.3465838,,25,https://lh3.googleusercontent.com/p/AF1QipOENRXFslaA05TztlwJUSIi6rH9vDC8quf4n8_4=w408-h408-k-no,5.0,0,2025-05-29T00:56:13.487Z,comercio
Regaleria Paris,Tienda de regalos,,Giovanelli 1742,,Olavarría,Provincia de Buenos Aires,-36.8979138,-60.3453322,,27,https://streetviewpixels-pa.googleapis.com/v1/thumbnail?panoid=_w1ewx51R4kxvq58itAUdQ&cb_client=search.gws-prod.gps&w=408&h=240&yaw=46.75368&pitch=0&thumbfov=100,1.0,0,2025-05-29T00:56:13.487Z,comercio
Lepico Blanco Textil De Once,Tienda de ropa,,Collinet,,Olavarría,Provincia de Buenos Aires,-36.8944189,-60.3435733,,28,https://streetviewpixels-pa.googleapis.com/v1/thumbnail?panoid=Kyv22zuYWIpWbKCtuJaBQQ&cb_client=search.gws-prod.gps&w=408&h=240&yaw=227.9222&pitch=0&thumbfov=100,1.0,0,2025-05-29T00:56:13.488Z,comercio
Semillería Las Marías,Tienda de alimentos para animales,https://www.instagram.com/lasmariassemilleria/,Av. Avellaneda 1731,+54 2284 22-5207,Olavarría,Provincia de Buenos Aires,-36.8984726,-60.3462136,,29,https://lh3.googleusercontent.com/p/AF1QipPe3uKDnwbZeH2giuDjqna8rt505L6b5oxc5RxY=w408-h547-k-no,3.0,0,2025-05-29T00:56:13.488Z,comercio
Hancook pastelería y cafetería,Cafetería,,Av. Avellaneda 452,,Olavarría,Provincia de Buenos Aires,-36.8907769,-60.3560554,,30,,,0,2025-05-29T00:56:13.488Z,comercio
Curiosas creativa,Taller de costura,,,+54 2284 72-4247,,,-36.8596106,-60.2870294,,32,https://lh3.googleusercontent.com/p/AF1QipO9vzQt7jJRvC_zWGxXKj68X8aG2SM00PtPjAZy=w408-h541-k-no,36.0,0,2025-05-29T00:56:13.488Z,comercio
Cimbra Electrónica & Informática,Servicio de informática,https://cimbraelectronica.com.ar/,Tacuarí 2616,+54 2284 26-9010,Olavarría,Provincia de Buenos Aires,-36.8855956,-60.3354341,5.0,1,https://lh3.googleusercontent.com/p/AF1QipNKLvBDDTOw5ouzrf0ufFEWNhSP5NgMMvoRG4xE=w408-h306-k-no,20.0,71,2025-05-29T00:56:14.957Z,electronica
MRG Electrónica - Computación,Establecimiento de reparación de artículos electrónicos,,Chacabuco 3045,,Olavarría,Provincia de Buenos Aires,-36.8867201,-60.327087,4.9,2,https://lh3.googleusercontent.com/gps-cs-s/AC9h4nq0F6k_lBtte1Jc3uGxtJPCWyO8Twy7Zk0q5784eDEVR18izhHp9rAvj2T9yITb3sQIaQhATJumz-398uVoWFKiPjukBwbhzXa1AOFphxs_Ro6Bwg1gWweflO0QK0MUS-uoGrzq=w408-h306-k-no,3.0,29,2025-05-29T00:56:14.958Z,electronica
Electrónica Olavarría,Tienda de equipos de sonido,,Rivadavia 3196,+54 2284 41-5550,Olavarría,Provincia de Buenos Aires,-36.8913443,-60.3190621,4.8,3,https://lh3.googleusercontent.com/gps-cs-s/AC9h4no_rQS-Ou1hCgGVE9ChXTknaFsEmpedKNYu6qHe-Y1plkrweRquneiOT402-cXL0vJttX0FF-X8_8xdqFnU8IxIz-cb0U6BWZwQ_gLCqmmAoSxTeG5FrhDeEvv0bxfMvmJ61Z8PCQ=w408-h306-k-no,29.0,17,2025-05-29T00:56:14.958Z,electronica
Electrónica Edn,Servicio de reacondicionamiento de motores,https://www.facebook.com/Electr%C3%B3nica-EDN-100900175105130,9 de Julio 1040,+54 2284 42-6769,Olavarría,Provincia de Buenos Aires,-36.90888,-60.33313,4.9,4,https://lh3.googleusercontent.com/p/AF1QipNpMNHVyD4w2UYhFWeTFY9cG122G6jC9d7cA7uf=w426-h240-k-no,62.0,20,2025-05-29T00:56:14.958Z,electronica
Intercom Electrónica,Distribuidor de equipos de telecomunicación,,Maipú 2669,+54 2284 44-4465,Olavarría,Provincia de Buenos Aires,-36.889822,-60.3293763,4.0,5,https://lh3.googleusercontent.com/gps-proxy/ALd4DhGzY6BB_5oXMyto8Xjs85YxZSm1J2w0x5847a54ZdTOjbBdYRSOGPklu0Fp23bXzRLNyoMsBuqQsGbap8iqEUN4PitKMp_iYs7tIoYwZfONPGfsEAp4ww3TmcRsfZe7h0kIp0Ox-bzKmy5-zZV5kXIU-NKE4vVCFz6LVLyevhryCdVpItVFRnZxg_e03fEPm_7IMA=w408-h306-k-no,2.0,3,2025-05-29T00:56:14.958Z,electronica
Micro Electronica,,http://www.electronica-micro.com.ar/,Av. Pringles 1250,+54 2284 34-0303,Olavarría,Provincia de Buenos Aires,-36.9085158,-60.3310786,,6,https://streetviewpixels-pa.googleapis.com/v1/thumbnail?panoid=4MOwIsLf7pXvjAvIriDmeg&cb_client=search.gws-prod.gps&w=408&h=240&yaw=332.162&pitch=0&thumbfov=100,3.0,0,2025-05-29T00:56:14.958Z,electronica
Ingka Digital,Tienda de informática,,Vicente López 2377,+54 2284 44-6144,Olavarría,Provincia de Buenos Aires,-36.895917,-60.3268099,4.9,7,https://lh3.googleusercontent.com/p/AF1QipNWmVQtIPHm-Skm15W9oDLRtYHhwCvtScFKHY7e=w408-h408-k-no,24.0,142,2025-05-29T00:56:14.958Z,electronica
Casa Arana,Servicio de reparación de televisores,,Cerrito,+54 2284 39-9865,Olavarría,Provincia de Buenos Aires,-36.8877624,-60.3250889,4.6,8,https://lh3.googleusercontent.com/p/AF1QipP5ASEsXvu3I9TG5ffPR4inLLtag9ijzHK3KavL=w408-h544-k-no,8.0,39,2025-05-29T00:56:14.958Z,electronica
Electrónica Olavarría,,,,,Olavarría,Provincia de Buenos Aires,-36.9010162,-60.3107609,,9,https://streetviewpixels-pa.googleapis.com/v1/thumbnail?panoid=Dj7lZKDHrUq7ybKNkDz_BQ&cb_client=search.gws-prod.gps&w=408&h=240&yaw=150.83597&pitch=0&thumbfov=100,1.0,0,2025-05-29T00:56:14.959Z,electronica
Servitel Electrónica,Servicio de reparación de lámparas,,España 1019,+54 2284 41-1383,Olavarría,Provincia de Buenos Aires,-36.9074939,-60.3351526,,10,https://streetviewpixels-pa.googleapis.com/v1/thumbnail?panoid=Y8O-lMLhXKkMLvj_hy7eHQ&cb_client=search.gws-prod.gps&w=408&h=240&yaw=325.73953&pitch=0&thumbfov=100,1.0,0,2025-05-29T00:56:14.959Z,electronica
MARTÍN MERCADO PAGO POINT,Servicio de reparación de electrodomésticos,,Av. Ituzaingó 2700,+54 2281 51-1902,Olavarría,Provincia de Buenos Aires,-36.8863905,-60.3330133,,11,https://streetviewpixels-pa.googleapis.com/v1/thumbnail?panoid=8GbMwbel7DVZQ1cOELj1-Q&cb_client=search.gws-prod.gps&w=408&h=240&yaw=174.76834&pitch=0&thumbfov=100,4.0,0,2025-05-29T00:56:14.959Z,electronica
Mws Audio,Tienda de electrónica,,Manuel Leal 1783,,Olavarría,Provincia de Buenos Aires,-36.9114393,-60.3177931,5.0,12,https://streetviewpixels-pa.googleapis.com/v1/thumbnail?panoid=5VtJxPfobVkrc2RM4b-mIA&cb_client=search.gws-prod.gps&w=408&h=240&yaw=296.81482&pitch=0&thumbfov=100,1.0,1,2025-05-29T00:56:14.959Z,electronica
Taller Alberto,Taller mecánico,,San Lorenzo 970,+54 9 2284 58-8969,Olavarría,Provincia de Buenos Aires,-36.899302,-60.3463019,4.9,13,https://streetviewpixels-pa.googleapis.com/v1/thumbnail?panoid=jqRpjcvfy5yyIi4aqbjOag&cb_client=search.gws-prod.gps&w=408&h=240&yaw=245.85168&pitch=0&thumbfov=100,4.0,24,2025-05-29T00:56:14.959Z,electronica
Electró Nico,Tienda de electricidad,,Av. del Valle 2828,,Olavarría,Provincia de Buenos Aires,-36.8981409,-60.3273278,,14,https://lh3.googleusercontent.com/gps-proxy/ALd4DhG4VwHRyxmQglt2v9cJBo4MxT-GRoeBCKSoLv1-E2ETxQhDyQUWR5jsac-m8I0wL5Y6dSQR5hACR95FWIkJGb88VwYAuVxuIvFYzQ1COec7Si3JnRs5T6iL7nj7iHwSTan7UdFUC7dGepIWP9brhe0NUDGWKq0SG9k-1kNOFGrENe_0lDOfZJq3r7BOKR94HdnrQA=w408-h306-k-no,2.0,0,2025-05-29T00:56:14.959Z,electronica
Microondas Olavarría,Tienda de electrónica,,Bolívar 2937,+54 2284 32-0126,Olavarría,Provincia de Buenos Aires,-36.8973606,-60.3242582,5.0,15,https://lh3.googleusercontent.com/gps-cs-s/AC9h4noyZsb_qJsvInJXBd6nRqNRzgQzN9Ke5A18duztHBUWDWZjVVN3ihY4HTvplYmVomfHYTD84Lq0e-2AxbCUAbkjB_sP3Cp1PIGrKriwn05cFgq8N41l8plL2FUORf1PWk3p0LQD=w408-h306-k-no,7.0,1,2025-05-29T00:56:14.959Z,electronica
Electró Nico,Tienda de electricidad,,Av. Pellegrini 2027,,Olavarría,Provincia de Buenos Aires,-36.911139,-60.3140411,5.0,16,https://lh3.googleusercontent.com/p/AF1QipNCfWkG9b-rcLbCPqBkaRkZZu23SyzYafOZesTa=w426-h240-k-no,5.0,5,2025-05-29T00:56:14.959Z,electronica
VCP Informatica,Tienda de informática,,"Micro Centro, Necochea 3228",+54 2284 59-8795,Olavarría,Provincia de Buenos Aires,-36.8947458,-60.3164811,4.7,17,https://lh3.googleusercontent.com/gps-proxy/ALd4DhGf6XPeGoZekrpxzggd9L1BCH1IxdiRUUngNXUG2712Y9MrN_WvtUsVSFA7CgtrBi88Ec3pU41_jJya097I-eNjSUpefqpHO7ReKHrAQG8IpoWth_iVDcqNb38i21bqTkBIkxvBaQuZHwZYqJt1_vuQ1K37KYEDM4APy_B5JI8AMRSNLZ-8xTthZihB5NREqEVAZUM=w408-h306-k-no,5.0,16,2025-05-29T00:56:14.959Z,electronica
SIM de Mangano SA,,,Hipólito Yrigoyen 1849,+54 2284 44-2526,Olavarría,Provincia de Buenos Aires,-36.881871,-60.3233644,4.0,18,https://streetviewpixels-pa.googleapis.com/v1/thumbnail?panoid=wEbWGlU5BBVZhnOmX5XelA&cb_client=search.gws-prod.gps&w=408&h=240&yaw=56.62276&pitch=0&thumbfov=100,1.0,9,2025-05-29T00:56:14.959Z,electronica
Radio Orlando,Servicio de reparación de televisores,,9 de Julio 2657,+54 2284 42-6484,Olavarría,Provincia de Buenos Aires,-36.8980155,-60.3196324,3.2,19,https://lh3.googleusercontent.com/gps-proxy/ALd4DhG8d1Fu27AxLW6bA1wzPUZPacLciSJ2Lr9p7rpFo7Z31ssTEbZyIlLrc2rYUrHVZrfapuHsLHcCy_rUGl5YUfpHQPoNZj87H-K2u4oVOqanZpSijEkc6Af-jBEspoHFanB9FtHuWtQtinP9UdpKVKbkqe7rxdXETit9NEovF--Hwc47NDVD_kkTxsSZFvzsEauq-q8=w408-h306-k-no,5.0,45,2025-05-29T00:56:14.959Z,electronica
LIBRPCBOX_SERVICIO_OFICIAL_LIBROVISION-AIPC_Computadoras,Tienda de informática,http://www.facebook.com/librovision,Av. del Valle 2616,+54 2284 55-1591,Olavarría,Provincia de Buenos Aires,-36.8967414,-60.3291468,,20,https://lh3.googleusercontent.com/p/AF1QipMRwv7-N57C4azLcyhICA-hoYz9d6hWJfITc8vF=w426-h240-k-no,2.0,0,2025-05-29T00:56:14.959Z,electronica
Kiosko Coquito,Tienda de alimentación,,Av. Ituzaingó 2160,,Olavarría,Provincia de Buenos Aires,-36.890201,-60.337712,4.3,2,https://streetviewpixels-pa.googleapis.com/v1/thumbnail?panoid=vIcnbuzk3ykhzMn62lbvwg&cb_client=search.gws-prod.gps&w=408&h=240&yaw=133.63295&pitch=0&thumbfov=100,2.0,6,2025-05-29T00:56:15.328Z,tienda
Mercadito Los Eduardos,Tienda de alimentación,https://www.facebook.com/mercaditolos.eduardos,Av. Ituzaingó 1801,+54 2284 63-1685,Olavarría,Provincia de Buenos Aires,-36.8922541,-60.340864,5.0,3,https://lh3.googleusercontent.com/gps-cs-s/AC9h4noksLB4yp5T2umjQKg4zzHWTRAxeTBsinn-EYvxQkHjjgrUk6BYCJvWL2h6p1LMnoPyNODfH2cVY5SiXj-f3GvcnRml3hzSzwq5UGuwrsuotnXtBD30qLKKkIQsytisiCIzbjuw=w408-h544-k-no,23.0,1,2025-05-29T00:56:15.328Z,tienda
Katrina,Supermercado,,Av. Alberdi,+54 2284 57-5415,Olavarría,Provincia de Buenos Aires,-36.8796149,-60.335099,5.0,4,https://lh3.googleusercontent.com/gps-proxy/ALd4DhHpRqiI3MoHu39l-Sjk82tGbt0e3pGk9eObCoRwhZYs0UKINjvPb_5CnThy7nRm0dYnSBAtfCZukdb5_y2Y7AfB3BbVx85jn7xzEsRVCrTCwkR5eU9D-GPjLXVAcPfsPIZAsP8CNuc0BXvYVEEHIgDbuP6OsaFJQ8JqGamI87QiPJxCA1-nCS75z3Qbw7LXS1prgMc=w408-h306-k-no,2.0,2,2025-05-29T00:56:15.328Z,tienda
Mercadito Adrian,Tienda de alimentación,,Av. Alberdi,+54 2284 68-9321,Olavarría,Provincia de Buenos Aires,-36.8783122,-60.333403,5.0,5,https://lh3.googleusercontent.com/gps-proxy/ALd4DhFImM__-p-GJwnDSkVhSU3mhyPkrwAhMkdEuFYq9210magBIuN-YMpTCaopqeXM4qG7Yjn_v5xcZsIzk_DhPFVYTQcqbRMSDph6CK5oIQAf3iW0Mo3ZFx6UDYABQie_9waY0s9YqMP03vNFKlGLa_w2v3ZnlArQRNyP-9HeB2JvJuew7hviGvWyQn7ms-ksM2Kwh6U=w408-h306-k-no,3.0,1,2025-05-29T00:56:15.328Z,tienda
Polirrubro Ramiro,Tienda de alimentación,,9 de Julio,,Olavarría,Provincia de Buenos Aires,-36.9082842,-60.3326015,4.3,6,https://streetviewpixels-pa.googleapis.com/v1/thumbnail?panoid=XLYhdPwop623Tn_JJCQ6Uw&cb_client=search.gws-prod.gps&w=408&h=240&yaw=334.87698&pitch=0&thumbfov=100,1.0,3,2025-05-29T00:56:15.328Z,tienda
Egno Shop,Tienda de alimentación,http://www.facebook.com/egnoshop,Av. Colón,+54 9 2284 60-9993,Gran Buenos Aires,Provincia de Buenos Aires,-36.8875141,-60.3206474,5.0,7,https://lh3.googleusercontent.com/gps-proxy/ALd4DhGrTk2BYcozS4BX2nLAzRtPtV54rN-EQ2cFRqSoxF_fuiP-eqfnPvcR5VTk8NzGX_iq1iy3NbaxhmqKNeDWMS1jd5Gob1-0UUsK3WH1mdZj7KMOvY5P_umUnyVGx34YUMkZrrfEhsV7Mo3ZJ0KwTeUPLEIzryoc-DEj8cEuFQW09tUNTiL1jEmX9MVU41anEKl2cV8=w408-h306-k-no,4.0,1,2025-05-29T00:56:15.328Z,tienda
"Mini Shoping ""Graciela""",Tienda de alimentación,,Belgrano 1866,+54 2284 41-5399,Gran Buenos Aires,Provincia de Buenos Aires,-36.8869101,-60.329398,5.0,8,https://lh3.googleusercontent.com/gps-proxy/ALd4DhEoFwvAyrxptER4FcPwY9-SgdO68fwd3AYXfYxUonTlPY1f5MA8atTNVwPKez_jl94y8x0EFVAQI9TKZHxiASVHrKVjYoszAa0LCeozypL81CkS7Vb7l0R6-r_dXffyTU2ZrDRUQwsMwJjfecVwvJHUslqeT3cmdHh_mKmFdXeZV5Q9SCvtS11emP-12SvZSZjqUaI=w408-h306-k-no,5.0,1,2025-05-29T00:56:15.328Z,tienda
Casa Gustavo,Tienda de alimentación,,España 3661,+54 2284 44-0938,Olavarría,Provincia de Buenos Aires,-36.8899815,-60.3127881,4.5,9,https://lh3.googleusercontent.com/gps-proxy/ALd4DhGizMZZqBqz5m9IqAq2cvyY2EITy-aNKUrfO_QKR6od4jO94ROOmd6u--mkjtaBw09yc3kVVZjNpBpIm_cSGfwo2wy5bS2TX1XtdBJEcmB2gjWKHDYUcjkh7JQbrPm_oMXyHsWPQNMe1DUuF9ExRVWJQuhlQCdTA8G9A37u-iNDZD0lrvQQ95PYt13ym3YwcT8mQQ=w408-h306-k-no,3.0,2,2025-05-29T00:56:15.328Z,tienda
El Triángulo Kiosko 24 Horas,Tienda de alimentación,,Gral. Paz 3098,,Olavarría,Provincia de Buenos Aires,-36.8964424,-60.3209609,4.0,10,https://lh3.googleusercontent.com/gps-proxy/ALd4DhGg5QqjTix8lY2ly68WpYi5lxvFCUTAiUMfPJgM4r9mBbP-PO4Rt8tLsk1pitX_76T42S6uXq-D21Ut3nGW6sHosXCzfKVScVNNvQqjTONNIkfrur9qQlgF7rxB2ACekQQa1ntqqxbZi42ECOMKyJPuZcCm3eGanpTNxoBkTmeSNSx8lkXZh4kiE0q2LMZNUEACKq4=w408-h306-k-no,3.0,6,2025-05-29T00:56:15.328Z,tienda
Fattigati II,Tienda de alimentación,,España 2774,+54 2284 42-3058,Olavarría,Provincia de Buenos Aires,-36.8960521,-60.3200356,5.0,11,https://lh3.googleusercontent.com/gps-proxy/ALd4DhHv9AU6YrX7eH2R5wt5j_DNiwZeY37_p7w0kf341o_dKhu2l1jsb2sRzavSy2NKA9kNPRDm776rpj8fTvgHLbYvpyce_VdsCCOvjatzj-qvmqt4pnXEGONTge-UgEzcjLVzHbBDpqFPbp3quFkQLwVO0AniLqPpv8hGEbH5KYtnItEDF_ZMxno2ygsRj2QweWZkQSo=w408-h306-k-no,2.0,1,2025-05-29T00:56:15.328Z,tienda
Gallitos,Tienda de alimentación,,Av. Urquiza 3574,+54 9 2284 55-9044,Olavarría,Provincia de Buenos Aires,-36.8969141,-60.3057529,5.0,12,https://lh3.googleusercontent.com/gps-proxy/ALd4DhHtmKeJizJoZuEk3co9VBhzCeC1UKPWwruOSp6NdhFQ7C8hnElfCS4ahelsSgFYKtnUeKPCLeFFAKS8Tx23km_VVZC6uRlrBG-Bocw9IP-n44cOrrwLcmPwrndrAHo0PAeUBZ69ItIBLHqRfrYKNMN8EEP5l6azHJY_Jih_ZhCsNwy9uyU-5ChVeiQGXXj3wg7i3ys=w408-h306-k-no,2.0,1,2025-05-29T00:56:15.329Z,tienda
Intertel,Tienda de alimentación,,Lamadrid,+54 2284 44-3327,Olavarría,Provincia de Buenos Aires,-36.8994097,-60.3258018,2.3,13,https://lh3.googleusercontent.com/gps-proxy/ALd4DhEV3ZN0G84WewVNspx-3zoUxvCzT5S7SS1NfFkXSHETqZ9jwJ5w9LRosz0oO4VsDNTz1VqY0zBY95N9sYAFsYLFUVVq5pgVHGqiblBJqwBKGX8TDxs7xsxcnYqWyPQvlQxoUy3LAmXt669-nE3adOtE9-l9u5vNp1yYxvHFpBVO82eoJmadUwkJYWI1xv5FWfynGQ=w408-h306-k-no,4.0,3,2025-05-29T00:56:15.329Z,tienda
Autoservicio Otoniel,Tienda de alimentación,,Av. Avellaneda,+54 2284 41-7800,Olavarría,Provincia de Buenos Aires,-36.911926,-60.329806,3.0,14,https://lh3.googleusercontent.com/gps-proxy/ALd4DhEZ_96rXQhtky2vKmyVl47GU93IMCTUPpXEUj3h9tE00D0_QfZgxK1XnVCqN9IhsE6Ea92QbQf1FkdAM47IXuuogTjo9iySLoDgC60git65bOwkyybrSWB4pKchEQ67I1VGb26Bxzr3dfTlwaXEcEYOhUZvxA4cnYS1YkyI5zpX3wQTACAGvEpX3jh95Pfeb7AihMQ=w408-h306-k-no,3.0,1,2025-05-29T00:56:15.329Z,tienda
Kiosco Mechu,Tienda de alimentación,,Av. del Valle 4080,,Olavarría,Provincia de Buenos Aires,-36.9065812,-60.3169686,4.7,15,https://lh3.googleusercontent.com/gps-proxy/ALd4DhF5J5ovVHAfH5fr7HM9VVe8AyGa5Gw83YQol6yYpHXVvWMq0ay1n2JrGwpx0KoWfZW_leb8uOW8q4i78n6kNNyaZkpKQiame7t2s8-xrojVp8WBj8erzpwhvjNQjUrVl9SILJt8ZUpetRycHu0VtmFr7hEmm0qneJDt0dMB9Gg0_yH7Jr8XFJ9Kg1S1nfkZToPQh8o=w408-h306-k-no,7.0,6,2025-05-29T00:56:15.329Z,tienda
Kiosco Reyes,Tienda de alimentación,,Av. Colón 1758,+54 220 944-0894,Olavarría,Provincia de Buenos Aires,-36.882994,-60.3261593,5.0,16,https://lh3.googleusercontent.com/gps-proxy/ALd4DhEyZvEQJE4eKb-bTf0vH_0H7nb9YcZwmZTdZJbfsiga8zearrm9MvnKfe3VUjobGcvo_GLVKlqVj_0ik3zZDJH1desoiNLYdmJeGOksl6llRgYRTqbudu3ZRkIQCIc68cpOZsletjZfaA2y7qyRYwgup8T01yCcJ0yeRN8VFLDAjcsQG9Dout19vpP_m9xQej6-EBA=w408-h306-k-no,6.0,2,2025-05-29T00:56:15.329Z,tienda
La Vía,Tienda de alimentación,,Av. Domingo Faustino Sarmiento 3494,,Olavarría,Provincia de Buenos Aires,-36.8905259,-60.3067101,3.0,17,https://lh3.googleusercontent.com/gps-cs-s/AC9h4nqmXp5aKzThdqwEq3qARboXvml4ftq_CYD3EBkzfGi2JACXmuV9vMU_YBXJDP14eBWddL0VuVdSt8k8V_9HFcsQJoC2M12f6TJU4brBeoI0eiIvGqW721XdbNeEKPzw_uLfaJD7=w408-h306-k-no,3.0,2,2025-05-29T00:56:15.329Z,tienda
Kiosco Leo-Luc,Tienda de alimentación,,Hipólito Yrigoyen 3768,+54 2284 41-6931,Gran Buenos Aires,Provincia de Buenos Aires,-36.895055,-60.3076382,5.0,18,https://lh3.googleusercontent.com/gps-proxy/ALd4DhE_Ctwn70iAzvur2jMo6U1O2u6QTazDCV1u1poPytpzEuZ6oWgken8OPk5LnR6CDTx828wWlxeVz9lfcCIoQ83Za8R7SCvoNMjQYKjHwFzXcrPdUslbbV6Go0HIjl6CvP8iKyRFYK2os8g2_rbu5wFFI6-NJLYGZklByuPURyngGPnM45n0-4I2f8vgnH-X0nMfZw=w408-h306-k-no,3.0,1,2025-05-29T00:56:15.329Z,tienda
"Minimercado ""Lo de Sosita""",Almacén,,Cerrito 4115,+54 2284 30-0138,Olavarría,Provincia de Buenos Aires,-36.8807725,-60.316336,4.3,19,https://lh3.googleusercontent.com/gps-cs-s/AC9h4nr7CcAzM1AXmc6L2HAlknpMFO3gxXbKN6BfgyRirL5TXD6T0tKha6Ow3HunmErZyMBmwFY7IHykGXOsJcyYFDskYnHQs1_wgDOiOiPxG0qGm3P3rTjWrjCIUrXdU0nW22yXQ-PN=w408-h306-k-no,10.0,3,2025-05-29T00:56:15.329Z,tienda
Maxikiosko Lavalle,Tienda de alimentación,,Lavalle 2715,+54 2284 41-5660,Olavarría,Provincia de Buenos Aires,-36.8922178,-60.3255492,,20,https://lh3.googleusercontent.com/gps-proxy/ALd4DhHDncQzBeLiNwVJft6QHgFPaXQZ2n-LRCwSG-mgoh9BdAnlwVLcOaA7XbNAyJQ8Sen6F9v9eO8Id3CfMv9lJvNQAk-RAJysXK7PgmVQLefSqTlV8pKuiTV7C2EaVPiHZIn6Ts0_jAkMWRD11XOo7RviPy2dn2aCfTqABRxYWo5kvq8DNbGQ53XRsanEGunePZ8uC6Y=w408-h306-k-no,5.0,0,2025-05-29T00:56:15.329Z,tienda
Blancoie,Tienda de ropa de cama,,9 de Julio 3044,+54 2284 47-8934,Olavarría,Provincia de Buenos Aires,-36.8955694,-60.3163606,4.5,3,https://lh3.googleusercontent.com/gps-proxy/ALd4DhEaj0DGU0Kl3EguEScfj5MAbZidy3oxJyKsbdn1gIBpgNdP9Zpt48vRqh9HdBnFpe2-9OLss-px1_K1Jpw5_qre0WktivyRGA3nISTt5gaFZFH1cErSdcOcBLkivVOWWnf7nagmU3Evb8wrD9_UjxRHyIguC1xn0iic3EJtz8K7e6d5k5hacwEkID-YP3LrGqxXW18=w408-h306-k-no,11.0,2,2025-05-29T00:56:16.395Z,bianqueria
Wangulén Repuestos,Tienda de repuestos para automóviles,,Ayacucho 2971,+54 2284 32-0325,Olavarría,Provincia de Buenos Aires,-36.8851736,-60.3302344,,2,,,0,2025-05-29T00:56:17.787Z,repuestos
Splendore VW Servicios - Repuestos Unidades 0 Km Y Usados,Taller de automóviles,,"Av J B Alberdi 3180, Olavarr a, Buenos Aires",+54 2284 45-5899,Olavarría,Provincia de Buenos Aires,-36.8792874,-60.3340721,3.9,3,https://streetviewpixels-pa.googleapis.com/v1/thumbnail?panoid=XJPcR25FTgt33NggYKyRvw&cb_client=search.gws-prod.gps&w=408&h=240&yaw=145.78052&pitch=0&thumbfov=100,1.0,14,2025-05-29T00:56:17.787Z,repuestos
CLG REPUESTOS,Tienda de repuestos para automóviles,,,,Olavarría,Provincia de Buenos Aires,-36.8985376,-60.3268291,5.0,4,https://streetviewpixels-pa.googleapis.com/v1/thumbnail?panoid=iMz_HDxb9c3awzR1lrhnLQ&cb_client=search.gws-prod.gps&w=408&h=240&yaw=287.455&pitch=0&thumbfov=100,1.0,1,2025-05-29T00:56:17.787Z,repuestos
Repuestos Agricolas Alberdi,Tienda de repuestos para automóviles,https://www.facebook.com/profile.php?id=100016058346859&mibextid=2JQ9oc,Av. Colón 1955,+54 2284 55-2840,Olavarría,Provincia de Buenos Aires,-36.8840191,-60.3240502,4.7,5,https://lh3.googleusercontent.com/gps-proxy/ALd4DhG471fDoCMiElMwWVbVSYvZav6TyyslyQOjqWJycAQzjg26hQcBfKScrDWD_zPocywDxnBIYT-_ie_IADU5IIcG4pF27DoGrgDC4jpN985F3h31PJMQo37rTDMWY3_JfPo8Sgvn7zcxyBY2bFmq5EzccxYw5HJTqkhK0UBFCAKpxgy1acEJ-CJyIQNsAgM0j__XEQ=w408-h306-k-no,9.0,35,2025-05-29T00:56:17.787Z,repuestos
Repuestos Chiappe,Tienda de repuestos para automóviles,https://www.facebook.com/Repuestos-Chiappe-para-el-Automotor-109103693939760/,Av. Colón 3099,+54 2284 42-7800,Olavarría,Provincia de Buenos Aires,-36.8916341,-60.3147977,4.5,6,https://lh3.googleusercontent.com/p/AF1QipMf13k36vjiCMuOPF4Ew48bqC86m9vnCwi3uHMI=w497-h240-k-no,7.0,217,2025-05-29T00:56:17.787Z,repuestos
Repuestos Magford,Tienda de repuestos para automóviles,,Independencia 3027,+54 2284 44-0850,Olavarría,Provincia de Buenos Aires,-36.8861534,-60.3280264,4.6,8,https://lh3.googleusercontent.com/gps-cs-s/AC9h4noOfNQkFVWAuEhnnm3rmlZ3zDiT8LrDks-SOKQ2_Tc-nKHLrYdER2MY4cTkfPeGMAHGgCb1UdASYZNgWHIpm-j6TyO2rpVYekNFFnbBtLolmYNHsgtlC0gwQ1poxPk9XCMsG83iRg=w408-h306-k-no,8.0,144,2025-05-29T00:56:17.787Z,repuestos
Yokohama,Tienda de repuestos para automóviles,,,,Olavarría,Provincia de Buenos Aires,-36.8970784,-60.3080971,4.7,9,https://streetviewpixels-pa.googleapis.com/v1/thumbnail?panoid=FnGracblP7uADmLFwKK5cg&cb_client=search.gws-prod.gps&w=408&h=240&yaw=292.28476&pitch=0&thumbfov=100,1.0,3,2025-05-29T00:56:17.787Z,repuestos
Kegreiss Alfredo,Tienda de repuestos para automóviles,,Cnel. Suárez 1687,+54 2284 45-5068,Olavarría,Provincia de Buenos Aires,-36.8875274,-60.333111,5.0,10,https://lh3.googleusercontent.com/gps-cs-s/AC9h4nqYGzs46eBCxR5fjLy0Suh1eCVFbLLRRrjgI0gqORZs9nkWCW5ZHrOvVbKXu6qb87gRUsLacUAA2nFxabrAjyAXEvFLjVm3sxpSWgk8NMxL0ZFI42fRkYkaJpglyZLMyMRx-PVj1w=w408-h306-k-no,3.0,23,2025-05-29T00:56:17.787Z,repuestos
La Casona de Diego,Chatarrería,,"Club Atlético Pueblo Nuevo, Necochea 1734",+54 2284 47-3939,Olavarría,Provincia de Buenos Aires,-36.8847002,-60.3288765,4.4,11,https://lh3.googleusercontent.com/gps-proxy/ALd4DhFS77iUUu395fNvYeUdUe7WP6YB-JWch3_ZlhkFnIuHFQ3s6LfZR2QNw1Zcr9ujZkr-GW5c2ixCr46PakAWZ49S5Lk1tOIH-lSqdeTV67wbG5xF3_WCR1a7rXIpmBjrIDBbrdYEJGsNR6k3ZIozIefdAO8bZfiyqqSX4gp9awTmKLimmYDd6IjIBMdXkwRT455ndA=w408-h306-k-no,9.0,12,2025-05-29T00:56:17.787Z,repuestos
Repuestos D'Onofrio,Tienda de repuestos para coches de carreras,https://www.facebook.com/RepuestosDonofrio/,Av. Colón 2666,+54 2284 42-7134,Olavarría,Provincia de Buenos Aires,-36.8890453,-60.3186281,4.6,12,https://lh3.googleusercontent.com/p/AF1QipMoeJy2-T35lb-vjGd1d6MJ50ZiqSDN11h3MgfW=w408-h306-k-no,12.0,233,2025-05-29T00:56:17.787Z,repuestos
Marconi SRL ? Repuestos Mercedes Benz,Taller de automóviles,,Av. del Valle 3979,+54 2284 44-2014,Olavarría,Provincia de Buenos Aires,-36.905541,-60.31761,4.4,13,https://streetviewpixels-pa.googleapis.com/v1/thumbnail?panoid=9SUPvFAovzbW-fzfKNrSGA&cb_client=search.gws-prod.gps&w=408&h=240&yaw=36.529724&pitch=0&thumbfov=100,1.0,14,2025-05-29T00:56:17.787Z,repuestos
Repuestos Chiappe Para El Automotor,Servicio de reacondicionamiento de motores,,Av. del Valle 2907,+54 2284 38-7922,Olavarría,Provincia de Buenos Aires,-36.8985583,-60.3261692,5.0,14,https://streetviewpixels-pa.googleapis.com/v1/thumbnail?panoid=USKu50557lU6MEb7zT44YQ&cb_client=search.gws-prod.gps&w=408&h=240&yaw=38.8287&pitch=0&thumbfov=100,2.0,2,2025-05-29T00:56:17.787Z,repuestos
Autopartes Del Valle,Tienda de repuestos para automóviles,https://www.facebook.com/Autopartes-del-Valle-2152756388176677/,Av. del Valle 2570,+54 2284 54-4722,Olavarría,Provincia de Buenos Aires,-36.8963524,-60.329492,4.3,15,https://lh3.googleusercontent.com/p/AF1QipNfX7UpOtpN1Nx1w5i6_E2q4pElW8TzMDfbgUHF=w426-h240-k-no,19.0,48,2025-05-29T00:56:17.787Z,repuestos
El Cholo Repuestos Citroën,Tienda de repuestos para automóviles,,Antonio Pelegrino 1058,+54 2284 42-8912,Olavarría,Provincia de Buenos Aires,-36.8865759,-60.3425532,4.4,16,https://streetviewpixels-pa.googleapis.com/v1/thumbnail?panoid=SszJHR1TF1i4iPamB8ZK9A&cb_client=search.gws-prod.gps&w=408&h=240&yaw=44.512493&pitch=0&thumbfov=100,1.0,31,2025-05-29T00:56:17.787Z,repuestos
Motorepuesto León,Tienda de repuestos para motos,,Buchardo 1459,,Olavarría,Provincia de Buenos Aires,-36.8912804,-60.3419301,4.6,17,https://lh3.googleusercontent.com/p/AF1QipNe7myVPZY463TBTEN46KJLely118yvMXasSfvD=w408-h725-k-no,8.0,9,2025-05-29T00:56:17.787Z,repuestos
La Unica,Servicio de lavado de coches,,"MOO, Av. Domingo Faustino Sarmiento 2750",+54 2284 41-6370,Olavarría,Provincia de Buenos Aires,-36.885633,-60.312906,3.8,18,https://lh3.googleusercontent.com/gps-proxy/ALd4DhHERt7Ia0BKIfwt0TdynuQNa8AhFgPvkIUVP5CzwOdTm7tpIKtGEZ1dopdS414D5yqR_ogf_4gboubzxrCGvrqU52Ea6bY1F4SpkX3Rd8mZOGPizSesD-MTjD-8diFrjoYAE_ECQ5e4okfilxy6PZZ-juXBW5gSga6XH1u6UMwDW80xe4TSf2wLUQoQXbgBuGBHyRA=w408-h306-k-no,4.0,19,2025-05-29T00:56:17.787Z,repuestos
Framar Autopartes,Tienda de repuestos para automóviles,http://autopartesframar.com.ar/,Vicente López 1874,+54 9 2284 68-3603,Olavarría,Provincia de Buenos Aires,-36.8993863,-60.3308933,4.5,19,https://lh3.googleusercontent.com/p/AF1QipMGZImhrRyTX2cqOLKDsgL_B9E-BFwaTm7F5gbx=w408-h408-k-no,21.0,39,2025-05-29T00:56:17.787Z,repuestos
Diésel San Gabriel S.A.,Tienda de repuestos para automóviles,,"Villa Floresta, Laprida 3801",+54 2284 42-4278,Olavarría,Provincia de Buenos Aires,-36.9045217,-60.3188082,4.9,20,https://lh3.googleusercontent.com/gps-proxy/ALd4DhHoT8svYH_kwLPR3jmJmHyz-29TvYg7VwUBDCNCRjP16A7QDdJQuKFhKbxcOF8Qhcj3IDfqQEVOI5z-WW8Yy6Jzkyn66QcuiezWOlzEnL9rHSdiBAnSzawP9YzEgPNT5wLgezPIO4wpP9FVoBUPwAESyCgUYDO8VOBaGTECx9dbUkz7camhVzEm9FkBBLu5sujwQ7g=w408-h306-k-no,3.0,140,2025-05-29T00:56:17.787Z,repuestos
Taller El Ruso - Service Autorizado Fiat,Taller de chapa y pintura,,Ramón Rendon 1745,+54 2284 42-0135,Olavarría,Provincia de Buenos Aires,-36.8968925,-60.343875,4.6,21,https://lh3.googleusercontent.com/p/AF1QipMy6ss96Xl_rlJeprhs0Yb4wNe3Ppi0ZyoMOnvJ=w411-h240-k-no,6.0,53,2025-05-29T00:56:18.351Z,repuestos
Mva Post Venta,,,,,Olavarría,Provincia de Buenos Aires,-36.9015771,-60.3223251,,2,https://streetviewpixels-pa.googleapis.com/v1/thumbnail?panoid=IlYfJV2kFzlT-1-WNZc5Xg&cb_client=search.gws-prod.gps&w=408&h=240&yaw=288.4212&pitch=0&thumbfov=100,1.0,0,2025-05-29T00:56:18.675Z,venta
Venta De Conejos,Comercio,,Rufino Fal 2140,,Olavarría,Provincia de Buenos Aires,-36.8802604,-60.3159389,2.0,3,https://streetviewpixels-pa.googleapis.com/v1/thumbnail?panoid=VibwhyOefF0GRsLYlsX_mw&cb_client=search.gws-prod.gps&w=408&h=240&yaw=214.96236&pitch=0&thumbfov=100,1.0,2,2025-05-29T00:56:18.675Z,venta
Remates Olavarría,Casa de subastas,,Av. Ituzaingó 2756,+54 2284 71-3414,Olavarría,Provincia de Buenos Aires,-36.8865174,-60.3332396,5.0,4,https://streetviewpixels-pa.googleapis.com/v1/thumbnail?panoid=CVsSn49NnnbGT5QG7jieZA&cb_client=search.gws-prod.gps&w=408&h=240&yaw=89.940216&pitch=0&thumbfov=100,1.0,1,2025-05-29T00:56:18.675Z,venta
La dinastía venta de alimentos,Mercado,,Av. Pringles 2735,,Olavarría,Provincia de Buenos Aires,-36.8981161,-60.3181325,5.0,5,https://lh3.googleusercontent.com/gps-cs-s/AC9h4nqHI9rXz2yZTlYtvktByx7iczIz2_IlSz_Zv8Ymx3_aLoqO4EODywRV1VaP01Y6ibVsinjYN9L8f0OdHePGJcaWrwNnmQkGiGo-umgmTYw6s2cBQwl6QDTf3TdvkFLUPDlMIzPd=w426-h240-k-no,6.0,1,2025-05-29T00:56:18.675Z,venta
Pesca y Camping el Barba,Tienda de artículos de camping,https://www.facebook.com/Pesca-El-Barba-279981982178451/,Dorrego 795,+54 9 2284 22-5219,Olavarría,Provincia de Buenos Aires,-36.8786867,-60.3374206,4.4,9,https://lh3.googleusercontent.com/gps-cs-s/AC9h4npsQCPU4F5OortoL_0lGKd0TxaLyP9uQnPohJpMIuLnxbH6jP-I-Rsi9SsoC66pIw3XDwc6JTKqXsKg5EABL8qBzdrQrkpcPUzTKIrzuxuGWLIPhlwrWyCfQzL6Ek34Q4VWn7G50Q=w408-h306-k-no,26.0,115,2025-05-29T00:56:18.675Z,venta
AS Estufas Olavarría,Tienda de estufas de leña,,Av. Avellaneda 3043,+54 2284 41-1312,IDH,Provincia de Buenos Aires,-36.9073266,-60.3353933,4.6,10,https://lh3.googleusercontent.com/gps-proxy/ALd4DhGCBUK-D_CV1Ml-RkGKB7bRhaPbcSg3QRsGIfKmQ20kFF2p0JDkd5Yv6mSkH4WsrN10a2J_3rJ7VjTJ2m0taxMHE9zyDVc2BLzQe8903kw7EGqzF7-FFO-8yCfUcgbGjuIA3v5LtfPmnkZZ1e-nBtiIemj54SLmUNPcj14kI0MB6Y0OaTAdUO7aayZmw3LpG09jsA=w408-h306-k-no,20.0,14,2025-05-29T00:56:18.675Z,venta
Casa Elizaga venta y reparación de máquinas de coser,Servicio de reparación de máquinas de coser,,Antonio Pelegrino 3626,+54 2284 41-0726,Olavarría,Provincia de Buenos Aires,-36.9039833,-60.3212378,4.8,12,https://lh3.googleusercontent.com/p/AF1QipNyIgL44kPZuFlRbuolWTRnINC5LmImyWITc0Al=w408-h906-k-no,13.0,49,2025-05-29T00:56:18.675Z,venta
Maderas Del Sur,Establecimiento de venta de madera,,Av. Pringles 1050,+54 2284 50-5121,Olavarría,Provincia de Buenos Aires,-36.9095484,-60.3317994,4.7,13,https://lh3.googleusercontent.com/p/AF1QipMDBGQAePMEe47CbRvevC8U5pOz7jIR19HJG74S=w408-h408-k-no,7.0,30,2025-05-29T00:56:18.675Z,venta
OLAVARRIA AUTOMOTORES,Concesionario de automóviles,https://www.facebook.com/olavarriaautomotores,Rivadavia 4698,+54 2284 67-3645,Olavarría,Provincia de Buenos Aires,-36.8810424,-60.3064292,4.5,14,https://lh3.googleusercontent.com/p/AF1QipP4nYQt0mrsWdcOqHHnAXRMifKtiTSVbrxG5rAy=w408-h283-k-no,31.0,17,2025-05-29T00:56:18.675Z,venta
Messineo Maderas,Carpintero,,Independencia 2780,+54 2284 41-2945,Olavarría,Provincia de Buenos Aires,-36.8880205,-60.3299529,4.5,15,https://lh3.googleusercontent.com/gps-cs-s/AC9h4nqcWZN5qjQGew_AMHKzVp7MoM8sMkjegjzLec24XWigbo02U0zShYnAgKDBwJ3FyvVlLZxav7S1079Jlu48sMMH0TsKS-UWJVs3ZGl7BAHh_M0NAGTh_kPnBWmbK6MyMnO1P05o=w426-h240-k-no,23.0,230,2025-05-29T00:56:18.675Z,venta
Inmobiliaria Vaccaro,Agentes inmobiliarios,http://www.inmobiliariavaccaro.com.ar/,España 2356,+54 446070,Olavarría,Provincia de Buenos Aires,-36.8988726,-60.3234838,4.4,16,https://lh3.googleusercontent.com/p/AF1QipOlczh1e7ftZPxUTJi0qixhpT0hwa5_SK3xiBAR=w408-h544-k-no,3.0,51,2025-05-29T00:56:18.676Z,venta
Inmobiliaria Notararigo de Juan Carlos Notararigo,Agencia inmobiliaria,http://notararigoweb.com.ar/,Av. del Valle 1520,+54 2284 42-5976,Olavarría,Provincia de Buenos Aires,-36.8891121,-60.3381844,3.0,17,https://streetviewpixels-pa.googleapis.com/v1/thumbnail?panoid=Ov_NcqZ75mAanPgTvbkFuA&cb_client=search.gws-prod.gps&w=408&h=240&yaw=85.090675&pitch=0&thumbfov=100,1.0,5,2025-05-29T00:56:18.676Z,venta
Claudio Refrigeracion - Fca Y Venta Amoblamientos Comerciale,Tienda de muebles,,Av. Pringles 3492,+54 2284 44-3306,Olavarría,Provincia de Buenos Aires,-36.8933159,-60.3113497,,18,https://streetviewpixels-pa.googleapis.com/v1/thumbnail?panoid=AY6rndSbHXyBFgJNBMAx4w&cb_client=search.gws-prod.gps&w=408&h=240&yaw=119.56546&pitch=0&thumbfov=100,1.0,0,2025-05-29T00:56:18.676Z,venta
El Arriero Asador Criollo,Parrilla,https://m.facebook.com/arrieroasador.criollo.5,Av. del Valle 3405,+54 2284 41-3030,Olavarría,Provincia de Buenos Aires,-36.9020272,-60.3218611,4.6,19,https://lh3.googleusercontent.com/p/AF1QipNoTZmEyVJZT5N7rHyfUeQ8PsSb7K-wru_eahs=w408-h544-k-no,30.0,220,2025-05-29T00:56:18.676Z,venta
Inmobiliaria Coniglio,Agencia inmobiliaria,,Av. del Valle 2571,+54 2284 48-5959,Olavarría,Provincia de Buenos Aires,-36.8961892,-60.3290539,4.4,20,https://lh3.googleusercontent.com/p/AF1QipNvyKQW6TWKLh4HfEGRO8pHA_n69L866RopGFk=w408-h240-k-no,4.0,9,2025-05-29T00:56:18.676Z,venta
Tecno Olav,Comercio,,Av. del Maestro 3875,,Olavarría,Provincia de Buenos Aires,-36.9168018,-60.3332312,,5,,,0,2025-05-29T00:56:20.068Z,comercio
Kiosco Los Robles,Tienda de alimentación,,"Rossi entre alsina e italia, Alsina",+54 2284 55-3435,Olavarría,Provincia de Buenos Aires,-36.9064296,-60.3416387,4.3,6,https://lh3.googleusercontent.com/p/AF1QipMW_UE3fgFqorVKKz2cxuxx0YycFgxY0d0cea6F=w408-h725-k-no,2.0,52,2025-05-29T00:56:20.068Z,comercio
"NUCLEO TECNOLOGICO ""ADN""",Comercio,,Av. Avellaneda 3117,+54 2284 73-1675,Olavarría,Provincia de Buenos Aires,-36.907887,-60.3348929,,11,https://lh3.googleusercontent.com/p/AF1QipNYLX5e_aCVzD16oVoRG1joEtdOnF4NvwUgisd8=w408-h306-k-no,4.0,0,2025-05-29T00:56:20.069Z,comercio
Quinta jurado,Frutería,,3JVH+3P,,Olavarría,Provincia de Buenos Aires,-36.90736,-60.3706764,,12,,,0,2025-05-29T00:56:20.069Z,comercio
Entre pueblos,Carnicería,https://instagram.com/entrepueblos.carniceria?igshid=YmMyMTA2M2Y=,"Avellaneda, Alsina y",+54 2284 23-3126,Olavarría,Provincia de Buenos Aires,-36.9045718,-60.339494,5.0,13,https://lh3.googleusercontent.com/p/AF1QipOa4Y-lGX854YvYusOYjuRkxrsVhj5g_HRorzWt=w533-h240-k-no,2.0,11,2025-05-29T00:56:20.069Z,comercio
PICHICHUS,Comercio,,Av. Pueyrredón 2892,+54 2284 52-4042,Olavarría,Provincia de Buenos Aires,-36.902419,-60.331999,,15,https://lh3.googleusercontent.com/gps-cs-s/AC9h4nrkPhnVjkBK9YIR3DXto6ktj0RsgPfCc1J6Cec0qnqvkq0x48gMh3WAjholggWML81kN1x3ifcqIGp9h0Xr6pAsmR6EmnfRtHvvq4f4B7XAqxxboTHry-r4y1ciiq18bEzKAWUs=w533-h240-k-no,14.0,0,2025-05-29T00:56:20.069Z,comercio
Combi,Comercio,,9 de Julio 1414,+54 2284 44-4084,Olavarría,Provincia de Buenos Aires,-36.9065417,-60.3298055,4.0,16,https://streetviewpixels-pa.googleapis.com/v1/thumbnail?panoid=lPXSKJnZt-yADPN2AdSWcA&cb_client=search.gws-prod.gps&w=408&h=240&yaw=137.37317&pitch=0&thumbfov=100,2.0,4,2025-05-29T00:56:20.069Z,comercio
Cooperativa Obrera,Tienda de alimentación,http://www.cooperativaobrera.coop/,Rivadavia 1751,+54 2284 42-4983,Olavarría,Provincia de Buenos Aires,-36.900801,-60.3313057,4.3,18,https://lh3.googleusercontent.com/gps-cs-s/AC9h4nqTEovcMJwCLpBIO1kuU2z_sSOv1trIzE-3OAm3kgtHtHCJU5NFlXFwkdNL5qMlUKy9iQLeNkdrYaS9HpHDLja6k_jssuIO6EGGzv--km00KVvTWmXE4t4gxFKgDviSROAyQHI=w408-h544-k-no,133.0,937,2025-05-29T00:56:20.069Z,comercio
Mercadito Lamadrid,Tienda de alimentación,,Lamadrid 1401,+54 2284 44-4704,Olavarría,Provincia de Buenos Aires,-36.9044015,-60.3325514,4.6,19,https://lh3.googleusercontent.com/gps-cs-s/AC9h4nrtvMmKnUC5zZpSeOqQz-5bnAW22zGF4jtn_U_4SNmTfX7YPKzvynMqhizHUSnKZVv8K3lrOHoXd-oYjwRnyRhilz2fRiwQhED4l5o65m5q2P_RhbcwqHvxl9dJozmwRYu1ZxE=w408-h306-k-no,5.0,18,2025-05-29T00:56:20.069Z,comercio
Polirrubro Deja Vú,Tienda de alimentación,,"Villa Floresta, Av. Pellegrini 1335",,Olavarría,Provincia de Buenos Aires,-36.9157194,-60.3199653,3.8,19,https://lh3.googleusercontent.com/gps-proxy/ALd4DhHxfxMGJKs3d0kL8xCs6J8FaQLbgm2DtuxiAttu-v9NlryCn-HO1sze9FGgUnu_2Q-AS3TVEgjoQeTz4p2Dr2ax0fW6UTmjhnLbgPX9iwEI7x744oDqgCP2SNBcmYADKK8El6yFNr9HFTVqZwnGrIDNzSvLlnI07RVMH7DNrTJIXG4qyvMGWd6HYQ172l0mW1Ovzw=w408-h306-k-no,2.0,4,2025-05-29T00:56:21.244Z,tienda
Tecnomania Olavarría,Tienda de informática,https://www.instagram.com/tecnomania_olavarria,7400,,Olavarría,Provincia de Buenos Aires,-36.9014924,-60.3197878,5.0,19,https://lh3.googleusercontent.com/p/AF1QipPiI4dZlmRbEbn5mO2c9EJg1O6iI7miAen4BHr-=w408-h408-k-no,6.0,1,2025-05-29T00:56:21.835Z,electronica
Nestor R Domina Repuestos,Tienda de repuestos de automóviles usados,,Av. del Valle 2907,+54 2284 42-3983,Olavarría,Provincia de Buenos Aires,-36.8985165,-60.3261756,4.5,5,https://lh3.googleusercontent.com/gps-cs-s/AC9h4nreBxSK62TlF3UG6_eeyVLQ_E13TpU0c6jF7FIbim3v4yjxPFDzW6CORuK76ONCsbGdk9xrME_-c5SjDiV1pHqx7v-UTOTqXrVr95sA61GdyBHh0ByFj8Bbt3minmXmD46Lhpg=w408-h544-k-no,5.0,52,2025-05-29T00:56:23.180Z,repuestos
Repuestos Pueyrredon,Tienda de repuestos para automóviles,,Av. Pueyrredón 3218,+54 2284 42-7859,Olavarría,Provincia de Buenos Aires,-36.8957792,-60.3400076,,6,https://streetviewpixels-pa.googleapis.com/v1/thumbnail?panoid=uiZz1CXnZGRSZ_0F_TnbzA&cb_client=search.gws-prod.gps&w=408&h=240&yaw=244.76349&pitch=0&thumbfov=100,1.0,0,2025-05-29T00:56:23.180Z,repuestos
Todo Rulemán,Tienda de repuestos para automóviles,http://www.todoruleman.com/,Av. del Valle 2952,+54 2284 41-3373,Olavarría,Provincia de Buenos Aires,-36.8989908,-60.3264301,4.6,7,https://lh3.googleusercontent.com/p/AF1QipN45SDaN_4_4siop-GmKW0AyfGG3GQsYvE4-EmQ=w408-h306-k-no,100.0,175,2025-05-29T00:56:23.180Z,repuestos
Repuestos Odriozola,Tienda de repuestos para automóviles,https://www.facebook.com/alineacion.odriozola.hnos,Av. Pueyrredón 2842,+54 2284 42-2293,Olavarría,Provincia de Buenos Aires,-36.9021328,-60.3323917,4.8,11,https://lh3.googleusercontent.com/p/AF1QipNqUyyihZVgJJfKXABos1kaGyG_xWWT1tVhksAr=w408-h306-k-no,7.0,29,2025-05-29T00:56:23.180Z,repuestos
Zam Autopartes de Alejandro Zamudio,Tienda de piezas de automóvil,,Av. Pellegrini 2057,+54 2284 45-0150,Olavarría,Provincia de Buenos Aires,-36.9109477,-60.3138015,4.6,13,https://lh3.googleusercontent.com/gps-cs-s/AC9h4nrlZJCItX4AtZTFk5AVj87kYz9CGx5lOCp_jIxvK0xiPg9e6rGNHL2TEwSzLBZRvdMAnJrfqMs3PmqJR9OOuKufitpp90okUHW8WhLwYKYo_CLU2iz4-7e5_ln3I3IZBRbsFBfSgw=w426-h240-k-no,6.0,230,2025-05-29T00:56:23.180Z,repuestos
Uria repuestos,Tienda de repuestos para automóviles,,Av. del Valle 3273,+54 2284 41-8686,Olavarría,Provincia de Buenos Aires,-36.9007677,-60.3232916,4.7,14,https://lh3.googleusercontent.com/p/AF1QipPwF-LZZOQUQSy2naezr1bMEAnPcU1GUPR85DMS=w426-h240-k-no,49.0,75,2025-05-29T00:56:23.180Z,repuestos
Krohns Repuestos Originales VW,Tienda de repuestos de automóviles usados,,Vélez Sarsfield 4327,+54 2284 42-9914,Olavarría,Provincia de Buenos Aires,-36.9073765,-60.31358,4.6,15,https://lh3.googleusercontent.com/p/AF1QipNd5s-4MNZJ8WERH7j9nMVEnvkgs-cZr4qIU6-O=w427-h240-k-no,14.0,187,2025-05-29T00:56:23.181Z,repuestos
Newen Motors,Tienda de repuestos para automóviles,,Bolívar 3998,+54 2284 42-3950,Olavarría,Provincia de Buenos Aires,-36.9045755,-60.3158763,4.7,16,https://lh3.googleusercontent.com/gps-cs-s/AC9h4npnIksw8z5psviYROkbd4LKHoxEcpCnQmwOvYigcn9HPjQVODeW-pWbKUyAkuRdSzt9vEcS8VPCzzjLnkRkV9P-MlASPtQaZnE-vZ0AcH0VJ4IsbSxJZBAZFkAOgEmOmcHQcSYO=w508-h240-k-no,2.0,96,2025-05-29T00:56:23.181Z,repuestos
Agro Repuestos Olavarría,Taller de maquinaria,https://agrorepuestosolavarria.com/,Av. del Valle 3750,+54 2284 42-0180,Olavarría,Provincia de Buenos Aires,-36.9044937,-60.3197094,5.0,20,https://lh3.googleusercontent.com/p/AF1QipPnX6uNqIfgbGBX1KSJqZgt7qNOSDK3gMC-MU2c=w426-h240-k-no,19.0,13,2025-05-29T00:56:23.181Z,repuestos
The Beer Point,Cervecería artesanal,https://instagram.com/thebeerpoint.olav,Vélez Sarsfield 2793,,Olavarría,Provincia de Buenos Aires,-36.8968733,-60.3265079,5.0,19,https://lh3.googleusercontent.com/gps-cs-s/AC9h4nrA_5G1net-lJd7GH3MCm7gXCLdxqFZN0O1x9iPDktumfX2LMZaYEVuNQk4A5ty9mEzsw7YBbR6SFPeqMEFY2fOspHMRX9RPBAxHM9GpHl6znyutiWfWPM1_s2PBhmDXpXXKNfBrg=w408-h544-k-no,10.0,15,2025-05-29T00:56:23.370Z,venta
185 Motos-ATV,Concesionario de motos,http://www.facebook.com/185motos,Rivadavia 1940,+54 2284 41-6686,Olavarría,Provincia de Buenos Aires,-36.899603,-60.3294908,4.6,20,https://lh3.googleusercontent.com/gps-proxy/ALd4DhHi9Nbzns8df20JH7EsHtFkEU4dDEC8H5h7vQLpiQ44YOSTfCcdIpolNIEJB8U0F2sf4OAXOfqo8_YwHX8Jt1k-bkBbKEOPtrwFhONcPpSjyXKeMYhut2TlY4l6W4hkkWeeVzFmJJthXvESzHd69vnUYoqgul-2g6eGk6UOBZqBZkfXA-YlwW5J_Quz60GucgNWajQ=w408-h306-k-no,4.0,33,2025-05-29T00:56:23.370Z,venta
MP Creativos | Comunicación Visual | Diseño Gráfico,Diseñador de sitios web,,Beruti 4090,+54 2284 47-5094,Olavarría,Provincia de Buenos Aires,-36.8918943,-60.2980056,4.5,10,https://streetviewpixels-pa.googleapis.com/v1/thumbnail?panoid=yOW9LIORolZ5psjbAgXngQ&cb_client=search.gws-prod.gps&w=408&h=240&yaw=70.04145&pitch=0&thumbfov=100,2.0,4,2025-05-29T00:56:25.179Z,web
Shop 365,Comercio,,Rocha Enecait 4613,,Olavarría,Provincia de Buenos Aires,-36.8910802,-60.2872835,4.3,1,https://lh3.googleusercontent.com/gps-cs-s/AC9h4nqV6LCfQCiqUM0jdWbidhHXiGeClu59L_HnYJaEqVO8QSOANTh1b1oCZOnwAcA7UVGYyG0m7riytRWMVtI7zDygxRiui-rkENrJqVUwIm8-MbCsCRwGWBjWxepansgPVp04OEdO=w408-h544-k-no,9.0,41,2025-05-29T00:56:25.583Z,comercio
ESSEN - Mar Bravo,Tienda de cubertería,http://instagram.com/essen_marbravo,El carretero (112 bis) 3530,,Olavarría,Provincia de Buenos Aires,-36.881593,-60.2933739,5.0,3,https://lh3.googleusercontent.com/p/AF1QipM7Hi2GI0JHfBdCV3Gu7AmTf8Vx0XKwr8zNo1p5=w408-h527-k-no,26.0,4,2025-05-29T00:56:25.583Z,comercio
Perito moreno,Tienda general,,Perito Francisco Moreno,,Olavarría,Provincia de Buenos Aires,-36.8818984,-60.2871547,,4,https://streetviewpixels-pa.googleapis.com/v1/thumbnail?panoid=NMB8WylcTPZcEUZsZjqoCg&cb_client=search.gws-prod.gps&w=408&h=240&yaw=135.56956&pitch=0&thumbfov=100,1.0,0,2025-05-29T00:56:25.584Z,comercio
Almacen,Tienda general,,Deán Funes,,Olavarría,Provincia de Buenos Aires,-36.8811766,-60.2877586,,5,https://streetviewpixels-pa.googleapis.com/v1/thumbnail?panoid=zDBXGLIoHcSN3GKIoHSaCw&cb_client=search.gws-prod.gps&w=408&h=240&yaw=14.770274&pitch=0&thumbfov=100,1.0,0,2025-05-29T00:56:25.584Z,comercio
C y C e hijos Cocinas y todo para el hogar,Comercio,,Calle 102 3780,+54 2284 54-0014,Olavarría,Provincia de Buenos Aires,-36.8859703,-60.2959723,4.2,6,https://lh3.googleusercontent.com/p/AF1QipMEa-u_lTlC0u-qbMTuh2WbJb2scbZziK9zTDUR=w408-h306-k-no,10.0,43,2025-05-29T00:56:25.584Z,comercio
Deposito 3 estrellas,Tienda de alimentación,,Av. Pellegrini 5667,,Olavarría,Provincia de Buenos Aires,-36.8864749,-60.2840155,,7,https://streetviewpixels-pa.googleapis.com/v1/thumbnail?panoid=BZxMs6LOUxDyuADljIgZDg&cb_client=search.gws-prod.gps&w=408&h=240&yaw=315.33813&pitch=0&thumbfov=100,1.0,0,2025-05-29T00:56:25.584Z,comercio
Polleria NaOm Y Anexos De Pescaderia,Comercio,,Rivadavia 5299-5399,+54 2284 41-1033,Olavarría,Provincia de Buenos Aires,-36.8767101,-60.301009,4.8,8,https://lh3.googleusercontent.com/p/AF1QipOjAWLHBAeKbKCrJIHgZjmoVHeO4i7bk8YuXcPe=w427-h240-k-no,18.0,18,2025-05-29T00:56:25.584Z,comercio
Tecnicor,Comercio,,"Area 226, Av. de los Trabajadores 5285",+54 2284 22-1705,Olavarría,Provincia de Buenos Aires,-36.898792,-60.287266,4.3,9,https://lh3.googleusercontent.com/p/AF1QipNAU37O3m9w60j6do5diG_VqQRTJn1ae1mdlSfG=w408-h306-k-no,13.0,11,2025-05-29T00:56:25.584Z,comercio
DESPENSA NICOCO,Tienda de alimentación,,,,Olavarría,Provincia de Buenos Aires,-36.8746766,-60.2878251,,10,https://streetviewpixels-pa.googleapis.com/v1/thumbnail?panoid=x7RrLBO3SMxeLErKwEY0Rg&cb_client=search.gws-prod.gps&w=408&h=240&yaw=134.17862&pitch=0&thumbfov=100,1.0,0,2025-05-29T00:56:25.584Z,comercio
"Mini Mercado ""Micky-Mile""",Comercio,,Moisés Lebenson 3830,,Olavarría,Provincia de Buenos Aires,-36.8879997,-60.2976466,4.5,11,https://lh3.googleusercontent.com/p/AF1QipOI8-sFHlJkGZcY_3XCfLxOv6iIByrB_HtHlrDk=w408-h725-k-no,12.0,24,2025-05-29T00:56:25.584Z,comercio
Zabdi,Comercio,,Aguilar 4094,+54 2284 72-1038,Olavarría,Provincia de Buenos Aires,-36.8905153,-60.3044339,,13,https://streetviewpixels-pa.googleapis.com/v1/thumbnail?panoid=4dSge621x59I0xcxy-YQ9A&cb_client=search.gws-prod.gps&w=408&h=240&yaw=144.48201&pitch=0&thumbfov=100,1.0,0,2025-05-29T00:56:25.584Z,comercio
Truck Center Olavarría - Goodyear Planta Reconstructora de Neumaticos,Tienda de neumáticos,http://www.launionneumaticos.com.ar/,CARLOS PELEGRINI 5900,+54 9 2284 21-8123,Olavarría,Provincia de Buenos Aires,-36.8851237,-60.2820839,4.6,14,https://lh3.googleusercontent.com/p/AF1QipPIKKyt3Amz43AfXr1BYmo9EujD7It6qM7t0h1x=w408-h306-k-no,56.0,56,2025-05-29T00:56:25.584Z,comercio
Argentina Geoservice SA,Comercio,,"CP 7400, Av. de los Trabajadores 5590 Sur",+54 2284 42-5799,Olavarría,Provincia de Buenos Aires,-36.8997262,-60.2847283,4.5,15,https://streetviewpixels-pa.googleapis.com/v1/thumbnail?panoid=ZVxNFeyb97z9ZEFpqOktHg&cb_client=search.gws-prod.gps&w=408&h=240&yaw=51.41805&pitch=0&thumbfov=100,1.0,6,2025-05-29T00:56:25.584Z,comercio
Costa Carlos A,Tienda de alimentación,,"ruta 226 entre tierra del fuego, Islas Malvinas e",,Olavarría,Provincia de Buenos Aires,-36.8917975,-60.2842505,5.0,16,https://streetviewpixels-pa.googleapis.com/v1/thumbnail?panoid=a7TWl1UyzzyG9AFAyC4RQw&cb_client=search.gws-prod.gps&w=408&h=240&yaw=35.063824&pitch=0&thumbfov=100,2.0,4,2025-05-29T00:56:25.584Z,comercio
REPUESTOS AGRICOLAS COLON SRL - DIVISIÓN MAQUINARIAS,Comercio,https://www.facebook.com/profile.php?id=100054516817156&sk=following,"Ruta Nacional 226, Sta. Cruz &",+54 2284 58-9809,Olavarría,Provincia de Buenos Aires,-36.8929949,-60.2848528,,17,https://lh3.googleusercontent.com/p/AF1QipMhWvv4uYRtuHPxcIHm4rWsx5n18jKl_hNmTsUv=w408-h271-k-no,14.0,0,2025-05-29T00:56:25.584Z,comercio
Despensa Yanina,Tienda de alimentación,,,,Olavarría,Provincia de Buenos Aires,-36.8780061,-60.2987538,5.0,18,,,2,2025-05-29T00:56:25.584Z,comercio
"Frutería y Verdulería ""El Nuevo Galpón""",Frutería,,Av. de los Trabajadores 4312,+54 9 2284 35-5136,Olavarría,Provincia de Buenos Aires,-36.8921936,-60.2947181,4.5,20,https://lh3.googleusercontent.com/gps-cs-s/AC9h4nrFLR1w6SoobxaQzqHWTbGg0RwrjhmQZDo70_I1hXG0ToNHKRYiOOH39VnkCrykyb8eS59zP9JKa1CYwjIsEJfETKKKjvENZFKt_K_nyzKlC35Fr9u2SaDdfKAZCNLNSQXByFws3w=w408-h544-k-no,18.0,15,2025-05-29T00:56:25.585Z,comercio
Lu-Mar,Tienda de alimentación,,Manuel Leal,+54 2284 43-0333,Olavarría,Provincia de Buenos Aires,-36.8966776,-60.2991812,4.5,4,https://lh3.googleusercontent.com/gps-proxy/ALd4DhFGm9hcgsZFP_9KqQVeiQp2IcHoCw1p2IUe_EK3bHxVcUcWrHsavq_pW4nfWbGAkC8mqUjG-5vgtYo4hqLTaICs2qBKGqVfdVCzQtFSo7kAS55gCZ2OKMa_iGcv8UHiy20J8DUwxJBJNNv7W8TaGKmahDUsIlotiwOP_zb6SeIlIC_sKxUxoDPwX1wz6vUmb1ecbw=w408-h306-k-no,2.0,2,2025-05-29T00:56:25.760Z,tienda
"Autoservicio ""Lo de Rodo""",Tienda de alimentación,,Av. Domingo Faustino Sarmiento 3992,,Olavarría,Provincia de Buenos Aires,-36.8937988,-60.302675,3.0,8,https://lh3.googleusercontent.com/gps-cs-s/AC9h4nq-bEfv0UaLzhJikETskWFDaa3fGdoTGElU7K-0iwM4CkU8Ge0kT-3AUUcXnjXGet1TYfVxY3DtSpYTrJuuLbmQWg2mrbh6z6V_53amUDL76h_MTcQ343E9qAKhitNWdMKg-e6dLA=w408-h337-k-no,2.0,1,2025-05-29T00:56:25.760Z,tienda
Kiosco Richard 2,Quiosco,,Av. Domingo Faustino Sarmiento 2998,+54 2284 42-4100,Olavarría,Provincia de Buenos Aires,-36.8871241,-60.310856,4.5,10,https://lh3.googleusercontent.com/gps-proxy/ALd4DhG4eypsChoBSDTDFF3VWvPsqou_JreZSXFScPFpBApdp4eDlVxhTxxmlM8b3EAcCFbLRm105BQFeTgNc0caEgdbNuE-OdfDOyWikmfEKPZ4GOLIKxeyWeVGw2yU8sluZHSno1t_VTJPJkYwJvTzLhv5dW_rJMoiRBqlfi89Pfab2BBmTsHCkGahMehO9_crMm1STA=w408-h306-k-no,4.0,2,2025-05-29T00:56:25.760Z,tienda
Minimercado Cristian,Tienda de alimentación,,España 3598,,Olavarría,Provincia de Buenos Aires,-36.8906132,-60.3131532,4.7,12,https://lh3.googleusercontent.com/gps-proxy/ALd4DhEJSl10rvDMufg7l7XeWq3nx788kG-9ay8GXYKWQeOXho0Vp2_HyBpj6X0xzZtLtjbXOYo14_K0NsTnoFBj7PrstGR_O-sfD7-1FrC9Mk5mQHcJ9NGkxbBbVMjpXGuySeLOzZq--KPoJ8No14ZtP7sADf7j1hmQHbPsa-mKx3wJJWbbELWmrhguFvJDrDnyY6S3KA=w408-h306-k-no,5.0,3,2025-05-29T00:56:25.760Z,tienda
Maxi Kiosco New City,Tienda de alimentación,,España 3801,+54 2284 67-5079,DFE,Provincia de Buenos Aires,-36.8901795,-60.3142645,4.0,19,https://lh3.googleusercontent.com/gps-proxy/ALd4DhFj9fuOJ2kwiCeQ0677hN2unTsIhyQ3q98a4rlvYHvjuMeg6rneflLPrimnj_sxCZzeWO6ZWNdBXEJAydxW_egwWPU5Vy5RNbaAm8avUOU7F1WOMiJy0K91LI7LpDFolelxL1Ft7LgXoc1xDoh_PhgeCy8vWhkfmpVV7s5Y__HvZY4VS7SV9UoQZMUyrTlofr8J3X8=w408-h306-k-no,4.0,1,2025-05-29T00:56:25.760Z,tienda
PAMPASEM,Comercio,http://pampasem.com.ar/,Parque de Granos,+54 2284 47-0783,Olavarría,Provincia de Buenos Aires,-36.8863739,-60.2787638,4.8,21,https://lh3.googleusercontent.com/p/AF1QipO30WmIGx7TnZ351sOcBtqeNo4lc5QD7ERiRcjl=w408-h544-k-no,7.0,41,2025-05-29T00:56:26.386Z,tienda
OLANET I Tecno.Gaming.Hogar,Tienda de informática,,"Av Pringles 3409, Av. Colón y",+54 2284 41-4600,Olavarría,Provincia de Buenos Aires,-36.8936261,-60.312356,4.4,11,https://lh3.googleusercontent.com/p/AF1QipPzyD4i_E13cSOG2wjWTlEy_0oHhq1jVnU5TOSz=w408-h408-k-no,218.0,462,2025-05-29T00:56:27.274Z,electronica
Servitec Informatica,Servicio de informática,,Alsina 3821,+54 2284 42-4473,Olavarría,Provincia de Buenos Aires,-36.8854237,-60.3153855,4.7,13,https://lh3.googleusercontent.com/p/AF1QipPTJk0e7mpLWp6UZSmNF6bNE6VrxYv_7wA2CJTv=w408-h408-k-no,14.0,3,2025-05-29T00:56:27.274Z,electronica
GamersDyG,Tienda de informática,http://www.gamersdyg.com.ar/,República del Líbano 3577,+54 2284 53-4048,Olavarría,Provincia de Buenos Aires,-36.8925359,-60.3075986,3.7,16,https://lh3.googleusercontent.com/p/AF1QipNrbvXu_L0XHGr6nGpO3_JBmEPwNS00cewrRBy-=w408-h306-k-no,11.0,3,2025-05-29T00:56:27.274Z,electronica
GS Computacíón,Servicio de informática,,Necochea 2884,+54 2284 45-9213,Olavarría,Provincia de Buenos Aires,-36.8924547,-60.3192685,4.7,19,https://streetviewpixels-pa.googleapis.com/v1/thumbnail?panoid=GVhDscP74evg6V3xMEZNew&cb_client=search.gws-prod.gps&w=408&h=240&yaw=243.75114&pitch=0&thumbfov=100,2.0,26,2025-05-29T00:56:27.274Z,electronica
El Fronterizo,Tienda de repuestos de automóviles usados,http://www.elfronterizo.com.ar/,146 3298,+54 2284 44-0759,Olavarría,Provincia de Buenos Aires,-36.8675926,-60.2817125,4.1,2,https://lh3.googleusercontent.com/gps-cs-s/AC9h4npABshwySV7CJwcBtJpZUMTIdUnchTIYaovyt4sWOKqn51Q44ViXWDPzeYqc7JdPMstqvFGbNzCfijVLgSuC4_DE4iSBDLky26x96vqVWq_dPsfIe1WI4iybm9tyj_tqz-4Xd_T=w408-h306-k-no,15.0,343,2025-05-29T00:56:28.836Z,repuestos
Equipamientos Grand Prix - BRACCO / WALKER / GRABADO DE AUTOPARTES y CRISTALES,Tienda de repuestos para automóviles,,Área 226,+54 2284 41-8020,Olavarría,Provincia de Buenos Aires,-36.8946674,-60.2824999,4.3,4,https://lh3.googleusercontent.com/p/AF1QipPxD4yQbr9LqRUcAggYqjAnMa2bGyVLsoC60yFX=w408-h262-k-no,29.0,299,2025-05-29T00:56:28.836Z,repuestos
Repuestos Avenida,Tienda de repuestos para automóviles,,Av. Urquiza 3363,+54 2284 42-6411,Olavarría,Provincia de Buenos Aires,-36.8981439,-60.307793,4.7,6,https://lh3.googleusercontent.com/gps-cs-s/AC9h4noTRUobMMjoNvkweecv7AvB39aOiZUdsHxAm4viq4E3HQvLiZj2iuHfogY3wpw6BwinnLKqOrzlh0o0Kz4fsfRT4PYL96ap0YLtHNcj9qXW6HmJdFswLenIKfj2K0kgRy6OtcPb=w426-h240-k-no,15.0,15,2025-05-29T00:56:28.836Z,repuestos
Repuestos Dentaro,Tienda de repuestos para automóviles,,Av. Pringles 4320,+54 2284 41-7417,Olavarría,Provincia de Buenos Aires,-36.8878597,-60.304353,5.0,7,https://lh3.googleusercontent.com/gps-proxy/ALd4DhH0R7chI28Z4V-1qb-9UaL1anEEvgVBMSt0zM-tqVdR9QHtW4U1JrUg4CAeIpB6Y-K0WxTksturlbyrRdoefwzlxH6l09Xii70pmlCnaPllbR0tprl0QqKu0oAbcCUUm30KnpEKxgE8uNrRXD-_tuJ2sQislUPc1w5NI1jOPsxOjGGqMLpNrTRft4NAJZ1JQVb29dU=w408-h306-k-no,2.0,2,2025-05-29T00:56:28.836Z,repuestos
Autotractor S.A..,Tienda de repuestos para automóviles,,España 3437,+54 2284 42-0222,Buenos Aires,Provincia de Buenos Aires,-36.8913874,-60.3145618,4.4,8,https://lh3.googleusercontent.com/gps-proxy/ALd4DhF1RqtjVUjr1w15c0HPbeaNXZWQr0-KA-5tj0iFNMlotpEH8acpWO1eim6khiv6qjkXJib3xNc9PK26PVI3AJL0lAQVxmaNkT0-t_04qIfAko3yvPs-W5pdScOi192QR3zdoO_wic4KrunqI3x9KnaaFN_Y_LZeH9p6rOkp3cltY2Sww4z__ufHt3pjZoQ5HaVxIQ=w408-h306-k-no,5.0,105,2025-05-29T00:56:28.836Z,repuestos
. Prix Equipamientos 4x4 Bracco Walker,Tienda de accesorios para automóviles,https://instagram.com/grandprixequipamientos4x4olav?igshid=ptg9vta1rs45,"Ruta 226, Km 295",+54 9 2284 68-6539,Olavarría,Provincia de Buenos Aires,-36.8942794,-60.2835884,3.9,17,https://lh3.googleusercontent.com/p/AF1QipMjZINFKSsdJzyDG77EVyrASrJqTU3ToVqPp03D=w408-h270-k-no,13.0,14,2025-05-29T00:56:28.836Z,repuestos
Audio Electronic,Tienda de electrónica,,"DAB, Lamadrid 2382",,Olavarría,Provincia de Buenos Aires,-36.8979993,-60.3241657,,18,https://streetviewpixels-pa.googleapis.com/v1/thumbnail?panoid=XEywlZm5pX_L4xpTRNt4eQ&cb_client=search.gws-prod.gps&w=408&h=240&yaw=143.22182&pitch=0&thumbfov=100,1.0,0,2025-05-29T00:56:31.088Z,electronica
Station Gamer,Tienda de electrónica,,Gral. Paz 3207,+54 11 3569-5993,Olavarría,Provincia de Buenos Aires,-36.8971839,-60.3196865,,20,https://streetviewpixels-pa.googleapis.com/v1/thumbnail?panoid=P_RRDtfk8dZnrH1jwYSv2w&cb_client=search.gws-prod.gps&w=408&h=240&yaw=59.070263&pitch=0&thumbfov=100,1.0,0,2025-05-29T00:56:31.088Z,electronica
Mercado Pelegrini,Tienda de alimentación,,Av. Pellegrini 1579,,Olavarría,Provincia de Buenos Aires,-36.914412,-60.318335,,20,https://streetviewpixels-pa.googleapis.com/v1/thumbnail?panoid=EhfVGvJyH9sT1Hf4S5hsXw&cb_client=search.gws-prod.gps&w=408&h=240&yaw=320.34946&pitch=0&thumbfov=100,1.0,0,2025-05-29T00:56:31.263Z,tienda
Farmacia CECO - Centro Empleados de Comercio de Olavarria,Farmacia,http://www.ceco.org.ar/,Cnel. Suárez 2752,+54 2284 42-2013,KKJ,Provincia de Buenos Aires,-36.8949626,-60.3244959,4.6,12,https://lh3.googleusercontent.com/gps-proxy/ALd4DhFp7vyWp6oWC_qMud7zGBqDF5bzgc7D4_SDSXk_5CsoP6Qvj7OZZ4omVS-I3Mo3xpm9wn7MUjgC6pSwzd1UU3srKWa-2UYz0L3XWrzYuGk13HHYimlwXgISuCrBoYZIoiF7bGxU1eRfENV4kwbZTzhDvf8FqeKXPSrEMQTVq7hNBifqkqI-2qFr-sFFGRn5AeYnu64=w408-h306-k-no,14.0,150,2025-05-29T00:56:31.581Z,comercio
Tavi,Tienda de ropa,,Hipólito Yrigoyen 1410,+54 2284 52-3693,Gran Buenos Aires,Provincia de Buenos Aires,-36.8791463,-60.3272047,4.6,15,https://lh3.googleusercontent.com/gps-proxy/ALd4DhG0-A_ls_KzGmvtk9KN_JElzM9RzGlcIe_-FDSPG1tnpUD1ax5Lrohju-hEZU-ezZOQ4Z3wRoqWOV8vFSt6k2OdWnhzKPvUxx7BcLJ7T1pDT01DnpEMRvQCw8A6oaaDpbyafhki6xQYUQWFhhh5BzF-jDAaExP7kuid7b5f7_b4u2SC5xqgO0LBWa5Cbk9FWBr3sVE=w408-h306-k-no,5.0,53,2025-05-29T00:56:31.581Z,comercio
KIOSCO MUZZY,Kiosco,,Av. Urquiza 2367,+54 2284 22-6652,Olavarría,Provincia de Buenos Aires,-36.9049818,-60.3157472,5.0,17,https://streetviewpixels-pa.googleapis.com/v1/thumbnail?panoid=Imz-Udqw_wJjlNwFHk_7Uw&cb_client=search.gws-prod.gps&w=408&h=240&yaw=136.67201&pitch=0&thumbfov=100,1.0,3,2025-05-29T00:56:31.581Z,comercio
Forrajería Lo de Precci,Tienda de alimentos para animales,,Av. Ituzaingó 2285,,Olavarría,Provincia de Buenos Aires,-36.8890407,-60.3369592,4.6,19,https://lh3.googleusercontent.com/gps-cs-s/AC9h4nq_OC5j9tclIIwpLByCOuKWfdnFZBn9ozden9ofyjV-sFRZuuUDTQF8A4iobDehcCQtW81ZabL8THNjb3aWS9qsg6gZCfkbgDEC_nCLdSbBC1oS6IxuKTicY1cBofWE5j8JUbw0=w408-h883-k-no,5.0,46,2025-05-29T00:56:31.582Z,comercio
SevenSoft Servicios Informáticos,Oficinas de empresa,,Rufino Fal 1756,+54 2284 36-2990,Olavarría,Provincia de Buenos Aires,-36.8773841,-60.3191622,4.4,16,https://lh3.googleusercontent.com/p/AF1QipOA95soAjRjeG6TDiVMn41X-KoGRTCn5Q7RVbaf=w628-h240-k-no,11.0,9,2025-05-29T00:56:33.331Z,electronica
Olaphone,Tienda de informática,,Vicente López 2961,,Olavarría,Provincia de Buenos Aires,-36.8920366,-60.321894,3.4,19,https://streetviewpixels-pa.googleapis.com/v1/thumbnail?panoid=UmYpdi86W6JmmFYHYL8o_g&cb_client=search.gws-prod.gps&w=408&h=240&yaw=307.57117&pitch=0&thumbfov=100,1.0,5,2025-05-29T00:56:33.331Z,electronica
Despensa Maru,Tienda de alimentación,,Independencia 4671,,Olavarría,Provincia de Buenos Aires,-36.8750607,-60.3139959,,17,https://streetviewpixels-pa.googleapis.com/v1/thumbnail?panoid=OYnGZaCr7CmSC_LF5dO4ig&cb_client=search.gws-prod.gps&w=408&h=240&yaw=287.46606&pitch=0&thumbfov=100,2.0,0,2025-05-29T00:56:33.696Z,tienda
Kiosko y Almacén Díaz Rosana,Tienda de alimentación,,"Club Atlético Pueblo Nuevo, Maipú 3198",+54 9 2284 21-8567,Olavarría,Provincia de Buenos Aires,-36.886627,-60.324885,5.0,20,https://lh3.googleusercontent.com/gps-proxy/ALd4DhE1YTw0pNr7RKcTOOHaI657LfzQr3mAeg4jXXntac07oDOkmu5DPQgSroJAREsTmioTjw-ublqxWCM30I0Uib-Q36eVunmFEsaR7OjGHmQLST-HPaTLX5BSqDp7yrB6SzuSgRVav4PHB1khHnHZCsCL8DpiN2w063Yre6qRd7rITY2Tv3cvrdVjPuWDBhhteGnCwV8=w408-h306-k-no,2.0,3,2025-05-29T00:56:33.696Z,tienda
Total Autopartes,Tienda de repuestos para automóviles,,"Av J B Alberdi 3985, Olavarr a, Buenos Aires",+54 2284 23-0813,Olavarría,Provincia de Buenos Aires,-36.8737306,-60.3274849,4.4,1,https://lh3.googleusercontent.com/gps-cs-s/AC9h4noGJoNEbP4yERS-SqfmdhTfaJxb-q0e4MVDc8HicCg8GFRwq7cBgQm98R0RnYYRHiQrXXLzUJ02zYnr30QwTbzsuCDw7514PqniiJw7XGLGqwlKQ30pa4ju0dGact0lO7BxQamk7Q=w426-h240-k-no,2.0,47,2025-05-29T00:56:33.873Z,repuestos
Toyomec,Tienda de repuestos para automóviles,https://www.instagram.com/toyomec.repuestos.oficial,Av. Colón 2198,+54 2284 44-0404,Olavarría,Provincia de Buenos Aires,-36.8858161,-60.3224297,4.7,7,https://lh3.googleusercontent.com/p/AF1QipNN37nmFpapbknNAfswkpssLZ5GtqNvJKV0HKEM=w493-h240-k-no,9.0,50,2025-05-29T00:56:33.873Z,repuestos
Grand - Prix,Tienda de repuestos para automóviles,,Belgrano,+54 2284 42-8088,Gran Buenos Aires,Provincia de Buenos Aires,-36.8865525,-60.3297875,4.4,10,https://lh3.googleusercontent.com/gps-proxy/ALd4DhHREqI8PiwUikLNA1lb6EH8qXEjFTChhzBsBs3ycsiJJfXyO06eXRqC4n3fy6QRvzkr80sNQCNCbvAUqyE3B1fa7HiovtHSDHVu2qJzqigCLsovQdsmbhQ9xoCrYGiIiu90TBrGnZrByhZwhdCpJFYhjakVSmvNG8L9m0wkaOIrIX-nv_ihKkOltuvwXG_nvZV8h9o=w408-h306-k-no,5.0,74,2025-05-29T00:56:33.873Z,repuestos
La Casa para El Embutido Triovac SRL,Taller de maquinaria,https://www.facebook.com/La-casa-para-el-embutido-2034003376833022/,Av. Domingo Faustino Sarmiento 2578,+54 2284 44-0630,Olavarría,Provincia de Buenos Aires,-36.8845121,-60.3142373,4.4,10,https://lh3.googleusercontent.com/gps-cs-s/AC9h4nr6dN3O7IaYo8FjxndtThdjeBHL6sgO-fX-EudEEAjEZlZHVLSZTeslvA5I_ZrJyszTtC9b5JHrPr9Ogn40u9wcjpCzhByc-RioT8UbBJ0KLC9Bu4MEgZSsEqTbhox7IGN8bcqg=w408-h293-k-no,22.0,20,2025-05-29T00:56:34.966Z,venta
Maderera Misiones,Establecimiento de venta de madera,,Rivadavia 4670&nbsp,+54 2284 44-2088,Olavarría,Provincia de Buenos Aires,-36.8814942,-60.3065134,4.6,17,https://lh3.googleusercontent.com/gps-proxy/ALd4DhFdJ3XCdBvwFNHu8XwWZ2i7vYqXBNZpvtcgA6lih5-shi1SdQ6je1XGIK3JGWtXpfZYbtB6fH_Jq3eUkCQQQ5gCbStjv9MHki7vTcuX4e1kfqCCji0PiBocSWMAzAQv8APuJAY5pLqNxlfiq2dtCCoDYQf_YjzKahut6RYbt-mNEqJm__8Wu2Wg8pX4xd2-wTa21g=w408-h306-k-no,9.0,109,2025-05-29T00:56:34.967Z,venta
Polirrubro MyC,Supermercado,,,,Olavarría,Provincia de Buenos Aires,-36.9230052,-60.3199543,5.0,1,https://streetviewpixels-pa.googleapis.com/v1/thumbnail?panoid=4paUBCkUdmhdxvGAKwxhsw&cb_client=search.gws-prod.gps&w=408&h=240&yaw=71.06379&pitch=0&thumbfov=100,1.0,1,2025-05-29T00:56:35.671Z,comercio
Despensa MICA,Tienda general,,Sta. Fe 141-880,,Olavarría,Provincia de Buenos Aires,-36.9259893,-60.3165179,5.0,2,https://streetviewpixels-pa.googleapis.com/v1/thumbnail?panoid=3KWfxyYwUccG0hdX09Ifwg&cb_client=search.gws-prod.gps&w=408&h=240&yaw=41.191483&pitch=0&thumbfov=100,1.0,2,2025-05-29T00:56:35.671Z,comercio
Garras Patas,Comercio,,Islas Malvinas,,Olavarría,Provincia de Buenos Aires,-36.9213145,-60.3233071,5.0,3,https://streetviewpixels-pa.googleapis.com/v1/thumbnail?panoid=_A-mZqemDhzMdCUqJVMMAA&cb_client=search.gws-prod.gps&w=408&h=240&yaw=311.1971&pitch=0&thumbfov=100,1.0,3,2025-05-29T00:56:35.671Z,comercio
Lima Limon,Comercio,,Tte. Gral. Perón 4931,,Olavarría,Provincia de Buenos Aires,-36.9213333,-60.3219767,5.0,4,https://streetviewpixels-pa.googleapis.com/v1/thumbnail?panoid=kpHiXWTvMoN5x81Ug5cvag&cb_client=search.gws-prod.gps&w=408&h=240&yaw=64.46492&pitch=0&thumbfov=100,1.0,3,2025-05-29T00:56:35.671Z,comercio
almacén facundo,Tienda de alimentación,,,,Olavarría,Provincia de Buenos Aires,-36.9240958,-60.3171691,4.5,5,https://streetviewpixels-pa.googleapis.com/v1/thumbnail?panoid=3Cxc9UZhcOusZNqd6870cg&cb_client=search.gws-prod.gps&w=408&h=240&yaw=120.653&pitch=0&thumbfov=100,1.0,2,2025-05-29T00:56:35.671Z,comercio
Kiosco Mix,Kiosco,,Av. la Rioja 1799,+54 2284 45-2553,Olavarría,Provincia de Buenos Aires,-36.9178579,-60.3097136,4.3,6,https://lh3.googleusercontent.com/gps-cs-s/AC9h4nrvQ7J712k2xM6Ndr9zxGQKbTeOHySJ_yy1eutIjU6KCSJAbsp8UNkVyMZfO1VQeRjaeEA0TQ2dSMBgyamYUi73-pUEpo51JgxqKNeLWe1p6_tV6qj-rukdV9kEfke7PAuWccO-ow=w408-h306-k-no,4.0,20,2025-05-29T00:56:35.671Z,comercio
Matika complementos,Comercio,,Beruti 700,,Olavarría,Provincia de Buenos Aires,-36.9164918,-60.3287342,1.0,7,https://streetviewpixels-pa.googleapis.com/v1/thumbnail?panoid=WY4WAErrJLuWAmlSvFa39Q&cb_client=search.gws-prod.gps&w=408&h=240&yaw=138.35861&pitch=0&thumbfov=100,1.0,1,2025-05-29T00:56:35.671Z,comercio
El Ombú veterinaria y petshop,Comercio,,Av. Avellaneda 5385,+54 2284 24-6800,Olavarría,Provincia de Buenos Aires,-36.9230102,-60.3162622,4.6,10,https://lh3.googleusercontent.com/gps-cs-s/AC9h4nqjxXjFDwMNQ9xHPpXYTIsMmF80v5i9B4zc9kGw4DfZaYaRPNwXzczkK20iZFWu1ZvPPMcjTAmptxXkfcySYh26mnlwkfQnff29nwEq34Esu0Pun52ycrn3iI6az4xnhVfp6U4_uw=w408-h306-k-no,2.0,5,2025-05-29T00:56:35.671Z,comercio
Chino,Comercio,,Av. Avellaneda 4255,,Olavarría,Provincia de Buenos Aires,-36.915625,-60.3253203,2.0,11,https://streetviewpixels-pa.googleapis.com/v1/thumbnail?panoid=uZLtRQ_c5gD60O9NOzPH8Q&cb_client=search.gws-prod.gps&w=408&h=240&yaw=34.89705&pitch=0&thumbfov=100,1.0,1,2025-05-29T00:56:35.671Z,comercio
Dieser Servicios S.A.,Tienda de artículos para el hogar,http://www.cuitonline.com/detalle/30709946176/dieser-servicios-sa.htm,Av. Circunvalacion 1599-1661,+54 2284 41-1313,Olavarría,Provincia de Buenos Aires,-36.9238973,-60.3039154,3.5,12,https://lh3.googleusercontent.com/gps-cs-s/AC9h4npE24K7KjELTy0IypNwik5FhmhwurdvC7sx8US6eDKhD_ixPokpj0CJ7oOyzu-4OE5KcVbNPFgb1tA7OIbzLxTTXuBqNtX2XzvA8eZegKGEii0WnRfCdDiriM3cSkmsVwzayqDl=w408-h306-k-no,3.0,2,2025-05-29T00:56:35.671Z,comercio
Lubrigom B° Ceco,Ferretería,,Av. Avellaneda 5300-5384,+54 2284 45-1967,Olavarría,Provincia de Buenos Aires,-36.9229845,-60.3162428,4.1,13,https://lh3.googleusercontent.com/gps-cs-s/AC9h4npsW2i6ydMogzcFbuiOdDMjVY7W2i-KUAjPMbeZao5R5woIZwigPSzJqxDHsn1V8FCoGdG1F5O2jFyKAKQabH9FKHEEY0c5EvRaPYUeedZz_MSgEQwOiLuL4P6SykCggLriR2k=w408-h306-k-no,5.0,80,2025-05-29T00:56:35.671Z,comercio
RapiVerduleria,Tienda de alimentación,,"La rioja, C. 16 Bis y",+54 2284 67-9961,Olavarría,Provincia de Buenos Aires,-36.9249696,-60.3188427,4.7,14,https://streetviewpixels-pa.googleapis.com/v1/thumbnail?panoid=LdEJHAaj4-crarftccDkTQ&cb_client=search.gws-prod.gps&w=408&h=240&yaw=200.67627&pitch=0&thumbfov=100,1.0,3,2025-05-29T00:56:35.671Z,comercio
Creaciones Milagros,Mercería,,,+54 2284 53-4736,Olavarría,Provincia de Buenos Aires,-36.9236771,-60.3204805,4.7,15,https://lh3.googleusercontent.com/gps-cs-s/AC9h4nqOnw4QGmGar6H3nbRtXHm01Xo2y7lnQ_uJwKZOuSpVxq9lSdXNzDFGCGkzzx9R3oPAIBLO-UhH_yM5XQi1ilTa-FTF6dY5eAbkjubjEtsnDsDxePTKw9eOWVAP08alFdv1Iw=w408-h725-k-no,17.0,72,2025-05-29T00:56:35.671Z,comercio
Despensa y Pollería Don Simon,Comercio,,San Juan 2012,+54 2284 53-5420,Olavarría,Provincia de Buenos Aires,-36.9209118,-60.3023656,5.0,16,https://lh3.googleusercontent.com/gps-cs-s/AC9h4nr6Et5GLuaX99XA0TJp7B1Lzp7frHCmZMRG8KUfOZP_T6Sntp5R-Bx1ThWmsrD9hZqFUM-p1yKS8ZqJkSLgOm1ZH6s8Ytws6-yl1zoprf_ZTLIF_h7MwOzqknE4Lmg_cjPN0re6=w408-h411-k-no,5.0,1,2025-05-29T00:56:35.672Z,comercio
Supermercado Argenchino,Supermercado chino,,Av. Avellaneda,,Olavarría,Provincia de Buenos Aires,-36.9239588,-60.3152425,4.1,17,https://lh3.googleusercontent.com/gps-cs-s/AC9h4nrSWPTU_11LHg8NpgV0ghebxNRQlIgoLHlktMOgdZX9lS-PPnFZ6xwsx6Rbzqy4al9uftjkDFqSNf_OrKa1HBu6m_3i5T8V1_si6fLefIlJTc1CaourbxgKZ8f1qAVK5pOv4C5P=w408-h306-k-no,3.0,28,2025-05-29T00:56:35.672Z,comercio
Olivia Unisex,Tienda de ropa,,"Barrio CECO, Tte. Gral. Perón 1, casa 627 (Av",+54 2284 53-8313,Olavarría,Provincia de Buenos Aires,-36.9223172,-60.3207834,5.0,18,https://streetviewpixels-pa.googleapis.com/v1/thumbnail?panoid=uy0llyqUADaJYC3PjxO-7g&cb_client=search.gws-prod.gps&w=408&h=240&yaw=42.52118&pitch=0&thumbfov=100,1.0,31,2025-05-29T00:56:35.672Z,comercio
Supermercado Luna,Supermercado chino,,Av. Pellegrini 700-630,,Olavarría,Provincia de Buenos Aires,-36.9198128,-60.3250985,4.3,19,https://streetviewpixels-pa.googleapis.com/v1/thumbnail?panoid=RRf9iUpOpOer_g6bwd4tRQ&cb_client=search.gws-prod.gps&w=408&h=240&yaw=324.0579&pitch=0&thumbfov=100,1.0,73,2025-05-29T00:56:35.672Z,comercio
Ananda Piedras,Tienda de artículos para el hogar,,C. 105 Bis,+54 2284 35-4656,Olavarría,Provincia de Buenos Aires,-36.9188261,-60.312818,4.9,20,https://lh3.googleusercontent.com/gps-cs-s/AC9h4npZu1slkHX29_nbUdDvGFcRViahdt3tW5h0VEXa5k77LQ-fHTTCbJOHZVLK7CrWVdAwhcfA2XSbNavyECEWK7aPYmhbfDJLNe0U7SvOowCJpq8oAzcs2qPWEniTsT9beHpU9jku3w=w408-h466-k-no,2.0,12,2025-05-29T00:56:35.672Z,comercio
Rawvsa,Servicio de reparación de ordenadores,,"Chiclana 1556, 7400",+54 2284 60-3467,Olavarría,Provincia de Buenos Aires,-36.911805,-60.321112,3.8,12,https://streetviewpixels-pa.googleapis.com/v1/thumbnail?panoid=n2aDBsd2h6kHh1JPoR_V6g&cb_client=search.gws-prod.gps&w=408&h=240&yaw=129.63329&pitch=0&thumbfov=100,2.0,4,2025-05-29T00:56:36.487Z,electronica
ZALAZAR /mecanica e inyección electrónica/,Taller de reparación de automóviles,https://www.instagram.com/bzinyeccionymecanica?igsh=MW94eHhlYmJuMDh3cA%3D%3D&utm_source=qr,Las Hortencias 2243,+54 2284 67-3646,Olavarría,Provincia de Buenos Aires,-36.9236973,-60.2951995,5.0,14,https://streetviewpixels-pa.googleapis.com/v1/thumbnail?panoid=qc8zV30trJ9P4vcpEuER3A&cb_client=search.gws-prod.gps&w=408&h=240&yaw=32.14532&pitch=0&thumbfov=100,1.0,3,2025-05-29T00:56:36.487Z,electronica
ESDEX Soluciones - Diseño y marketing digital para hacer crecer tu negocio.,Diseñador de sitios web,,Beruti 2176,+54 2284 72-0106,Olavarría,Provincia de Buenos Aires,-36.9070436,-60.316783,5.0,3,https://lh3.googleusercontent.com/p/AF1QipOHkU4164gbdJcUztypqZF4dO54EJKBDCrYV-rg=w408-h306-k-no,98.0,43,2025-05-29T00:56:36.883Z,web
Digital Olavarría,Agencia de marketing,,César Milstein 5570,+54 2284 71-5965,Olavarría,Provincia de Buenos Aires,-36.9263469,-60.3175414,,4,https://streetviewpixels-pa.googleapis.com/v1/thumbnail?panoid=nryGDgAIDmIx2K5QMrtQkg&cb_client=search.gws-prod.gps&w=408&h=240&yaw=244.76442&pitch=0&thumbfov=100,3.0,0,2025-05-29T00:56:36.883Z,web
Tienda Online Olavarria,,https://sites.google.com/view/tiendaonlineolavarria/click-ac%C3%A1,Antártida Argentina 606,+54 2284 68-2953,Olavarría,Provincia de Buenos Aires,-36.9216721,-60.3252263,,8,https://streetviewpixels-pa.googleapis.com/v1/thumbnail?panoid=-6h2QDHryQH3k3hm5fcGYQ&cb_client=search.gws-prod.gps&w=408&h=240&yaw=177.16779&pitch=0&thumbfov=100,1.0,0,2025-05-29T00:56:36.883Z,web
DH Multimedios,Diseñador de sitios web,https://www.dhmultimedios.com/,Av. Urquiza 3130 B7400,+54 9 2284 63-7194,Olavarría,Provincia de Buenos Aires,-36.8998909,-60.3095676,,10,https://lh3.googleusercontent.com/p/AF1QipNX4q9-tSFQFmlxq04P2RUKbTkUPdbfT5K-DkWG=w408-h255-k-no,20.0,0,2025-05-29T00:56:36.883Z,web
Nebula Solutions,Diseñador de sitios web,https://nebulasolutions.com.ar/,,+54 2284 30-7506,Olavarría,Provincia de Buenos Aires,-36.8969262,-60.3204877,,11,https://streetviewpixels-pa.googleapis.com/v1/thumbnail?panoid=Yd3GXbrXGdsFz_eRPzW9kg&cb_client=search.gws-prod.gps&w=408&h=240&yaw=240.23157&pitch=0&thumbfov=100,3.0,0,2025-05-29T00:56:36.883Z,web
Unity Sites,Diseñador de sitios web,,Lavalle 2519,+54 2284 47-5280,Olavarría,Provincia de Buenos Aires,-36.893671,-60.327169,,15,https://streetviewpixels-pa.googleapis.com/v1/thumbnail?panoid=xGv_5Pf8ZiukzTYLLGejIQ&cb_client=search.gws-prod.gps&w=408&h=240&yaw=137.86943&pitch=0&thumbfov=100,3.0,0,2025-05-29T00:56:36.883Z,web
