title,categoryName,website,street,phone,city,state,location/lat,location/lng,totalScore,rank,imageUrl,imagesCount,reviewsCount,scrapedAt,searchString
Vazzano Remates,Tienda de muebles,https://www.facebook.com/rematesvazzano,Av. Urquiza 1850,+54 2284 44-4646,Olavarría,Provincia de Buenos Aires,-36.9083707,-60.3202103,4.4,1,https://lh3.googleusercontent.com/p/AF1QipO6OXJsCgDHI1mN1OvJjrQdgZGtc05oSTVfnLGq=w408-h389-k-no,42.0,145,2025-06-11T18:13:55.853Z,venta online
Sweet Ness S.a.,Comercio,,Av. Urquiza 1746,,Olavarría,Provincia de Buenos Aires,-36.9087059,-60.3212662,4.6,2,https://streetviewpixels-pa.googleapis.com/v1/thumbnail?panoid=KbbcDBZhb4DfzhhV_3D-lw&cb_client=search.gws-prod.gps&w=408&h=240&yaw=307.6568&pitch=0&thumbfov=100,1.0,10,2025-06-11T18:13:55.855Z,venta online
Telemundo,Tienda de móviles,,Necochea 2893,+54 2284 41-7777,Olavarría,Provincia de Buenos Aires,-36.892333,-60.319047,4.5,3,https://lh3.googleusercontent.com/gps-cs-s/AC9h4nrBHHz23Qrtr-Enq5KtGaZ2K7Wu3yMWRQfDyeETt7nbcRszouWNB9JcTiS6oMVnyjegn3qmQQbgUaNLqQLwK6E3U4AEo0CBNg_i0JMeL-8yRHqldP2ywCWOJbhS5JB7nNQ7N3I=w408-h544-k-no,3.0,20,2025-06-11T18:13:55.855Z,venta online
Tienda Online Olavarria,,https://sites.google.com/view/tiendaonlineolavarria/click-ac%C3%A1,Antártida Argentina 606,+54 2284 68-2953,Olavarría,Provincia de Buenos Aires,-36.9216721,-60.3252263,,4,https://streetviewpixels-pa.googleapis.com/v1/thumbnail?panoid=-6h2QDHryQH3k3hm5fcGYQ&cb_client=search.gws-prod.gps&w=408&h=240&yaw=177.16779&pitch=0&thumbfov=100,1.0,0,2025-06-11T18:13:55.855Z,venta online
AS Estufas Olavarría,Tienda de estufas de leña,,Av. Avellaneda 3043,+54 2284 41-1312,IDH,Provincia de Buenos Aires,-36.9073266,-60.3353933,4.6,5,https://lh3.googleusercontent.com/gps-proxy/ALd4DhFDh5nLlw-CUkpkkMKnurw07Iv3aY6bl1fgM-1BaiBTk0_Ly4JhLYTQ2_rqUkayg4TX9eK8aivX-vPovsobr2HHi4PsFe9ELHaC0CfuaJ0nNUS8fnOluQeIUaoqwSPG1qhXFjk2nrcsYbGkBFA-NO-qipkyOj5qi6WQjqGEU04zj3CgzLyJM3EsRgYDo7zsvZNBng=w408-h306-k-no,20.0,14,2025-06-11T18:13:55.855Z,venta online
Todo Cuotas S.A.,Tienda de electrónica,,Lamadrid 2231,+54 2284 42-8105,CZY,Provincia de Buenos Aires,-36.898768,-60.3255093,4.6,6,https://lh3.googleusercontent.com/gps-proxy/ALd4DhFnoHfF08b5XJ2UfmA3JlNtzK2f5J3JPMGIPDvLT0KSMiyDCsTieBccqaVbl5JXcIQQ2lLJmnx4a4UexHHF1cOV2eoTZLzrl7SdtC8Zp3mGovLTHCNaxL79Q7baYy5RlH-CsHKLIqaIzIU3yGTAdG4VWQAla1q56V9gaFtI07pTa1ufqYNJurLFKy_KNrFaQfeujYI=w408-h306-k-no,4.0,9,2025-06-11T18:13:55.855Z,venta online
Lanas Electra,Mercería,,"Av. del Valle 4025, B7400JVE",,Olavarría,Provincia de Buenos Aires,-36.9060223,-60.3166875,4.8,7,https://lh3.googleusercontent.com/gps-cs-s/AC9h4nrZigSPVf3vXBEq3x7F2iGOjidePJEK5pCAIRLK0Cc_BRH7KY3KBVtzNVreeHmgB7wErPohKTieYsLDT0zB2bZj2jlLc5Pm3v8cZO57aZFgMmXhGG_gf7dNNadOMUdAsyR0K_F9=w426-h240-k-no,6.0,30,2025-06-11T18:13:55.856Z,venta online
OLANET I Tecno.Gaming.Hogar,Tienda de informática,,"Av Pringles 3409, Av. Colón y",+54 2284 41-4600,Olavarría,Provincia de Buenos Aires,-36.8936261,-60.312356,4.4,8,https://lh3.googleusercontent.com/p/AF1QipPZA2Dej9zxUg3f7KdiG9v2g72wRKkVeTh4XS-s=w408-h408-k-no,218.0,462,2025-06-11T18:13:55.856Z,venta online
"""pino Olavarría""",Tienda de muebles,,Av. Pellegrini 2315,+54 2284 52-8426,Olavarría,Provincia de Buenos Aires,-36.9092911,-60.3111089,4.4,9,https://lh3.googleusercontent.com/gps-cs-s/AC9h4nqLEv3eZhI8RM6qr4WDFsKdRBblBg2KKlrU5Qvr3UcQZ1fNrvRIfBQfbLvA949l9Rx0gv9OUCsd2cknjtqIW0eVQO6SJGwuCBMm4WW8cgqwHc8nc9UWMWdnUJwnxNCwwSR8LAf1DA=w408-h306-k-no,20.0,5,2025-06-11T18:13:55.856Z,venta online
185 Motos-ATV,Concesionario de motos,http://www.facebook.com/185motos,Rivadavia 1940,+54 2284 41-6686,Olavarría,Provincia de Buenos Aires,-36.899603,-60.3294908,4.6,10,https://lh3.googleusercontent.com/gps-proxy/ALd4DhGqVcgx6k3lIgIrqZjf-ukP-uKkrlp97Y7NIfI2aNyzn46SzeFIJsLXxpQ-yRFx0PTQCGCDyB8B_DTgl8XytuvAlTpMNyo1QHkQFeqgoQgHuk25Bc-MkCR2F6gpQM8XQrLQwKSjw83dIT3QkPg-FshdoU2OoiN6KoxqwCe-c1KTZKMQJTkNwLEJTA48o0DnqaMpv1g=w408-h306-k-no,4.0,33,2025-06-11T18:13:55.857Z,venta online
Pinomar,Tienda de artículos para el hogar,,Av. Avellaneda 3885,+54 2284 42-5910,Olavarría,Provincia de Buenos Aires,-36.9130347,-60.3284948,4.6,11,https://lh3.googleusercontent.com/p/AF1QipNgFNN2zkEHZy60rrupCE8s9jXTBSUEhzqI1QG_=w426-h240-k-no,13.0,41,2025-06-11T18:13:55.857Z,venta online
OLAVARRIA.COM - Vta de Insumos de Pc - Serv Tecnico Informatico,Tienda de informática,http://www.olavarria.com/,25 de Mayo 3335,+54 2284 58-4626,Olavarría,Provincia de Buenos Aires,-36.8929583,-60.3144696,4.6,12,https://streetviewpixels-pa.googleapis.com/v1/thumbnail?panoid=SYl88EL4BUcjJqDNEMb6OQ&cb_client=search.gws-prod.gps&w=408&h=240&yaw=150.45769&pitch=0&thumbfov=100,1.0,26,2025-06-11T18:13:55.857Z,venta online
Textil Rivadavia,Tienda de telas,,Rivadavia 3042,,Olavarría,Provincia de Buenos Aires,-36.8923628,-60.3201831,3.9,13,https://lh3.googleusercontent.com/gps-cs-s/AC9h4noI4CwI2zyfOr4vwHBJAToj49_q39KWW-H6u9FdiRIXhg_UMnzfd67q12vqv0_RNrvOP6uJDG-7XeMLzf3d_hvw3oMH2k7uiSiu-4aNEx-U2QmFTQhiWm-A3y78rCAtDR0nCu5FTg=w408-h306-k-no,7.0,7,2025-06-11T18:13:55.857Z,venta online
Anita Fernández,Tienda de ropa,,Necochea 3262,+54 2284 20-2364,Olavarría,Provincia de Buenos Aires,-36.8949974,-60.3161222,4.8,14,https://lh3.googleusercontent.com/gps-cs-s/AC9h4nrV6ucteq0MdzlZRhgz8eWcJZ2ujl2TPkGWMl8npCzPeSZv6oOKBCuAsRk7o5uUoAzrkG0fqEALyHo_lbn11ARiPvMAPvPvzKZV_3Of-BkB0gWjEGZIpdkapRq2wMZ4ymMJAlk=w408-h345-k-no,35.0,15,2025-06-11T18:13:55.857Z,venta online
Muebles Avenida,Tienda de muebles de pino,,Necochea 2556,+54 2284 43-1775,Olavarría,Provincia de Buenos Aires,-36.8903177,-60.3220094,5.0,15,https://lh3.googleusercontent.com/gps-cs-s/AC9h4nr__PCFyXbg6iG_TnjW5rMTuUyiNAxk632QRNCEuSP8FdxDJcf-rAEuG0NO_PVIQLzv2m9GH2FOaKhR2J2TZFTAaaiehFPf1jwsa2N2_52hXWbsDAo-haJoXmEK5GIfztU9k1jzLA=w408-h680-k-no,11.0,2,2025-06-11T18:13:55.857Z,venta online
Electricidad Colores,Tienda de electricidad,,"Villa Floresta, Av. del Valle 3564",,Olavarría,Provincia de Buenos Aires,-36.9031486,-60.3211559,5.0,16,https://lh3.googleusercontent.com/gps-proxy/ALd4DhHHU-aBh0l4mA0As2dEohyCVAYFG0v7m2SUDJ0hPNLXai03g7sTIcg0qOArzeS0Qpn-5Ltw5-KwnaQYDvIeiUiV1vt8rsYWC-TrUaV2BcrAaeYEuYK1EbaP4d2E-W1V6e0n_Ro7KJ2rgaQLAjWZIbygOgtu5J7DlUwQ0YJv3J1BbC-kag85M2YmW5SosY8cH10mow=w408-h306-k-no,3.0,6,2025-06-11T18:13:55.857Z,venta online
Springwall,Tienda especializada en camas,http://www.springwall.com.ar/,España 2760,+54 2284 41-6041,Olavarría,Provincia de Buenos Aires,-36.8961559,-60.3201613,4.5,17,https://lh3.googleusercontent.com/gps-proxy/ALd4DhEa0JnaUEKwLQ-e1SFz_hAvcsQbnFK3nxoOlQItPr6SFeIl1NL_46tOHNZ67C5RdEA7VneXrpoRyV-5OsYDHh2spdezmK9B3SeKBw4FGJZui2Dc5wLQpTWe5ZKAD1jDLWheGSfjTDhtUbjnCTzAomIix-Aaq5G2fV-2dNqy9nX6QcxdVKJvmXbAQ_rZDoCJYm_fuYM=w408-h306-k-no,10.0,36,2025-06-11T18:13:55.857Z,venta online
Electrónica Olavarría,Tienda de equipos de sonido,,Rivadavia 3196,+54 2284 41-5550,Olavarría,Provincia de Buenos Aires,-36.8913443,-60.3190621,4.8,18,https://lh3.googleusercontent.com/gps-cs-s/AC9h4nrATkS9wyCPfHRQkKRqt6NHOWO3uZVbNVKA_pohcdH8g2w95sgksdWHEpgdVrDi8xlIbU_cbsIDmu4JjdusuhoAbKMrm9V5YUlBPH-Q0-kJ9nje48MEVOnG5mh1YdNZ0Gvk2GeTCA=w408-h306-k-no,29.0,18,2025-06-11T18:13:55.858Z,venta online
TODOPINO,Tienda de muebles de pino,,Av. Colón 4180,+54 2284 58-2258,Olavarría,Provincia de Buenos Aires,-36.8990797,-60.3059107,5.0,19,https://lh3.googleusercontent.com/p/AF1QipNgyTD8tWW2gZwOwLVArmZOiEAwfmrIKbxFkcU4=w408-h725-k-no,32.0,1,2025-06-11T18:13:55.858Z,venta online
Tecnocentro Group,Tienda de móviles,https://www.instagram.com/tecnocentrogroup/?hl=es-la,Rivadavia 3065,+54 2284 69-6949,Olavarría,Provincia de Buenos Aires,-36.8920088,-60.3203189,4.7,20,https://lh3.googleusercontent.com/p/AF1QipOCdLiOyNfQB58LCXjdTsNRyDE-whKRZub93GLw=w533-h240-k-no,21.0,26,2025-06-11T18:13:55.858Z,venta online
Farmacia CECO - Centro Empleados de Comercio de Olavarria,Farmacia,http://www.ceco.org.ar/,Cnel. Suárez 2752,+54 2284 42-2013,KKJ,Provincia de Buenos Aires,-36.8949626,-60.3244959,4.6,1,https://lh3.googleusercontent.com/gps-proxy/ALd4DhHBQD0vHUbFXc0-k9JBGC_MaZ1NzEP28RwbyiefHmrn3NDi0wXfbLHWXY_kBdoJmTFiUMoABEYrZxXUfopApCNIzCKt7l5d7_D1v4FslzBjAkH85OJ5ZJwIYsJrnbX2pOw_oj6JPv54HDOA0yc8wpqd1e8-8YfazDzvM9IxF9f4QGI7XBEQ8UGUk6B_4He9W6486Z4=w408-h306-k-no,14.0,152,2025-06-11T18:13:55.957Z,comercio
Mercadito Gaby-Fer,Comercio,,Collinet 2595,+54 2284 41-7540,Olavarría,Provincia de Buenos Aires,-36.9009979,-60.3351212,5.0,2,https://lh3.googleusercontent.com/gps-cs-s/AC9h4npjGd0lUdQue0S0hO0JzUcUEOxSCLfKUvx3x-Og-jeupsuKHYs8dY6UpH4XWV-C5yE685b4XYOkjxqzvgdHUug8MgIHdCdbNhutcAwwHEMshv8LKRTX4SlupyKXHdElH7jYyYpwzA=w408-h725-k-no,3.0,4,2025-06-11T18:13:55.957Z,comercio
Ohana,Comercio,,Buchardo 2973,,Olavarría,Provincia de Buenos Aires,-36.9015721,-60.3293454,2.5,3,https://lh3.googleusercontent.com/gps-cs-s/AC9h4noyODYiJTZSbCSJHfEcDnOshsymrQfcjFvjTJZojpRjWawW9txqkhNZ4zuY45i2mIKZyFuEii1sTpFFgrcXNwpn_hf7MDLanxA3sCT9LX8oQWma8Zdb_qaim-NKr0MGkKO5ehrIUw=w408-h544-k-no,4.0,2,2025-06-11T18:13:55.957Z,comercio
Minimercado Mayo,Comercio,,Av. Pellegrini 4568,+54 2284 49-9417,Olavarría,Provincia de Buenos Aires,-36.9107615,-60.3137594,5.0,4,https://streetviewpixels-pa.googleapis.com/v1/thumbnail?panoid=QMPWoV1ajHj-t4hkX754pA&cb_client=search.gws-prod.gps&w=408&h=240&yaw=315.29352&pitch=0&thumbfov=100,1.0,2,2025-06-11T18:13:55.957Z,comercio
Matika complementos,Comercio,,Beruti 700,,Olavarría,Provincia de Buenos Aires,-36.9164918,-60.3287342,1.0,5,https://streetviewpixels-pa.googleapis.com/v1/thumbnail?panoid=WY4WAErrJLuWAmlSvFa39Q&cb_client=search.gws-prod.gps&w=408&h=240&yaw=138.35861&pitch=0&thumbfov=100,1.0,1,2025-06-11T18:13:55.957Z,comercio
Combi,Comercio,,9 de Julio 1414,+54 2284 44-4084,Olavarría,Provincia de Buenos Aires,-36.9065417,-60.3298055,4.0,6,https://streetviewpixels-pa.googleapis.com/v1/thumbnail?panoid=lPXSKJnZt-yADPN2AdSWcA&cb_client=search.gws-prod.gps&w=408&h=240&yaw=137.37317&pitch=0&thumbfov=100,2.0,4,2025-06-11T18:13:55.957Z,comercio
Rayuela Maxikiosco,Comercio,,Av. del Valle 3309,+54 2284 23-8823,Olavarría,Provincia de Buenos Aires,-36.9010711,-60.3229732,4.5,7,https://lh3.googleusercontent.com/p/AF1QipP4VlQ7h7sJXJGnghYwiAvcQoFNQwwNJhNIs5Dm=w426-h240-k-no,16.0,11,2025-06-11T18:13:55.957Z,comercio
Garras Patas,Comercio,,Islas Malvinas,,Olavarría,Provincia de Buenos Aires,-36.9213145,-60.3233071,5.0,8,https://streetviewpixels-pa.googleapis.com/v1/thumbnail?panoid=_A-mZqemDhzMdCUqJVMMAA&cb_client=search.gws-prod.gps&w=408&h=240&yaw=311.1971&pitch=0&thumbfov=100,1.0,3,2025-06-11T18:13:55.957Z,comercio
Jelux.men,Comercio,,Rivadavia 2460,,Olavarría,Provincia de Buenos Aires,-36.8960284,-60.3253854,,9,https://streetviewpixels-pa.googleapis.com/v1/thumbnail?panoid=QQ0JjvIWoXFYKlwIe0W1Vw&cb_client=search.gws-prod.gps&w=408&h=240&yaw=306.92816&pitch=0&thumbfov=100,1.0,0,2025-06-11T18:13:55.957Z,comercio
El Cucu,Frutería,,Av. Pueyrredón 3334,,Gran Buenos Aires,Provincia de Buenos Aires,-36.9054415,-60.328276,4.1,10,https://lh3.googleusercontent.com/gps-cs-s/AC9h4nrDscf_nH3ailX7RVTouRBpn8ywJWwt9MxFF0CFctjMyd0_WWcxqfitgFOD3BBt3RIb8Qaoi68q-TdQfomZxZvdELu_49rlFKocfNyqnWEK5o40tFkhixjrk1G97rsunCYqIxpZ3A=w408-h408-k-no,12.0,34,2025-06-11T18:13:55.957Z,comercio
Otoniel,Frutería,,Av. Pringles,+54 2284 41-7809,Olavarría,Provincia de Buenos Aires,-36.8984494,-60.3185199,4.5,11,https://lh3.googleusercontent.com/gps-proxy/ALd4DhEzo9j7Y0bXeWwlRI1__a73bEZCjlDo5SxJpqlM_YSbv577VFZif8Jw1MA977QjkYMXc8KmsCiAmLHhccIXyGthLcHxPDU5YPYaPqzPj7xXqKT8aRoGlnpdmCxYRnqP_dok_lWmKfvfWvyBcCCx0dKd8yV0ZUkhNbUI13B7DlcrKrnWjnELDS8r0-e-7xQRYb3S3Z4=w408-h306-k-no,7.0,30,2025-06-11T18:13:55.957Z,comercio
KIOSCO MUZZY,Kiosco,,Av. Urquiza 2367,+54 2284 22-6652,Olavarría,Provincia de Buenos Aires,-36.9049818,-60.3157472,5.0,12,https://streetviewpixels-pa.googleapis.com/v1/thumbnail?panoid=Imz-Udqw_wJjlNwFHk_7Uw&cb_client=search.gws-prod.gps&w=408&h=240&yaw=136.67201&pitch=0&thumbfov=100,1.0,3,2025-06-11T18:13:55.957Z,comercio
Golopolis,Supermercado,http://www.golopolis.com.ar/,Av. Pellegrini 1455,+54 2284 45-2916,Olavarría,Provincia de Buenos Aires,-36.9149569,-60.3190332,4.4,13,https://lh3.googleusercontent.com/gps-cs-s/AC9h4nqXztTwpq5eWBaljpb3um64F35n_jHfIQMJ8OHMVjR5voVN8HEnXtmpPwOD3mIosNnfL6ngo89vm1o_ZSwDUHRwATa9UK8uiBpwqdQySmw0uNhkr041xZ-oqDiphlgQoD5MBvFN=w520-h240-k-no,19.0,202,2025-06-11T18:13:55.958Z,comercio
La Carapegueña,Tienda de ropa,,Ayacucho 1490,+54 2284 13-0379,Olavarría,Provincia de Buenos Aires,-36.8952891,-60.3424931,4.4,14,https://lh3.googleusercontent.com/gps-proxy/ALd4DhEklXw9du3ZZDr7VDqjOUNbkUw9ex-_RCfUZ-UO0Lfr8AQhaFlnb-obyZE-3xaLHofm9Mc474DKa11xGfH2FXpXwURcDUtepdPRzQ191wz8ZcgNTaIpladwVh1KB1LIeqW0bYQRdpyhN8SiaXnl9m3C_ulmOcM6mdWxHN-jIX54J3hEMaWe9OgPJkNSG-NUo3AgnQ=w408-h306-k-no,5.0,14,2025-06-11T18:13:55.958Z,comercio
Peces Olavarría.,Comercio,,Cortés 4446,,Olavarría,Provincia de Buenos Aires,-36.9144083,-60.3206041,5.0,15,https://streetviewpixels-pa.googleapis.com/v1/thumbnail?panoid=L4tkxTQeHE5JewzkqJPqKg&cb_client=search.gws-prod.gps&w=408&h=240&yaw=228.19038&pitch=0&thumbfov=100,1.0,3,2025-06-11T18:13:55.958Z,comercio
Supermercado Luna,Supermercado chino,,Av. Pellegrini 700-630,,Olavarría,Provincia de Buenos Aires,-36.9198128,-60.3250985,4.3,16,https://lh3.googleusercontent.com/gps-cs-s/AC9h4noiZ7wFCpNvg8TQczyJrQHl2qC3OeO5jQ1axUldZvdOtidEMHGVjgrxAs5BLAL8pETrVftUJGKzIKfVzdax6T94U5YtPi7730PNFI7DuvQ7WdQ4sz-6GOgZ46ipAI7yhKl6nBSsfTnqwHA=w408-h306-k-no,22.0,73,2025-06-11T18:13:55.958Z,comercio
Mates El Noble,Comercio,https://mateselnoble.com.ar/,Bolívar 2691,+54 2284 23-3664,Olavarría,Provincia de Buenos Aires,-36.8954984,-60.3265666,5.0,17,https://lh3.googleusercontent.com/p/AF1QipOIMQfTOyujSeJtKjEcMYvPAT5JuNOLS_UVfQuD=w408-h544-k-no,14.0,21,2025-06-11T18:13:55.958Z,comercio
Frutamax,Frutería,,Av. Pueyrredón 4442,+54 2284 57-7842,Olavarría,Provincia de Buenos Aires,-36.9131048,-60.3189803,4.7,18,https://lh3.googleusercontent.com/gps-proxy/ALd4DhFNa_FuSTfEYZXyteaWtxdIS4q3H1Eu8CDxBQyxn6QGxwnR-nbVJbRm7eKcM91evJLyfpxVzWUU579gAtxsxSHwE3AoEyO6MyNVJD8jye1INxsghxRzYKVvp40Ld2BQWobjQ6myuoIZ0bpMXjYsx0yTj303YLbol7Tl7KRLawuFpG0j7V7B6NDZUhNV70kh_h7CXE8=w408-h306-k-no,5.0,9,2025-06-11T18:13:55.958Z,comercio
El Ombú veterinaria y petshop,Comercio,,Av. Avellaneda 5385,+54 2284 24-6800,Olavarría,Provincia de Buenos Aires,-36.9230102,-60.3162622,4.6,19,https://lh3.googleusercontent.com/gps-cs-s/AC9h4norpSBLeCNSXhR7MG8eKduo9Zh01jBcpFUFSFErGSneMpeRjNaZ8q82YU3qurEss_d_FwJTRcv1r_2f4GwJUAnf-1xr2DUs2KNFWHBkoJhqkuvxZF2Xo6py8oMRiO_P6odGL5sikg=w408-h306-k-no,2.0,5,2025-06-11T18:13:55.958Z,comercio
Boschi Hnos Comercio Sanitarios,Tienda de equipos de baños,,Belgrano 3071,+54 2284 71-0406,Olavarría,Provincia de Buenos Aires,-36.8948379,-60.3191307,5.0,20,https://lh3.googleusercontent.com/gps-cs-s/AC9h4nrJcllYrnNTK_57WZOmF6LWgrxB6PchG9N760qAHr9OS9lB5v-TjxDR5zAZRSvFxoBqBozWlQN243bJS1r1q_jH8UgjJ8hgcSsMPaAlb3qd4UX0GrjnYW1X2JYeTfZQcJgR6po=w425-h240-k-no,2.0,8,2025-06-11T18:13:55.958Z,comercio
Tu Kosco,Kiosco,,Av. del Valle 2701,,Olavarría,Provincia de Buenos Aires,-36.897126,-60.3279687,,28,https://lh3.googleusercontent.com/p/AF1QipPwsxhisCbwIyznmVKqCBMOekZN4ujoBPafxLOw=w408-h306-k-no,19.0,0,2025-06-11T18:13:56.773Z,comercio
Supermercado Hola-Tios,Supermercado chino,,Bolívar 4257,,Olavarría,Provincia de Buenos Aires,-36.9062521,-60.3134958,4.3,31,https://lh3.googleusercontent.com/gps-cs-s/AC9h4no4J6He8mUoyxy1b39jsRyTE3x97vkASC4Dvb2uomnbqeW8R0r9NGELvkVkFG_olXvNYFkdmJuhTU3CFCaZ-vl7Jrxtge8OEvD-rCxMfSkdEA_g3Zvf6bmc-v5pTsrXCw6c_Akhiw=w408-h725-k-no,3.0,27,2025-06-11T18:13:56.773Z,comercio
Autoservicio Miguelito,Supermercado,,Necochea 4605,+54 2284 41-2251,Olavarría,Provincia de Buenos Aires,-36.9040491,-60.3048933,4.5,34,https://lh3.googleusercontent.com/gps-cs-s/AC9h4nqg3fiVUb5j-CXbNB8qMFdfF1HbtNdLUOINuESeu4QxU62hR9Uind5UvHoxHABB60mnT0Fk_-OrqqWAbRiDWfp2y9rYv52kgWQLp70oRotPWmDiW_1QnUhJiKxqfWj88Wl-mOr9=w408-h293-k-no,2.0,19,2025-06-11T18:13:56.773Z,comercio
Almacen “Minimercado Colo”,Tienda general,,Manuel Leal 3696,+54 2284 21-5036,Olavarría,Provincia de Buenos Aires,-36.898794,-60.3014841,,37,https://streetviewpixels-pa.googleapis.com/v1/thumbnail?panoid=xZ417Cxi58b_aWpOGeAhog&cb_client=search.gws-prod.gps&w=408&h=240&yaw=120.84714&pitch=0&thumbfov=100,1.0,0,2025-06-11T18:13:56.774Z,comercio
Ananda Piedras,Tienda de artículos para el hogar,,C. 105 Bis,+54 2284 35-4656,Olavarría,Provincia de Buenos Aires,-36.9188261,-60.312818,4.9,38,https://lh3.googleusercontent.com/gps-cs-s/AC9h4nq03999L5PX9Kdhp2HKsn0HSoed52FsQHFCEN4EYY4_X-maLNU_aKYbW0yeG_TgEpRj6ROL_sWNgGiCBHb1KPS8gQVSEyKvdcvOfR6YrzZnbZVahHdhn_Ns5BZ3o0KGBdqebtmz6g=w408-h466-k-no,2.0,12,2025-06-11T18:13:56.774Z,comercio
Rotisería y panadería Doña flora,Comercio,https://www.facebook.com/dona.flora.56,Av. Colón 3836,+54 2284 55-0016,Olavarría,Provincia de Buenos Aires,-36.8969372,-60.3088621,4.6,40,https://lh3.googleusercontent.com/p/AF1QipO4BTQpVUpt1hOwluvZP7c9H84N5buAcmSmNGBu=w408-h544-k-no,3.0,10,2025-06-11T18:13:56.774Z,comercio
Acosta Pablo Mart n,Tienda de alimentación,,Moreno 2271,+54 2284 42-0325,Olavarría,Provincia de Buenos Aires,-36.8979225,-60.3260841,,42,https://streetviewpixels-pa.googleapis.com/v1/thumbnail?panoid=yM6eyjpOo__LjE0QIKruoQ&cb_client=search.gws-prod.gps&w=408&h=240&yaw=332.00955&pitch=0&thumbfov=100,1.0,0,2025-06-11T18:13:57.620Z,comercio
Casa Silvia,Tienda de artículos para el hogar,http://www.casasilvia.com/,Dorrego 3198,+54 2284 42-0958,Olavarría,Provincia de Buenos Aires,-36.895134,-60.317653,4.4,43,https://lh3.googleusercontent.com/gps-cs-s/AC9h4npEuijn56KEh8YBsZSy8oW4I8Zj-ycHmRsSTjroCx483XvNb30DTx95cvEE4PO-qO4c-rTCKS-nStkf6qszRERpleytfvjskljxXU3eYUnaVH5bdacvGVCl5qcvnNAdOS-jNeSHWQ=w426-h240-k-no,143.0,1601,2025-06-11T18:13:57.620Z,comercio
Todo Natural,Tienda de alimentación,,,,Olavarría,Provincia de Buenos Aires,-36.8973224,-60.3084103,,44,https://streetviewpixels-pa.googleapis.com/v1/thumbnail?panoid=na34B1ezXc68LzZ8k7B8wQ&cb_client=search.gws-prod.gps&w=408&h=240&yaw=272.85187&pitch=0&thumbfov=100,1.0,0,2025-06-11T18:13:57.620Z,comercio
Hierros González,Tienda de materiales para la construcción,http://www.hierrosgonzalez.com.ar/,"Villa Floresta, C. Muñoz 2161",+54 2284 42-2722,Olavarría,Provincia de Buenos Aires,-36.9082141,-60.3154855,4.5,45,https://lh3.googleusercontent.com/p/AF1QipP7UL3-d34N9_EIs0Px0hVrEVqQkYAY7l5UmdDi=w408-h306-k-no,67.0,365,2025-06-11T18:13:57.620Z,comercio
Sanitarios Tancredi,Tienda de materiales para la construcción,https://www.instagram.com/sanitariostancredi,Buchardo 2887 7400,+54 2284 44-0049,Olavarría,Provincia de Buenos Aires,-36.9009674,-60.3300612,4.5,47,https://lh3.googleusercontent.com/gps-cs-s/AC9h4noe4HdTNN-j8nQAn6-TiTbzqv3vFd4fN5Gr1rVChiNoCURhvOlKJDbHNW_BbJ6aTgTR8fnjVqetzqDcvSoySFPu4PMbDl2qnRZVG553dusRN8pTqaASI8lthh9zlBUD60fln7c=w426-h240-k-no,4.0,51,2025-06-11T18:13:57.620Z,comercio
Conarco,Tienda de suministros para soldadura,,Av. Colón 3699,,Olavarría,Provincia de Buenos Aires,-36.8963627,-60.3095843,3.0,48,https://streetviewpixels-pa.googleapis.com/v1/thumbnail?panoid=9AqMfpQoUxMfG0Jqni3XHg&cb_client=search.gws-prod.gps&w=408&h=240&yaw=235.97594&pitch=0&thumbfov=100,1.0,3,2025-06-11T18:13:57.620Z,comercio
Kiosco 365,Kiosco,,Av. del Valle 4302,+54 2284 72-4846,Olavarría,Provincia de Buenos Aires,-36.9081755,-60.3149791,,49,https://streetviewpixels-pa.googleapis.com/v1/thumbnail?panoid=_dqrLv56iCR00fuxuYFGBA&cb_client=search.gws-prod.gps&w=408&h=240&yaw=224.29393&pitch=0&thumbfov=100,1.0,0,2025-06-11T18:13:57.620Z,comercio
TIEMPO DE AVENTURA SA,Tienda de ropa,http://www.tiempodeaventura.store/,"Esquina Moreno, Gral. Paz 2911",+54 2284 38-6262,Olavarría,Provincia de Buenos Aires,-36.89517,-60.322147,4.8,50,https://lh3.googleusercontent.com/gps-cs-s/AC9h4nr4ZNZ03LLUJa-zjd_eNWTxevvFd29LTDo5J9aY-K7g5q8davORHRHB7sPSyt5PHLaCPy3npqUbWvPu77WOgi-XKh1RVQoCqq89tm_KzS-WiNOODVSYqypeoKx7SirGgiHHsZIv1w=w408-h272-k-no,34.0,55,2025-06-11T18:13:57.620Z,comercio
Galatea modas,Comercio,,Av. Pueyrredón 4465,+54 2284 60-7973,Olavarría,Provincia de Buenos Aires,-36.9130108,-60.3185097,4.5,51,https://lh3.googleusercontent.com/gps-cs-s/AC9h4nq3G8lk7XRgkNu7HRJeu2QXmxQ6ExpgMshczd_Ny7c6hqXQJrTrrjj8Vqr9Drh_IMZjFZh35ZqcfPtLFwuRyLuZwHCBvjKJiUnhgPHbMlpXXGKFV_1ZjTS3SfBVvwUJzONOxPzW=w408-h725-k-no,41.0,4,2025-06-11T18:13:57.621Z,comercio
"Supermercado ""El Chino""",Supermercado chino,,Buchardo 5778,+54 2284 45-0999,Olavarría,Provincia de Buenos Aires,-36.9202037,-60.306788,4.1,52,https://lh3.googleusercontent.com/gps-cs-s/AC9h4npFmI5Doerce-Ffssbk5fCEHISPKes26sKMLyCHjnpTJZ7vVNo6TIbIbquNc1-v0JSi827npox7I_2DjK7RfVKti0mpizBtjU0AMJN4eF-rEZ8siIA94517Y1JWkrdAsRxMgXg=w426-h240-k-no,4.0,97,2025-06-11T18:13:57.621Z,comercio
Tina Merceria,Mercería,,barrio bancario casa 1 casa 167,+54 2284 30-9187,Olavarría,Provincia de Buenos Aires,-36.9156032,-60.3262758,,53,https://streetviewpixels-pa.googleapis.com/v1/thumbnail?panoid=tMja5whX_il_7wAoWr4H-w&cb_client=search.gws-prod.gps&w=408&h=240&yaw=298.87518&pitch=0&thumbfov=100,1.0,0,2025-06-11T18:13:57.621Z,comercio
BULONERA INDUSTRIAL,Tienda de herramientas,,Av. del Valle 5840,+54 2284 68-7800,Olavarría,Provincia de Buenos Aires,-36.918096,-60.3029234,4.9,54,https://lh3.googleusercontent.com/p/AF1QipMX983OEehVZnsW9cdzcX8z4oV4sfUpwksIjjv1=w426-h240-k-no,8.0,47,2025-06-11T18:13:57.621Z,comercio
Supermercado Cero,Supermercado chino,,Av. Colón 4352,,Olavarría,Provincia de Buenos Aires,-36.9001219,-60.304308,3.8,55,https://lh3.googleusercontent.com/gps-cs-s/AC9h4noij4dW0Rv6jr_84FvvBrSa5p-CPiKq7VXP5RN9laemO_ttCjUtXBed0tsjydMAnViup9PZLkh1xdhJSu2CdFwknOP5YmQd-kk_bsC8p-Gz-WGqqjlV2GkiKW_mLp1c6jdd39RtWA=w408-h306-k-no,3.0,151,2025-06-11T18:13:57.621Z,comercio
González,Panadería,,Av. del Valle 4195,,Olavarría,Provincia de Buenos Aires,-36.907048,-60.3155526,4.0,56,https://lh3.googleusercontent.com/gps-cs-s/AC9h4np_mu25sBtzHbVQDUc1ahDBId5zv_IAjNpg-wbmsluXslerRNzws_Op1G03NPPa2GRuTOxrsfHk8vtX-sBeiDwt8mWLC76JynUGkz2op74ihS6jp8vxnd_2njBK3p5a1r5mN1JLHg=w408-h306-k-no,6.0,1,2025-06-11T18:13:57.621Z,comercio
Panadería y Confitería Miceli,Panadería,,"IDM, Av. Avellaneda 3509",+54 9 2284 22-2953,Olavarría,Provincia de Buenos Aires,-36.9106093,-60.3314487,4.0,57,https://lh3.googleusercontent.com/gps-proxy/ALd4DhFBAqEhBKEvzjUS9EVASIu9ri1yRpx9caS2gdkbhg_HTdtAp_n6hsw4L41B9wjufxMeybf59-IF6-xLujgfL6QCI853J4ck-vgWTNKwSExauDtlj8EN6Q09882l8t9kiC6nZmyvg1_HurbCa2KPVhrUUE8QmRm2cYTAnElJkaCrgiJqSgHaKyCgL2pvIwysganXaqU=w408-h306-k-no,4.0,8,2025-06-11T18:13:57.621Z,comercio
Venyve_deco,Tienda de regalos,,Av. Pellegrini 1954,+54 9 2284 54-8476,Olavarría,Provincia de Buenos Aires,-36.9115241,-60.3146958,,59,https://lh3.googleusercontent.com/p/AF1QipOLpweJkRuTjci6R5efaYRKKxboAUl0vgFn6kYg=w408-h544-k-no,4.0,0,2025-06-11T18:13:57.621Z,comercio
Lotería de la Provincia Agencia El 23,Tienda de lotería,,Av. del Valle 4122,+54 2284 42-7177,Olavarría,Provincia de Buenos Aires,-36.9068924,-60.3165368,,60,https://streetviewpixels-pa.googleapis.com/v1/thumbnail?panoid=9BK_ru8hEq8K4wP-N71B-w&cb_client=search.gws-prod.gps&w=408&h=240&yaw=219.82222&pitch=0&thumbfov=100,1.0,0,2025-06-11T18:13:57.621Z,comercio
Forrajeria “El Ñandú”,Comercio,,Av. Pellegrini 3196,+54 2284 30-5369,Olavarría,Provincia de Buenos Aires,-36.9035863,-60.3040787,5.0,61,https://lh3.googleusercontent.com/p/AF1QipMdCOF3vIczoFtDe1pBKlpLADH_t8fWRz5TzwWi=w458-h240-k-no,18.0,3,2025-06-11T18:13:58.232Z,comercio
Anticuario y Museo Vazzano,Tienda de antigüedades,,Av. Urquiza 1380,+54 2284 44-4746,Olavarría,Provincia de Buenos Aires,-36.9115333,-60.3242225,4.6,62,https://lh3.googleusercontent.com/p/AF1QipMkRdLgqy3hrNI3tlRdF_k3ShYKd9G3PK4fLFb5=w408-h270-k-no,66.0,178,2025-06-11T18:13:58.232Z,comercio
Mercería Morena,Mercería,,9 de Julio 2819,+54 9 2284 47-2224,Olavarría,Provincia de Buenos Aires,-36.8972214,-60.3187791,4.5,63,https://lh3.googleusercontent.com/gps-proxy/ALd4DhG0M-wYWnetVAmpW1h_kNK3Lr40C6T4meR-nG4FC3WZumaYVxBgb81lmstSexyaZWLtBYmAIfSTDw8mNeKQlT2mf46qFEOZL2M-8cgb9SQKPK8duweyMyxlkvJ3L1GIla9mg016kmghj9KVDF-5NNq1bN6Q2Dv_hsU7__2kp2p84R38vmub3TPrZHeRmmKSt7D33L4=w408-h306-k-no,7.0,32,2025-06-11T18:13:58.233Z,comercio
Burbuja's Limpieza y perfumería,Tienda de artículos para el hogar,,Av. Avellaneda 5150-5300,+54 2284 45-2666,Olavarría,Provincia de Buenos Aires,-36.9222222,-60.3173784,3.7,64,https://lh3.googleusercontent.com/gps-cs-s/AC9h4npIO-mVgXy8qSXeQ-RnHxthjPDAhUa5oHsonMPQunBGz7z7BrM-xMijEImtRtIMIaLLg6p5TE6VKZLjWI9KWtG7A8gUFteZGyKcBYdBRIH-gkK2RpB_2OwVuj71xtRnph9_6jM1=w408-h306-k-no,9.0,7,2025-06-11T18:13:58.233Z,comercio
Frutas & Hortalizas Almacen Lucas,Tienda de alimentación,,,,Olavarría,Provincia de Buenos Aires,-36.8997861,-60.3217569,,65,https://streetviewpixels-pa.googleapis.com/v1/thumbnail?panoid=1LaeKo9JYw0dCnew9-uV8Q&cb_client=search.gws-prod.gps&w=408&h=240&yaw=241.20215&pitch=0&thumbfov=100,1.0,0,2025-06-11T18:13:58.233Z,comercio
Supermercado Cero,Supermercado chino,,"Villa Floresta, Av. Pueyrredón 3858",+54 2284 43-1188,Olavarría,Provincia de Buenos Aires,-36.9090963,-60.3238149,4.0,66,https://lh3.googleusercontent.com/gps-cs-s/AC9h4nqEY8CUkR6t1uczwTRyY6JfHBQmDV2VwpvPpUEsnhLOmy2-fwgwPfdulSRLFW-SMYa7fjshcHKrv3JSUHwAjOr9_dqF9Z-caFTFTiwCYdqswbWtynxlUvIs4y4s8TtHFTb1ho_97w=w408-h306-k-no,17.0,232,2025-06-11T18:13:58.233Z,comercio
Juanita Punto,Joyería,https://juanitapunto.empretienda.com.ar/,Canaveri 2717,+54 2284 55-4489,Olavarría,Provincia de Buenos Aires,-36.903844,-60.3364443,,67,https://lh3.googleusercontent.com/p/AF1QipPlWi-ZHVRHad5sEbqXNrTjzabN3lhrKCU8kOb3=w408-h725-k-no,7.0,0,2025-06-11T18:13:58.233Z,comercio
La Casa de los Hierros SA,Proveedor de materiales de construcción,http://www.lacasadeloshierros.com.ar/,Av. del Valle 5098,+54 2284 45-1183,Olavarría,Provincia de Buenos Aires,-36.913336,-60.3088199,4.7,68,https://lh3.googleusercontent.com/p/AF1QipOq9qL59bgaO-j5Jq3Q_MGT2bKAPGaWIv1F2VBP=w408-h306-k-no,22.0,75,2025-06-11T18:13:58.233Z,comercio
Olavarría provincia de Buenos Aires,Zapatería,,,,Olavarría,Ciudad Autónoma de Buenos Aires,-36.9020468,-60.3191659,,69,https://streetviewpixels-pa.googleapis.com/v1/thumbnail?panoid=_81-3bT3WZddW-llznkn3g&cb_client=search.gws-prod.gps&w=408&h=240&yaw=220.91963&pitch=0&thumbfov=100,1.0,0,2025-06-11T18:13:58.233Z,comercio
Dulcinea Express,Panadería,,Av. Pellegrini,,Moreno,Provincia de Buenos Aires,-36.9121378,-60.3153295,2.0,70,https://streetviewpixels-pa.googleapis.com/v1/thumbnail?panoid=4s8Ilxht71yMonhY5b_bGA&cb_client=search.gws-prod.gps&w=408&h=240&yaw=319.5802&pitch=0&thumbfov=100,1.0,1,2025-06-11T18:13:58.233Z,comercio
Frida,Tienda de ropa,,Beruti Bis Casa 127,+54 2284 42-0817,Olavarría,Provincia de Buenos Aires,-36.9153091,-60.3264863,3.8,71,https://lh3.googleusercontent.com/gps-proxy/ALd4DhHEDrHzixLB9i6yqanu-Fc8EFsZCdwSB4Y24VVX_16IZ5Uq_g_mtGKT7LRYvMmPdAr2ePWVaBiS00TQEtF-vG-7vRsz_TUmdxWFRGO4AwRmDZ_9wzNSuD7hk53cZkK9NyazmVtXhNpo-fqJE2TvP5ldax9QT5CAgvsv0s4tK6K9b6sqJRmK7axKHVAtRpsXuZ2qhyY=w408-h306-k-no,4.0,5,2025-06-11T18:13:58.233Z,comercio
FILAMENTOS E IMPRESORAS 3D - CARBONO 3D,Comercio,https://carbono3d.com.ar/,Buchardo 3822,+54 2284 52-4262,Olavarría,Provincia de Buenos Aires,-36.907492,-60.322418,4.6,72,https://lh3.googleusercontent.com/p/AF1QipP0kzgnMk4riYrPuaiI6SsLP2uHvYy2gCK-EGy6=w408-h725-k-no,2.0,8,2025-06-11T18:13:58.233Z,comercio
"""Del Valle""",Frutería,,"Villa Floresta, Av. del Valle 3514",+54 2284 43-0731,Olavarría,Provincia de Buenos Aires,-36.9028319,-60.321534,4.0,1,https://lh3.googleusercontent.com/gps-proxy/ALd4DhHak6tm7nhtp-wengB5A9A7UqZGHByM_DOOla056qjUviZ_ULpgpehSCm2z8ERvDZ0YcQLw12qdUq9quQuf5w9UAHSuC78XxHCtpaHK63nAmryPr_LrXoiR-P4yJpE4pnJC4p88izHClxpib9bQz-CZoJyx65gCfZmBKk8Da7QR03QfwWYAIQqN_j6r60CBqOl5pw=w408-h306-k-no,4.0,3,2025-06-11T18:13:58.930Z,tienda
Polirrubro Deja Vú,Tienda de alimentación,,"Villa Floresta, Av. Pellegrini 1335",,Olavarría,Provincia de Buenos Aires,-36.9157194,-60.3199653,3.8,2,https://lh3.googleusercontent.com/gps-proxy/ALd4DhEZK8fjjE-tO6dDjJAtUslioNIGV2VaED1iRE8PNgxcwL11N_WpJeA2fArae0Dn_lkaGYS3iG9CCBBkWGZn_cciEQit_OUIOMmb90oRuOBFB3NjerTrro_wkSF0oF3qKNPCadxQjtZY7YE8LB-SHCvvUfIxldq9mRkpW8HNsqkfsEn0P4eYp6n5EwIrureN34eFVA=w408-h306-k-no,2.0,4,2025-06-11T18:13:58.930Z,tienda
Polirrubro Ramiro,Tienda de alimentación,,9 de Julio,,Olavarría,Provincia de Buenos Aires,-36.9082842,-60.3326015,4.3,3,https://streetviewpixels-pa.googleapis.com/v1/thumbnail?panoid=XLYhdPwop623Tn_JJCQ6Uw&cb_client=search.gws-prod.gps&w=408&h=240&yaw=334.87698&pitch=0&thumbfov=100,1.0,3,2025-06-11T18:13:58.930Z,tienda
Fattigati II,Tienda de alimentación,,España 2774,+54 2284 42-3058,Olavarría,Provincia de Buenos Aires,-36.8960521,-60.3200356,5.0,4,https://lh3.googleusercontent.com/gps-proxy/ALd4DhFG792PAGsEIxbj9hpsTPleDTKki_HJRPmCAvaWa6Avq0vLagawe_CwQNfI5XezMBE8NOSuEYzQjUJFnSvyDaFCOfl_A3pcWayBJqceSc0VEWY8DrwQsL_5s2exKdIpQpe98UkgMPHjahWxabDY_DbEGevOZBLcBvTuAeVRUJ4a1S8hjOvKXkvsAwH6u8W1jgTi3aU=w408-h306-k-no,2.0,1,2025-06-11T18:13:58.930Z,tienda
El Triángulo Kiosko 24 Horas,Tienda de alimentación,,Gral. Paz 3098,,Olavarría,Provincia de Buenos Aires,-36.8964424,-60.3209609,4.0,5,https://lh3.googleusercontent.com/gps-proxy/ALd4DhGN6mddXn21pQte_sw1qlZhhGTy7fK2hKy2jr6uoaAOXiXwQftlCtBxHozTIa0l0v7yhnDNR_wvDcNagKYcgKO-jpS44X-9IPWgBUBFi00BHXOebTYs87HRfG7q8X9H9ZqmZ7Zk0jGpULrLx6tw36dlCtKLrzIS1SdehiXWGeKR1QbPiA0yL_bSG9SXkvQq6EQ1EIE=w408-h306-k-no,3.0,6,2025-06-11T18:13:58.930Z,tienda
Autoservicio Otoniel,Tienda de alimentación,,Av. Avellaneda,+54 2284 41-7800,Olavarría,Provincia de Buenos Aires,-36.911926,-60.329806,3.0,6,https://lh3.googleusercontent.com/gps-proxy/ALd4DhEJrh-Ccli-AvRPJrXfw4BNccn7jDSQykwIdyGfvYAQnRL7QwlAXppdTDg0s_qWCPDP7arqjIcZzTzD5d-otcppkSI09t6hGU9fkRNq29c2C_RXJcvM0Rr3agl3nwU6sCrLLXMI_tLli644jwyd0DMIf1ZjGylnniVX9v2u290x-6JSoqpQFiLI8MXAvy5E_taRz7w=w408-h306-k-no,3.0,1,2025-06-11T18:13:58.930Z,tienda
Kiosco Mechu,Tienda de alimentación,,Av. del Valle 4080,,Olavarría,Provincia de Buenos Aires,-36.9065812,-60.3169686,4.7,7,https://lh3.googleusercontent.com/gps-proxy/ALd4DhHvN2a-zhuEB2z_luD8geeVS2d-NlAdMH9JUWbefr6P1bodVlTWWq6UwGGTcg7dxzfHPKsCyeFqWcY2xAVVc_kp_Ma_BeSLUXn-abeHDTF6PXXFYIIwB0SZUdYdulQMuB_ED61HZMpiTN9Fvzhy5D-TKwDgvNRNsg1ec0OsM46AetYLiTGpDi7d0aSplbividGSaSE=w408-h306-k-no,7.0,6,2025-06-11T18:13:58.930Z,tienda
Intertel,Tienda de alimentación,,Lamadrid,+54 2284 44-3327,Olavarría,Provincia de Buenos Aires,-36.8994097,-60.3258018,2.3,8,https://lh3.googleusercontent.com/gps-proxy/ALd4DhGyZdHkeYGy-E45plELIVB6icWMOnt4TnwAXCAUjl978y3XoNqR53FbDb0qif_F-Z53Inbu3lBu1onshC2Xa5LU5iB7cXaSxU3f4RUeEc8LBjXOUxFGdNu4irgBJ5cnzDju3HMU38WO_DShmOpGc0ib_XQvRVfjH2uWLNv1psyZtRrOuGmnvMcf_E8LxUYnXd66_A=w408-h306-k-no,4.0,3,2025-06-11T18:13:58.930Z,tienda
Kiosco Pacha's,Tienda de alimentación,,Hornos 2635,,Olavarría,Provincia de Buenos Aires,-36.8946046,-60.3261457,5.0,9,https://lh3.googleusercontent.com/gps-proxy/ALd4DhHuaQGLDhNyPNhPOUJhrxXa8O2oFGVW1rlIW46l1ieh3_6-2Gq5ftERCFwFFJLpMmH886dXKO5M8yjG2Tm-wUh33WUJ6tUSTqLqh5jGmbayfElgHbhXbwi2vTsnEk3UR3PneSUVaY68ZRrBnICFNMnsAfG-dMq4mOIAwqepEemvAzDO53AXjpWd0Cpa2zF00UXlMKk=w408-h306-k-no,2.0,6,2025-06-11T18:13:58.930Z,tienda
Distribuidora Su Seguridad,Servicio de distribución,https://distribuidorasuseguridad.mercadoshops.com.ar/,Av. Pringles 2429,+54 2284 66-7995,Olavarría,Provincia de Buenos Aires,-36.9001034,-60.3206823,4.5,10,https://lh3.googleusercontent.com/p/AF1QipNTBlD6nJ3hOY3hJP7TOJF0aQj9OnfZB7uILnMg=w408-h544-k-no,44.0,93,2025-06-11T18:13:58.930Z,tienda
104 Polirrubro,Tienda de alimentación,,Azopardo 1598,+54 2284 42-1670,Olavarría,Provincia de Buenos Aires,-36.8930219,-60.341844,3.8,11,https://lh3.googleusercontent.com/gps-cs-s/AC9h4no4SPsQ2DI1HLUMp0_tFQpFNoAZF66tX6HKoVTe3pxCCQ6NX0-9gw1w011ssTpPr3BYOvdt5u1QhbtZrJbIG2Q3JtIqlnMV8A4COyO2THCWOAE-FyGSkGwRyVWBcRLVTeuPd1aZ5Q=w408-h544-k-no,18.0,4,2025-06-11T18:13:58.930Z,tienda
Mercado Pelegrini,Tienda de alimentación,,Av. Pellegrini 1579,,Olavarría,Provincia de Buenos Aires,-36.914412,-60.318335,,12,https://streetviewpixels-pa.googleapis.com/v1/thumbnail?panoid=EhfVGvJyH9sT1Hf4S5hsXw&cb_client=search.gws-prod.gps&w=408&h=240&yaw=320.34946&pitch=0&thumbfov=100,1.0,0,2025-06-11T18:13:58.930Z,tienda
Date el Gusto,Tienda de alimentación,,Av. Pueyrredón 3687,,Olavarría,Provincia de Buenos Aires,-36.9075791,-60.3251801,,13,https://lh3.googleusercontent.com/gps-cs-s/AC9h4npDDb8OrKnrhvAOOz0IFho2IpHhBXE7-v_xI3V96h7NAKf4R0gRkmaymHyKrp_8EEKRx-k-mnr1dAZdCNwD2YNKo4RwIIBee11nTo2xpBC3w0eQUdAwqx7Iomca0L8C2ZSJS3aZ=w408-h274-k-no,2.0,0,2025-06-11T18:13:58.931Z,tienda
Regalería Kiosco,Tienda de alimentación,,"EIM, Laprida 1085",,Olavarría,Provincia de Buenos Aires,-36.9120561,-60.3287984,,14,https://streetviewpixels-pa.googleapis.com/v1/thumbnail?panoid=VjsLDaiWqFqi6rv9dWAA1Q&cb_client=search.gws-prod.gps&w=408&h=240&yaw=307.05518&pitch=0&thumbfov=100,1.0,0,2025-06-11T18:13:58.931Z,tienda
Kiosko Terminal,Tienda de golosinas,,"Terminal de Olavarría, Av. Pringles 3200",+54 2284 42-4062,Olavarría,Provincia de Buenos Aires,-36.8953618,-60.3138432,,15,https://lh3.googleusercontent.com/gps-proxy/ALd4DhFGuUBYG7pT0v9eIZDdc4igKfEqt2wzRK1dEme5TAviyj5BEu7cv52EAOTur75TmOO1jdEqsLrxmlK6UDzt969-rtW6gREWc3BM-cKKrPAvyiaKVCrzSRXUwqR-hY3mKX-WBSv25GhYP4IA0tiZ6mST4Q3yhMqL3ZwX6mAWsWMT95WPU0fxE4PtodWZycPXHVOconk=w408-h306-k-no,10.0,0,2025-06-11T18:13:58.931Z,tienda
"Super Kiosko ""Dante""",Tienda de golosinas,,Cnel. Suárez 2301,+54 223 454-8755,Gran Buenos Aires,Provincia de Buenos Aires,-36.8917323,-60.3280939,5.0,16,https://lh3.googleusercontent.com/gps-proxy/ALd4DhFgdjGiic0T6z_CtsaDgIfbaZvJVHqp7hrUWloXubj2vjrfZZZG0w-cRptGjyXaMuZ0-whyhyPD5ncaNOdXDZQ9q2bRl0h0p3N5Y8ponEl8X7Su6oAJvGHiPgIFlT_oKZkXzI5kdpaaJdNrWrXQkC9MK1_yvOW7ZZf7CuLlKiNzYzC6kMrF07NNNBksuhvZ44IqpLA=w408-h306-k-no,3.0,1,2025-06-11T18:13:58.931Z,tienda
Marroquinería y Regalos El Pago,Tienda de regalos,,Gral. Paz 2991,+54 2284 41-6604,Olavarría,Provincia de Buenos Aires,-36.8956777,-60.3215839,,17,https://lh3.googleusercontent.com/gps-proxy/ALd4DhGw8P2ATgHeo_LUQc9eVMcvGmOfXJUqMHjoPxQeFb0uLa7eQvaNV1qoNr4YJ5CZrXnKfMJ4_gq9UMxKbJIR9lSyHAq0ns-mSw7e7StVUHKLRFu40ky7Y_QG98ki4z6y8W6iACzS6Ntz5tT67WLAImFEtyE-IKT6W7brRxbVUG5nvuTFYM4aC6897t-WtqWuJ4yQSbk=w408-h306-k-no,4.0,0,2025-06-11T18:13:58.931Z,tienda
Maxikiosko MF,Tienda de alimentación,,"CRF, Vicente López 2590",+54 2284 41-5333,Olavarría,Provincia de Buenos Aires,-36.8946647,-60.3248901,,18,https://lh3.googleusercontent.com/gps-cs-s/AC9h4nqTrC9VCG_w21k_PyVytQZQiMmLrmXplwyvYQ7_jANfxcR0AamZhhdCmAVeceixGm1yAqqFCh-ZGfneQvVuZOfbCjM-I1hkeCsJNPj_Wo9jIk14omA6q4HWuvnXu2FdaJhdV8NS=w408-h725-k-no,3.0,0,2025-06-11T18:13:58.931Z,tienda
Kiosko Coquito,Tienda de alimentación,,Av. Ituzaingó 2160,,Olavarría,Provincia de Buenos Aires,-36.890201,-60.337712,4.3,19,https://streetviewpixels-pa.googleapis.com/v1/thumbnail?panoid=vIcnbuzk3ykhzMn62lbvwg&cb_client=search.gws-prod.gps&w=408&h=240&yaw=133.63295&pitch=0&thumbfov=100,2.0,6,2025-06-11T18:13:58.931Z,tienda
Shell,Gasolinera,https://find.shell.com/ar/fuel/10129299-sew-combustibles-s-a/es_AR,"Avenida del Valle, Saavedra 3699",+54 2284 44-1901,Olavarría,Provincia de Buenos Aires,-36.9035347,-60.3197375,4.3,20,https://lh3.googleusercontent.com/gps-cs-s/AC9h4npdsRP6mJ221YOfXdXJ1er3Q1dV4C0ujiqH4HQOUXcnYQgda7dijQd3yj5oU43ACoeiJ0JHxybPlI72iyosLhgxaqJgOnVfAcBEWA1E9Qb1GVvjZ52hbO7Skx06UNjshrE7_5KNGA=w448-h240-k-no,28.0,197,2025-06-11T18:13:58.931Z,tienda
Imperio Store - Otaku Style y Colección,Tienda de cómics,https://imperiostoree.mitiendanube.com/,"Pueblo nuevo, Av. del Valle",+54 2284 60-1311,Olavarría,Provincia de Buenos Aires,-36.8989417,-60.3263387,4.4,21,https://lh3.googleusercontent.com/gps-cs-s/AC9h4noiVucMtXgx09aGkt3WwehN5PBqM4IBY5OptVyVxKWB6Ilibm2TCv4elYC0MOnl_3zFExvxMUy0zqM230RNSTuv4m7W3qF9vl_ISSh08dvDIq1OiaqwkndBdyqbzlf1qb5fbUFI-A=w426-h240-k-no,27.0,147,2025-06-11T18:13:59.909Z,tienda
Tienda Villa Mailin,Tienda de ropa,,Av. la Rioja 1699-1799,,Olavarría,Provincia de Buenos Aires,-36.9185013,-60.3101652,4.2,22,https://lh3.googleusercontent.com/gps-cs-s/AC9h4nrpLayg71pV9Eza7RqMd4pgk7yOXq3KE0bPIsIjl98RkaMxo25-nzY3QKci1t0bx8kqPHO_uE8wHf_79Weta1cvCXi3b1EzPh5phAvofMx2BtYC442vUBXrcVRtSXt4erXn1hjq=w408-h306-k-no,2.0,33,2025-06-11T18:13:59.910Z,tienda
Verde gourmet,Tienda de alimentos naturales,https://deliveryolavarria.com/tienda/verde-gourmet/,Bolívar 3305,+54 2284 41-4911,Olavarría,Provincia de Buenos Aires,-36.8999122,-60.3215569,4.5,24,https://lh3.googleusercontent.com/p/AF1QipOY5I7LksqFqlJCHdAV17KD3B_B52mbsexYQCEi=w408-h305-k-no,44.0,79,2025-06-11T18:13:59.910Z,tienda
Maxiconsumo S.A.,Tienda de comestibles mayorista,http://www.maxiconsumo.com/,Av. Pellegrini 2404,+54 2284 45-2742,Olavarría,Provincia de Buenos Aires,-36.9091186,-60.3091926,4.1,25,https://lh3.googleusercontent.com/gps-cs-s/AC9h4nq8rnO3t2Tck92UVrw-1Uzn2Wy58qamJsCRK7-WmXUzA3prDfqOXn6GJyLMbc9wPJDyePhoJc97Nuyj7cC1mO3t30a3Wd5geBtIpF6cmye8RwF5RGxz7o7xi2rXcxXg2mnVe6BjzQ=w408-h306-k-no,48.0,652,2025-06-11T18:13:59.910Z,tienda
Reino Productos Naturales,Tienda de productos de belleza,,25 de Mayo 2527,+54 2284 42-1985,Olavarría,Provincia de Buenos Aires,-36.8981646,-60.3214744,4.7,26,https://lh3.googleusercontent.com/gps-cs-s/AC9h4nr1Eqgf9ai7h53Bdp1VoJAu6gUoSbSRRwz22I-uP6UBCKV2KUnTIankhkiwEeE7mtDqcx6YICNjvlChh8TA0t8lM3swjTnKeb5wdHdQhlPhRl4FPqTJTA8aDSRLxLb3pXbxDx_f=w408-h306-k-no,9.0,68,2025-06-11T18:13:59.910Z,tienda
Tienda Rosita,Tienda de ropa,,,,Olavarría,Provincia de Buenos Aires,-36.9086266,-60.3293125,,28,https://streetviewpixels-pa.googleapis.com/v1/thumbnail?panoid=4OCkluw5wAn71jj-9Nc4gw&cb_client=search.gws-prod.gps&w=408&h=240&yaw=211.78029&pitch=0&thumbfov=100,1.0,0,2025-06-11T18:13:59.910Z,tienda
Kiosco Leo-Luc,Tienda de alimentación,,Hipólito Yrigoyen 3768,+54 2284 41-6931,Gran Buenos Aires,Provincia de Buenos Aires,-36.895055,-60.3076382,5.0,29,https://lh3.googleusercontent.com/gps-proxy/ALd4DhHaQ8U32ZQoui1C625IB65ws3Bf-lN9V3dFX8w0ZlR1SLEMNyKAvgj6LeKwCv03IE6-pkbm4wGDMH1A5C6Bk5vHVRvqYGEIa2liSF50NKNunM2bnSR0XTRVLwnOCwSOSIhWVadoEb2nkFxqiAtMiOwTPHcv-JTW1t56daXMMIrjtX1ZBPiUgva39vfnZH2kpe89iA=w408-h306-k-no,3.0,1,2025-06-11T18:13:59.910Z,tienda
Tienda De Bebidas Skabio,Tienda de bebidas alcohólicas,,,,Olavarría,Provincia de Buenos Aires,-36.8973279,-60.3216615,,30,https://streetviewpixels-pa.googleapis.com/v1/thumbnail?panoid=LSWKRIsZ-NdVfpyMRhcGHw&cb_client=search.gws-prod.gps&w=408&h=240&yaw=160.9105&pitch=0&thumbfov=100,1.0,0,2025-06-11T18:13:59.910Z,tienda
Fase 3,Tienda de electricidad,https://fase3sh.com/,Av. Urquiza 2331,+54 2284 42-1353,Olavarría,Provincia de Buenos Aires,-36.9049446,-60.3163577,4.6,31,https://lh3.googleusercontent.com/gps-cs-s/AC9h4noRVzGqSBSxq7ATumOiooTGJ_ncBb2TTdc7C4UYEdZdBmFKcx9wzCCO3nT7AptQkCGglytuTy4-zP-JbYSWPwKtfBqFwu0p6Px-mUFIkw3Of8dC95er90Ck3xQc0kZa0vl5FZdd=w408-h884-k-no,13.0,165,2025-06-11T18:13:59.910Z,tienda
42K Bikes,Tienda de ropa de deportes,https://www.facebook.com/42Kolavarria/,Av. del Valle 4444,+54 2284 33-3707,Olavarría,Provincia de Buenos Aires,-36.9090267,-60.3139889,4.9,33,https://lh3.googleusercontent.com/gps-cs-s/AC9h4np3y-E-4hP4q3S52SLfuJRWpicxyWIxVzdIGesuHJNpOUWaW-OohPoEQGMmVS2nGn_pY-dpxwsjINaz0JRnk6-BJoyiZkezvGx4_E8ZTm7ZoSXHtn9dGnfNRsvE4NCbwDiqPAALrg=w408-h306-k-no,43.0,52,2025-06-11T18:13:59.910Z,tienda
RAPIPAGO INDUMENTARIA REGALERÍA KIOSCO,Tienda de ropa,,Av. Avellaneda 4636,+54 2284 53-2017,Olavarría,Provincia de Buenos Aires,-36.9184508,-60.3223199,,34,https://lh3.googleusercontent.com/p/AF1QipPMnmJFYykY_p95nG5mS0PWsJchSnSGbEgMKHx-=w408-h510-k-no,3.0,0,2025-06-11T18:13:59.910Z,tienda
TIENDA DE ROPA FLORES,Tienda de ropa,,,,Olavarría,Provincia de Buenos Aires,-36.8956389,-60.314817,,36,https://streetviewpixels-pa.googleapis.com/v1/thumbnail?panoid=Qx6zccIJk-eyv1VeS3Ejaw&cb_client=search.gws-prod.gps&w=408&h=240&yaw=342.07593&pitch=0&thumbfov=100,1.0,0,2025-06-11T18:13:59.910Z,tienda
Tienda Xiofi,Tienda de ropa,,Av. Domingo Faustino Sarmiento 4350,,Olavarría,Provincia de Buenos Aires,-36.8964062,-60.2994843,,37,https://streetviewpixels-pa.googleapis.com/v1/thumbnail?panoid=AS8YPxNk6QTKgw6gnpCjrg&cb_client=search.gws-prod.gps&w=408&h=240&yaw=218.41016&pitch=0&thumbfov=100,1.0,0,2025-06-11T18:13:59.910Z,tienda
Electró Nico,Tienda de electricidad,,Av. del Valle 2828,,Olavarría,Provincia de Buenos Aires,-36.8981409,-60.3273278,,39,https://lh3.googleusercontent.com/gps-proxy/ALd4DhEB8jI6y5bSbyvxorTQsQAbb4ChA1BYGGoHHzLV-3V2qFRB2cx_rOjmafkX9qL1yUS61CA_qUvdxpsH4TQjU9fPzLctXK9N5if7Bvi3pLYxyTaBokqwkKCyPUX1YiEVGx4emOcCiFEE4JZFgszpO-loSMSIjs-1K7lWdC4w7rXcHzyGxkMiz3Mcl-41Wrbdotykkg=w408-h306-k-no,2.0,0,2025-06-11T18:13:59.910Z,tienda
Tu Silla,Tienda de muebles,https://tiendatusilla.com.ar/,Av. Pellegrini 1051,+54 2284 61-4776,Olavarría,Provincia de Buenos Aires,-36.9174193,-60.3223778,4.4,40,https://lh3.googleusercontent.com/gps-cs-s/AC9h4nqnLMW4uEnw_DWkzfwYlDBZXCbbts3qPRn11O_tkL_rWWPbV1JTxqdQyhv4sd-53IHL51X6vNYc_57trd1KMFIrab96DXiQmMWXgAJehD7ADjU1pogWY_iPh2EkrnR7jQbDt6nx2Q=w408-h314-k-no,35.0,29,2025-06-11T18:13:59.910Z,tienda
La dinastía venta de alimentos,Mercado,,Av. Pringles 2735,,Olavarría,Provincia de Buenos Aires,-36.8981161,-60.3181325,5.0,1,https://lh3.googleusercontent.com/gps-cs-s/AC9h4npwirQSrVXc6LngfRv15P6YkUWKspk8cHrv4HGLFKNI_G8h71Fqi55g2aIn8Xv92Ld8GtidLFaS6boUuJ1Mp1rh1tbquWGhdAHghE4Q9JT2TDr-BHPMVUWMFOIuIB8tTzkHpfn9=w426-h240-k-no,6.0,1,2025-06-11T18:14:00.229Z,venta
Mva Post Venta,,,,,Olavarría,Provincia de Buenos Aires,-36.9015771,-60.3223251,,2,https://streetviewpixels-pa.googleapis.com/v1/thumbnail?panoid=IlYfJV2kFzlT-1-WNZc5Xg&cb_client=search.gws-prod.gps&w=408&h=240&yaw=288.4212&pitch=0&thumbfov=100,1.0,0,2025-06-11T18:14:00.229Z,venta
Remates Olavarría,Casa de subastas,,Av. Ituzaingó 2756,+54 2284 71-3414,Olavarría,Provincia de Buenos Aires,-36.8865174,-60.3332396,5.0,5,https://streetviewpixels-pa.googleapis.com/v1/thumbnail?panoid=CVsSn49NnnbGT5QG7jieZA&cb_client=search.gws-prod.gps&w=408&h=240&yaw=89.940216&pitch=0&thumbfov=100,1.0,1,2025-06-11T18:14:00.229Z,venta
Maderas Del Sur,Establecimiento de venta de madera,,Av. Pringles 1050,+54 2284 50-5121,Olavarría,Provincia de Buenos Aires,-36.9095484,-60.3317994,4.7,6,https://lh3.googleusercontent.com/p/AF1QipMDBGQAePMEe47CbRvevC8U5pOz7jIR19HJG74S=w408-h408-k-no,7.0,31,2025-06-11T18:14:00.229Z,venta
Venta De Conejos,Comercio,,Rufino Fal 2140,,Olavarría,Provincia de Buenos Aires,-36.8802604,-60.3159389,2.0,7,https://streetviewpixels-pa.googleapis.com/v1/thumbnail?panoid=VibwhyOefF0GRsLYlsX_mw&cb_client=search.gws-prod.gps&w=408&h=240&yaw=214.96236&pitch=0&thumbfov=100,1.0,2,2025-06-11T18:14:00.229Z,venta
Inmobiliaria Vaccaro,Agentes inmobiliarios,http://www.inmobiliariavaccaro.com.ar/,España 2356,+54 446070,Olavarría,Provincia de Buenos Aires,-36.8988726,-60.3234838,4.4,8,https://lh3.googleusercontent.com/p/AF1QipO9wRyKdC6MqcvKQpN0A6bccQQNi3I9JRtdZV6Q=w408-h544-k-no,3.0,51,2025-06-11T18:14:00.229Z,venta
Casa Elizaga venta y reparación de máquinas de coser,Servicio de reparación de máquinas de coser,,Antonio Pelegrino 3626,+54 2284 41-0726,Olavarría,Provincia de Buenos Aires,-36.9039833,-60.3212378,4.8,9,https://lh3.googleusercontent.com/p/AF1QipNyIgL44kPZuFlRbuolWTRnINC5LmImyWITc0Al=w408-h906-k-no,13.0,50,2025-06-11T18:14:00.229Z,venta
Chantir,Tienda de alimentación,,Av. del Valle 1799,+54 2284 42-1407,Olavarría,Provincia de Buenos Aires,-36.8911334,-60.3357738,4.7,10,https://streetviewpixels-pa.googleapis.com/v1/thumbnail?panoid=tKSEnfzJwCpF9d5CBz9C3Q&cb_client=search.gws-prod.gps&w=408&h=240&yaw=280.6546&pitch=0&thumbfov=100,1.0,6,2025-06-11T18:14:00.229Z,venta
Notararigo Inmobiliaria,Agencia inmobiliaria,http://www.notararigoweb.com.ar/,"JUH Olavarría Buenos Aires AR, Av. del Valle 3099",+54 2284 42-5976,Olavarría,Provincia de Buenos Aires,-36.899779,-60.324948,4.4,11,https://lh3.googleusercontent.com/p/AF1QipMWx1k7pnWh5K6o-7uNR7hvtQ_6lNnTkcip5DCg=w408-h306-k-no,27.0,62,2025-06-11T18:14:00.229Z,venta
The Beer Point,Cervecería artesanal,https://instagram.com/thebeerpoint.olav,Vélez Sarsfield 2793,,Olavarría,Provincia de Buenos Aires,-36.8968733,-60.3265079,5.0,12,https://lh3.googleusercontent.com/gps-cs-s/AC9h4nrs5Kt7hp0U82ewloPP_u2A-OrxINGq0UrJop58k1NNd-giyUm1AdhUYMW0OyZ6TeJyh-e7xqf1R8vs6ELkbCWeYyto3mc9Lz3zgkzj0GC1yuGHxYuPSN3Hv8kMULNazyzkt2p3eg=w408-h544-k-no,10.0,15,2025-06-11T18:14:00.229Z,venta
Inmobiliaria Adala,Agencia inmobiliaria,https://www.facebook.com/Inmobiliariaadala,Av. Pringles 1936,+54 2284 42-2358,Olavarría,Provincia de Buenos Aires,-36.903645,-60.3249774,4.7,13,https://streetviewpixels-pa.googleapis.com/v1/thumbnail?panoid=2TRk3zQaPJmz14tBueNbnA&cb_client=search.gws-prod.gps&w=408&h=240&yaw=317.8106&pitch=0&thumbfov=100,2.0,20,2025-06-11T18:14:00.230Z,venta
Alejandro Mañandes Asesor Inmobiliario,Agencia inmobiliaria,http://amasesorinmobiliario.com/,"B7400, Saavedra 1750",+54 2284 57-4556,Olavarría,Provincia de Buenos Aires,-36.906991,-60.3236054,5.0,15,https://lh3.googleusercontent.com/p/AF1QipNUCfnFHfLebM9mXb6Z89SNR5g-em9miFJHb7Mt=w408-h544-k-no,6.0,2,2025-06-11T18:14:00.230Z,venta
Inmobiliaria Coniglio,Agencia inmobiliaria,,Av. del Valle 2571,+54 2284 48-5959,Olavarría,Provincia de Buenos Aires,-36.8961892,-60.3290539,4.4,16,https://lh3.googleusercontent.com/p/AF1QipNvyKQW6TWKLh4HfEGRO8pHA_n69L866RopGFk=w408-h240-k-no,4.0,9,2025-06-11T18:14:00.230Z,venta
Inmobiliaria Chantiri Propiedades,Agencia inmobiliaria,,Belgrano 3301,+54 2284 42-3988,Olavarría,Provincia de Buenos Aires,-36.8965199,-60.3172386,5.0,17,https://streetviewpixels-pa.googleapis.com/v1/thumbnail?panoid=2hlknRWJ3ojrqX5SfQOlsg&cb_client=search.gws-prod.gps&w=408&h=240&yaw=29.203753&pitch=0&thumbfov=100,1.0,1,2025-06-11T18:14:00.230Z,venta
Melisa Schwab Inmobiliaria,Agencia inmobiliaria,http://www.melisaschwabinmobiliaria.com.ar/,Gral. Paz 2888,+54 2284 35-5955,Olavarría,Provincia de Buenos Aires,-36.8950909,-60.322624,4.6,20,https://lh3.googleusercontent.com/p/AF1QipPFrObWDuA1LQs5oRVTobDB2s1a09Cs0fr0_Reo=w408-h544-k-no,10.0,42,2025-06-11T18:14:00.230Z,venta
Tiempo de Aventura,Tienda de deportes,http://www.tiempodeaventura.store/,Gral. Paz 2911,+54 2284 35-1700,Olavarría,Provincia de Buenos Aires,-36.8951701,-60.3221469,4.5,41,https://lh3.googleusercontent.com/p/AF1QipP5b7pUq7TjMOXLZ4XvceLLVf5cMZMoB8Gb6PY-=w408-h272-k-no,13.0,132,2025-06-11T18:14:00.851Z,tienda
Todo Rulemán,Tienda de repuestos para automóviles,http://www.todoruleman.com/,Av. del Valle 2952,+54 2284 41-3373,Olavarría,Provincia de Buenos Aires,-36.8989908,-60.3264301,4.6,42,https://lh3.googleusercontent.com/p/AF1QipO7jWReuzm8tjuWXheK2vGBwXn-Imce6Mr_RB4R=w408-h306-k-no,100.0,175,2025-06-11T18:14:00.852Z,tienda
El cardenal Agustin,Tienda de muebles,,Buchardo 3045,+54 2281 56-8888,Olavarría,Provincia de Buenos Aires,-36.9020644,-60.3287121,3.0,43,https://streetviewpixels-pa.googleapis.com/v1/thumbnail?panoid=9RrVr2d_-o4VzGzQudVKqw&cb_client=search.gws-prod.gps&w=408&h=240&yaw=39.69092&pitch=0&thumbfov=100,1.0,1,2025-06-11T18:14:00.852Z,tienda
Tienda de chocolates SH,Tienda de productos de chocolate,,Juan Moya 3299-3199,+54 2284 59-5447,Olavarría,Provincia de Buenos Aires,-36.9021467,-60.3041269,5.0,44,https://lh3.googleusercontent.com/gps-cs-s/AC9h4nr9-zD81o08z3w7PVYBvCkvcXVg00G-2ZZzRGfkMYXWJmB101OyBWOY_HNSVPKEjdTkaOIzHsWRzeDZY8Ze-03q9-se8ZlIeSEIkKrO8WqZm5QfS-NcWHwE2o92HJYkjm-G-nxjcw=w408-h544-k-no,2.0,3,2025-06-11T18:14:00.852Z,tienda
Sabores de Campo,Almacén,,Av. Colón 3757,+54 2284 30-4687,Olavarría,Provincia de Buenos Aires,-36.8963728,-60.3096201,3.0,46,https://lh3.googleusercontent.com/gps-proxy/ALd4DhFCYcK0y2SsRqGRW250_rRxM-2Foabjvx18dhSAPOO2hcE1EAa1KZygjr1ethsB7g5QqIa1QQyE4_hHitA4FQOcFnq-81l3I1ZcMzabvw3ZdlhUyenLZDURco8fY3hwhs1qY6m8lNnV72viQgINCp5o1bqHi3R0vmDzUIHO5abkMyLCvpg1SrjaeKweZHO912VazxY=w408-h306-k-no,3.0,2,2025-06-11T18:14:00.852Z,tienda
Dulce Detalle Lencería,Tienda de lencería,https://www.instagram.com/dulcedetalle.lenceria/,Buchardo 5779,,Olavarría,Provincia de Buenos Aires,-36.9199723,-60.306654,5.0,47,https://lh3.googleusercontent.com/p/AF1QipNWz-Z1nytNqa_q21aYNpfro_S3adSMhB44O7i-=w426-h240-k-no,4.0,46,2025-06-11T18:14:00.852Z,tienda
"El Refugio, Forrajeria Y Multirrubro",Tienda de alimentos para animales,,Av. Pringles 2136,+54 11 3909-0296,Olavarría,Provincia de Buenos Aires,-36.9025461,-60.322807,4.8,48,https://lh3.googleusercontent.com/p/AF1QipNFqC5Eqq_xcQpR_v5HjHoSQIddE2zHys79hnUq=w408-h306-k-no,132.0,22,2025-06-11T18:14:00.852Z,tienda
Suc. Oscar Aita,Tienda de mobiliario de oficina,,"Olavarría Buenos Aires AR, Bolívar 2663",+54 2284 54-0581,KCI,Provincia de Buenos Aires,-36.8954781,-60.3267125,4.6,49,https://lh3.googleusercontent.com/gps-cs-s/AC9h4no40p5hhNanvHlQ9oAGF6Y4nN5L17ihXhxjSXCDw7hXTIraHV-OWgW-p1Xvf0-ln2Bja-4UyAcxH0eGgZZgBokCQxPr3GMcPmpEoa_0Q9FwP6rwd-1Z4CewSFEct78gUvZPhBVL=w408-h306-k-no,32.0,5,2025-06-11T18:14:00.852Z,tienda
Mimoslenceria.ok,Tienda de lencería,,Vélez Sarsfield 3802,+54 2284 62-5313,Olavarría,Provincia de Buenos Aires,-36.9040897,-60.3181476,5.0,50,https://lh3.googleusercontent.com/gps-cs-s/AC9h4noNItKMggbvliX2mIqgqfaQfMmdnId_fevUh3F3fhw0n1NsyQivWvjpvMsInBxhm81BdaQVATRUlahFx_HSpBNRYCE1w-ymWCzXp2GL-t75AiS84ekA14hoZ-byvFoaO5gH8n2H=w408-h386-k-no,2.0,1,2025-06-11T18:14:00.852Z,tienda
Akunga Babies,Tienda de artículos para bebés,,Collinet 5061,+54 2284 30-3841,Olavarría,Provincia de Buenos Aires,-36.917499,-60.3145107,5.0,51,https://lh3.googleusercontent.com/p/AF1QipO4XthWyD8d1WvUa5yA0E5LwrAad2Q7LhWydASP=w427-h240-k-no,1.0,1,2025-06-11T18:14:00.852Z,tienda
Kiosco Sarmiento,Tienda de alimentación,,"Pro Casa, Av. Domingo Faustino Sarmiento 4254",+54 2284 22-4148,Olavarría,Provincia de Buenos Aires,-36.8957214,-60.3003397,,52,https://lh3.googleusercontent.com/gps-proxy/ALd4DhFlJp7gFf8v0XGQ8c0gu-eBCVm7Lf3x5JA-CnzAC0u70gf9pcdiVYRNTgAuiv3YwCFa3xkjsbrVOpvVlButKBh2aCbvmdR3Kv-wiuT2d00qOfKY20dOXFJ8Xx_sD1rUh0QBvDgGeewKvccyeRTZvTNO-twXGbLYfGvmjykfeVHkXoIQRcC29o15iSy9tWf077s1QA=w408-h306-k-no,2.0,0,2025-06-11T18:14:00.852Z,tienda
La Farolera Kids,Tienda de ropa para bebés,http://lafarolerakids.com.ar/,Av. Pellegrini 3244,+54 11 5997-0262,Olavarría,Provincia de Buenos Aires,-36.9029268,-60.3039136,5.0,53,https://lh3.googleusercontent.com/gps-cs-s/AC9h4nrPqULApW79-uwEyWiz3s3NCfPx783APxMHQ19G7ZfOBzW1sLxfCdEXBRYv-6S6ZtYdSUEmeFQvosWtwdN0vTTI9VBb6WyURCcSkSObtljIx33g6Igko-YwhxHfX0YCdvHCiGVo3g=w408-h724-k-no,4.0,1,2025-06-11T18:14:00.852Z,tienda
Albin Materiales,Tienda de materiales para la construcción,,Av. Pellegrini 1584,+54 2284 45-1122,Olavarría,Provincia de Buenos Aires,-36.9143043,-60.3175271,4.6,54,https://lh3.googleusercontent.com/p/AF1QipNf8dDCOLupuwBTowvjRw2O2v17vVYioGV79TMw=w408-h259-k-no,12.0,132,2025-06-11T18:14:00.852Z,tienda
Ceramicas DISA,Tienda de materiales para suelos,,Av. del Valle 5166,+54 2284 59-2288,Olavarría,Provincia de Buenos Aires,-36.9138828,-60.3080847,4.0,55,https://lh3.googleusercontent.com/p/AF1QipPXotFaIxEKpCNLauxVTvn8YfQ6IfVPy9HM5G9f=w408-h260-k-no,3.0,3,2025-06-11T18:14:00.852Z,tienda
LEPEN CALEFACTORES A LEÑA,Tienda de estufas de leña,http://www.lepencalefactores.com.ar/,Av. del Valle 3054,+54 2284 41-0051,Olavarría,Provincia de Buenos Aires,-36.8997092,-60.3255859,3.7,56,https://lh3.googleusercontent.com/gps-proxy/ALd4DhG6aT9WxSgOpQ0H5zGVbNukPxhE16zDm5u8DKaH1pd_WsNc8XrFMpBRyoSWt2kWZrEI8AqOqICdhDzWhlT1mgeVZvU-Rg4jjxzCjr4xWxdgxTrx16KQvr31h8qQT7kbtVnaAMKhdcIP9i-BJz3poH7rr9ONRal5yYkkyZ9STO2MoQitXePQ25gavFdejCTD3DKvxSM=w408-h306-k-no,92.0,371,2025-06-11T18:14:00.852Z,tienda
Nuevas Hogar Olavarría,Tienda de electrodomésticos,https://www.nuevashogar.com.ar/,Vicente López 2406,+54 2284 55-2230,Olavarría,Provincia de Buenos Aires,-36.8957343,-60.326208,4.4,57,https://lh3.googleusercontent.com/gps-cs-s/AC9h4no5PD4rwknP5CnPS1Hhhae5t7G9xbe6VwoXD6kLqLFMfFiDOAZsJL11k1MJZjx-TzHcfx8C7p6MYn6-DVPVG7cEuXIvRFO-0JQauRRXnmx9n35C1I7RPLEpB4Ni6czDuH5Nzyuj=w408-h544-k-no,33.0,58,2025-06-11T18:14:00.852Z,tienda
Nestor R Domina Repuestos,Tienda de repuestos de automóviles usados,,Av. del Valle 2907,+54 2284 42-3983,Olavarría,Provincia de Buenos Aires,-36.8985165,-60.3261756,4.5,58,https://lh3.googleusercontent.com/gps-cs-s/AC9h4npUD5f_3urh-PllZsrKkFUyvtZM4IgYyYY8lx0KF63qt_QBFv4XxLTu3L5Ci728gEKTvIX2RogKoC7gy3S9ChqQyGcw2Uv-cU2ILqU3uRR8qKVOVBwznmN-7LwLO2jhhFs7JUP8=w408-h408-k-no,5.0,52,2025-06-11T18:14:00.852Z,tienda
Ponete Linda Olavarría Tienda de ropa,Tienda de ropa,,Amparo Castro 1050,+54 2284 63-3198,Olavarría,Provincia de Buenos Aires,-36.910161,-60.3307783,5.0,59,https://lh3.googleusercontent.com/gps-cs-s/AC9h4no5Kga8nNf7sgvS9oiauB5EaKlG51PQ3RbFh-Sl5PtzR06XNhauy0r658RqqQiVHPFjSabElH9mSGcvx4j6H9PsqJzc6FFXJXstBp2ImARhCnKmydvnqrzkVWVYMVns8J7HVKFXMA=w408-h725-k-no,6.0,2,2025-06-11T18:14:00.852Z,tienda
Karicias,Tienda de ropa para bebés,,25 de Mayo 2988,+54 2284 41-3577,Olavarría,Provincia de Buenos Aires,-36.8954173,-60.3175093,,60,https://lh3.googleusercontent.com/gps-proxy/ALd4DhHFPTpKDMCy7lIhrfrgQFZ_u5GfBl4_hF0fpuwf-lF7jmQ4H9H01WxytNKkv0g87FxXZ9n5THDHfC7BZRyzbL5uTOMJwK99NPxgsL79KvqvNOqprv4Ucb6_OJ1oUKAVMpby38afgmc1ZsIcB-nV3tbVeR0j5wvU1YseMDu3rpyFaPNtgz-e1Oj9y8VOm4zYm8q6_w=w408-h306-k-no,4.0,0,2025-06-11T18:14:00.852Z,tienda
La Leñera,Establecimiento de venta de madera,,Av. Urquiza 7400,,Caseros,Provincia de Buenos Aires,-36.8973409,-60.3069217,4.0,24,https://streetviewpixels-pa.googleapis.com/v1/thumbnail?panoid=1QNqTBBWlyORUnN3ol-qfQ&cb_client=search.gws-prod.gps&w=408&h=240&yaw=306.55515&pitch=0&thumbfov=100,1.0,7,2025-06-11T18:14:01.115Z,venta
SUÁREZ PROPIEDADES,Agencia inmobiliaria,,Av. Urquiza 3574,+54 2284 56-4153,Olavarría,Provincia de Buenos Aires,-36.89695,-60.3057179,4.7,29,https://lh3.googleusercontent.com/p/AF1QipNPF-wiwRT4TUtM-b9av9i7srdPkZrnxWw5Quzs=w408-h544-k-no,22.0,3,2025-06-11T18:14:01.116Z,venta
Motovarría,Concesionario de motos,,Av. del Valle 3402,+54 2284 20-0890,Olavarría,Provincia de Buenos Aires,-36.9021211,-60.3224325,4.6,34,https://lh3.googleusercontent.com/p/AF1QipPyAI-EC8YcpuljyMNIfmZwMkoN0khQtNrXU4DQ=w408-h372-k-no,36.0,98,2025-06-11T18:14:01.116Z,venta
Arenas Neumáticos Olavarría SA,Tienda de neumáticos,,Av. del Valle 3932,+54 2284 44-3043,Olavarría,Provincia de Buenos Aires,-36.9055553,-60.3183204,4.6,35,https://lh3.googleusercontent.com/gps-cs-s/AC9h4npmteHFvuiyrwVLBtXvNnWtjgC91_PAw0-QECVwPFN3VBwSsJtRkItAmeb70fmLL8E2FfbbUie_q7gG3DFpc95xrJ23P2Gy9lVhzb28eDlpenlYD3b8j9bDsgML_VkPicRSeipK=w408-h306-k-no,48.0,202,2025-06-11T18:14:01.116Z,venta
YPF ACA,Gasolinera,http://www.ypf.com/,Avenida Aristóbulo Del Valle Y Pellegrini,+54 2284 45-1393,Olavarría,Provincia de Buenos Aires,-36.9095,-60.31262,4.3,36,https://lh3.googleusercontent.com/gps-cs-s/AC9h4nr0DImcxgE1xQj59zu0O7G1zIL5VIrMyhPgZcxrm-TYD-J3Iog_q295xxdiflmeWk23nuBMMmhlvTHUqsuxoTT3RsIyqLBrR8gJCE5ZEJX9CgOhqG7ChUwItQRPLxctL0e41-8=w408-h408-k-no,466.0,1694,2025-06-11T18:14:01.117Z,venta
Automotores Lujan,Concesionario de automóviles,,Av. del Valle 3302,+54 2284 41-5060,Olavarría,Provincia de Buenos Aires,-36.9013977,-60.3234437,4.0,39,https://lh3.googleusercontent.com/p/AF1QipPJXzKfLFYJycssG-6ry4E6oDqzr1i4galRRHPx=w408-h313-k-no,169.0,40,2025-06-11T18:14:01.117Z,venta
La Caracola,Juguetería,http://www.facebook.com/lacaracolaenolavarria,Rivadavia 2554,+54 2284 41-6974,Olavarría,Provincia de Buenos Aires,-36.8955172,-60.3242772,5.0,61,https://lh3.googleusercontent.com/gps-proxy/ALd4DhGNmDwIRB3HiBckg-0eTEQfI6-vCKGduIVkD8oxToz6Jd0WmZrlVGT3CTifpbk3tzLVw6axCWoxTxVjyDhhvMMyMSGk5neIdf6nwo5NhF6FKCrZuMfJI2wH3k8wf1WLcTleVrXryl3ewYWaOWXCboigAYxCuguYhKXp-x0Ru6CQPZEf1kcwk1A1s6gV9bUhiYmY_5Y=w408-h306-k-no,6.0,1,2025-06-11T18:14:01.787Z,tienda
La Onda - Ferretería y Electricidad,Tienda de herramientas,,Av. Pueyrredón 3544,,Olavarría,Provincia de Buenos Aires,-36.9070031,-60.3263896,4.9,62,https://lh3.googleusercontent.com/gps-proxy/ALd4DhGJeZkdweRRQcmfqjQZ-c0r3-8zsFwMdlPBFXPfvBWRD47NkQGkPtQtzjivuy94xnZzL3QYruor6Gkskb9yKtOOdAysgrEqhQB7_LyzNSayQkUNbaf4K0rF-_6tOZNCTorU3WVqwmHKqOYbXaMIRTAFuCjrGxeW4EfbBh-ASa5vbEsVHz42lP6-yY5Kq5GMbmgl3zA=w408-h306-k-no,16.0,29,2025-06-11T18:14:01.787Z,tienda
EL ARTE DEL SILLON,Tienda de muebles,,Av. del Valle 3260,+54 2284 69-9299,Olavarría,Provincia de Buenos Aires,-36.9010244,-60.3239013,4.9,63,https://lh3.googleusercontent.com/p/AF1QipMbHlsF1ouYm6GlUnckKwd0uCN6qaTJ0pswkYQs=w408-h408-k-no,2.0,7,2025-06-11T18:14:01.787Z,tienda
Krohns Repuestos Originales VW,Tienda de repuestos de automóviles usados,,Vélez Sarsfield 4327,+54 2284 42-9914,Olavarría,Provincia de Buenos Aires,-36.9073765,-60.31358,4.6,64,https://lh3.googleusercontent.com/p/AF1QipNgzlhPR1VPus1MRc3D6Vw-wWZekZnTGo_YnZoi=w426-h240-k-no,14.0,187,2025-06-11T18:14:01.787Z,tienda
Casa Silvia (Muebles y Colchones),Tienda de muebles,,Rivadavia 2539,+54 2284 44-3500,Olavarría,Provincia de Buenos Aires,-36.895459,-60.3246166,4.4,65,https://lh3.googleusercontent.com/gps-cs-s/AC9h4nrd8WaTYY5UlUIu1TlYK7HMgG6Mr0MtMCFoPrb__vjH45eXi6FnwOsOHjGD8Hl7fNQ9n69RAhVCWXWw4Tt9MFBhyMNyD32B88Kua2wzmiN1YCMYjcPwZzORQrZDM_Hfh3fKLKFCog=w426-h240-k-no,47.0,297,2025-06-11T18:14:01.788Z,tienda
Carpintería Pellegrini,Tienda de muebles,,Av. Pellegrini 2026,+54 2284 71-7720,Olavarría,Provincia de Buenos Aires,-36.9111533,-60.3140589,4.7,66,https://lh3.googleusercontent.com/gps-cs-s/AC9h4np2NI1g4r6YfBA03QHzHLzmBjTtNreBQK7wA0_E1ekxo49c13WwotgWZpiA8PBSxNynJJXt9Kt4Llaqfx9GDcziWOFKuXwE_eEPgmPfT0VwcUVBlKBSqMF2QtQO_CzPWmEB4cEf5w=w408-h544-k-no,7.0,7,2025-06-11T18:14:01.788Z,tienda
Fátima Ropa Informal,Tienda de ropa,,Av. Pueyrredón 4292,+54 2284 42-0780,Olavarría,Provincia de Buenos Aires,-36.9119982,-60.3202797,4.0,67,https://lh3.googleusercontent.com/gps-proxy/ALd4DhF3swB0siVfOyBOK7hCp5jK4F9cfxY9GrrGeBvQoxWW2tAzVsOLLKwDKp5XUaV6072dIxpC75M5xHipEyeTa-GBxhy3NsyhdPzB2vnBrjXGU6WPHtZPCN2sWySjPqbE2IrPBzDq9R-qMn4bkRKZP40YZBPOw8fZQ9CFjbcyhOBu9qqwUJPVg-8qm9ogJRHs-F-kOEM=w408-h306-k-no,5.0,4,2025-06-11T18:14:01.788Z,tienda
Terra Nova Olavarría,Tienda de alimentos para animales,https://www.instagram.com/terranova.olavarria/,Rivadavia 2518,+54 2284 72-4245,Olavarría,Provincia de Buenos Aires,-36.8956675,-60.3244975,5.0,68,https://lh3.googleusercontent.com/gps-cs-s/AC9h4no-oAo_LBCr8MU0_OcDPTvaHqtXzrTvinITgVJQDlMewtTsUXCHzKX-kLmptpHK6OEk1uCWQmczP2c506ZiYaOWiLL19EzT3HTGzBOUnXLefIIzWT5ptzk6Vk8bP-e3G0xQUwFL=w408-h544-k-no,8.0,2,2025-06-11T18:14:01.788Z,tienda
"Lubricentro ""AVENIDA""",Servicio de cambio de aceite,https://www.guia-dorada.com.ar/guia/aviso-lubricentro-avenida-en-olavarria-buenos-aires-25475.html,Av. Pringles 1284,+54 2284 60-6054,Olavarría,Provincia de Buenos Aires,-36.9081474,-60.3300342,4.8,69,https://lh3.googleusercontent.com/p/AF1QipP1EueorpaOlQkDRXNMxa4GuvhtqugpzdgcbyI8=w408-h306-k-no,153.0,41,2025-06-11T18:14:01.788Z,tienda
DULCE O TRUCO Cotillón y repostería,Tienda de artículos de fiesta,,Av. Pellegrini 3208,,Olavarría,Provincia de Buenos Aires,-36.9031002,-60.3041006,4.5,70,https://lh3.googleusercontent.com/p/AF1QipPtr1DaYOFtVKCrS4QRgCljIHEZhPjGg66MkfP4=w408-h306-k-no,10.0,6,2025-06-11T18:14:01.788Z,tienda
La Coccinella,Tienda de artículos para bebés,,Rivadavia 2460,+54 2284 41-8017,Olavarría,Provincia de Buenos Aires,-36.8960336,-60.3253934,,71,https://lh3.googleusercontent.com/gps-proxy/ALd4DhFUmdefSZ8q29s1wO8LtrL14pJj1uG80qbvFR1PtmjQrsNxyAiR3X4oSUxTRM9jU0fJJd51DtAPkSw-wIuxFe7myJhzHSEf9iyzqfC15tk3TaY5B2-03fczkvWjC0_tLw_zMFb90sEeBwcvAVi79cBkaH7l5FMMVDJJmRgTRAtxRH3ygNvBY5VaE09n16Iyw4YNcys=w408-h306-k-no,3.0,0,2025-06-11T18:14:01.788Z,tienda
El taca,Tienda de repuestos de automóviles usados,,San Martín 3302,+54 2284 63-2114,Olavarría,Provincia de Buenos Aires,-36.8973269,-60.318207,4.8,72,https://lh3.googleusercontent.com/gps-cs-s/AC9h4nq4cSEZDOsxsLaeTXWi8XY93Z1dXRiejkGEhmksutjTwQgwthG4aI3kV5WvFLqiZYfaAca1GjyAouGAYrfycQsRqT9d7E3dxjhMXrIcVNamhWVQCLVLO38mT5T8SqtK8osHB-kK-A=w408-h544-k-no,2.0,4,2025-06-11T18:14:01.788Z,tienda
Mister Moto,Tienda de motocicletas,,Av. Pringles 2365,+54 2284 42-6919,Olavarría,Provincia de Buenos Aires,-36.9006098,-60.3211791,4.6,73,https://lh3.googleusercontent.com/p/AF1QipP-cbjjtq957hOs8RNP2FXlTDQuys27y1ZXzyrd=w408-h273-k-no,10.0,27,2025-06-11T18:14:01.788Z,tienda
Pequeños Sueños,Tienda de ropa infantil,,Vélez Sarsfield 2793,+54 2284 41-7500,Olavarría,Provincia de Buenos Aires,-36.8968435,-60.3265452,4.5,74,https://lh3.googleusercontent.com/gps-proxy/ALd4DhF2KW70DNt2mcoyvOqRZ_UHFW8Kn9luLQe1_oAYv6fDxmgKhqQjT0xO8jn16T0-UAki6doZMSgDAfnwHVq0DV7H2VpDukpTHuI2ydZLSwP9a8ekwjeFlH3g-5EsYi6OXyMuv3qwmSH7Kuh9GxJot0M3LUe-gTx9kR3tOihBrMq_hd_epgXbC7lrcr5b9EAl0rXKiQ=w408-h306-k-no,6.0,2,2025-06-11T18:14:01.788Z,tienda
Musical Olavarría,Tienda de instrumentos musicales,,Belgrano 3225,+54 2284 42-1923,Olavarría,Provincia de Buenos Aires,-36.8959282,-60.3179464,4.6,75,https://lh3.googleusercontent.com/gps-proxy/ALd4DhFNwwUpcnw_TtJs8iFTL4-pKzSGK-aTqZxG8RgI-T2TJ8hT2hKplOlpudBSZWUKKhmKrGGdQXt9MQiVp2kagD03kHUmvFxdjW1p7pGeYwb0ryQ3NFK6z8lcCq-sm0gxQfUn_JNJQHRMg49IaTkYHMU8j7idHslVT3l_Mkf5cXnB0mOV9MeoE_hnjVfTRw5NqnYd0Qs=w408-h306-k-no,25.0,256,2025-06-11T18:14:01.788Z,tienda
Pototito Bebes,Tienda de ropa para bebés,,Moreno 2658,,Olavarría,Provincia de Buenos Aires,-36.895598,-60.3225834,4.9,76,https://streetviewpixels-pa.googleapis.com/v1/thumbnail?panoid=LIBzCKn_V7AFuUYaSkCLkA&cb_client=search.gws-prod.gps&w=408&h=240&yaw=135.55782&pitch=0&thumbfov=100,1.0,7,2025-06-11T18:14:01.788Z,tienda
El Coco Vazzano,Tienda de muebles de segunda mano,,"Villa Floresta, Amparo Castro 1580",+54 2284 41-4746,Olavarría,Provincia de Buenos Aires,-36.9069864,-60.3267632,4.0,77,https://lh3.googleusercontent.com/gps-proxy/ALd4DhEiZObc3dEbibqd2kWzm89Yauqqa5VtsG20Yz1DPe2f-jnrXlVxX1XaIbIlktE8_ITTjJDusINVPh06gwFkcgRjdoXMePFtLrsxOZMCCS-_mO7T47pVSPB7dMQED-ya8d8KBK25hQ_tMkNXE7RoWrDF4PDFDkGhacNhXkuoK-R0lhFhpg0FT9d-dv4iDIH_kVkNd-w=w408-h306-k-no,2.0,3,2025-06-11T18:14:01.788Z,tienda
Cotillón Cocomiel,Tienda de disfraces,https://www.facebook.com/cotilloncocomiell,Hornos 3204,+54 2284 41-6110,Olavarría,Provincia de Buenos Aires,-36.8986264,-60.3215721,4.1,78,https://lh3.googleusercontent.com/gps-cs-s/AC9h4npuz191Rl6YjeipqslnPBN6yNgnGuYdXv9QKDIYFquDxNET7uPfR-lfegbIsjJtAzkd3T1ZmAs4jOxTgS6oWCWniYKQsPo1izc0srzxzNFdozJzEOF5owoe6Pa3Ed-vN3NTcG0vjg=w408-h544-k-no,20.0,90,2025-06-11T18:14:01.789Z,tienda
Tapicería EL TURCO,Tienda de muebles,,Av. Pueyrredón 3324,,Olavarría,Provincia de Buenos Aires,-36.9054441,-60.3282871,5.0,79,https://streetviewpixels-pa.googleapis.com/v1/thumbnail?panoid=dQkhWPn1yr2FyaK5dwkXzg&cb_client=search.gws-prod.gps&w=408&h=240&yaw=230.9067&pitch=0&thumbfov=100,1.0,7,2025-06-11T18:14:01.789Z,tienda
La Casa del Soñador,Colchonería,http://xn--blancodelsoador-8qb.com.ar/,España 2760,+54 2284 24-6016,Olavarría,Provincia de Buenos Aires,-36.8961553,-60.3201605,4.6,80,https://lh3.googleusercontent.com/gps-proxy/ALd4DhEUZzszR1nfm0d5T5bM8N6xii_VsK_0yAzt4ZKtiN1EEaq6QcXJvCPAiq7sT57YEWbWXRW1mov1-uIzXRNnotJOssc5frEZN0TNiffRYwM2YW30AsdJ4MlLn35Ec9kgy_nD652iXmaNZbUKvZU-GBKK9curixIT1HAJoQ_sq_YoayfsdFoUR1o9vU0SfvDqAb511OI=w408-h306-k-no,16.0,39,2025-06-11T18:14:01.789Z,tienda
Plastigas Olavarria,Tienda de materiales para la construcción,http://www.plastigas.com.ar/,Av. Urquiza 1720,+54 2284 35-4041,Olavarría,Provincia de Buenos Aires,-36.9093853,-60.3214289,4.3,45,https://lh3.googleusercontent.com/p/AF1QipP0G1GT0seOZ00O8gThAXgtfvJAlVr9hHK8kps6=w426-h240-k-no,9.0,233,2025-06-11T18:14:01.809Z,venta
Leña y Carbon Frascarelli,Comercio,,Av. Pellegrini 2735,+54 2284 45-1334,Olavarría,Provincia de Buenos Aires,-36.9064131,-60.3079191,,46,https://streetviewpixels-pa.googleapis.com/v1/thumbnail?panoid=c4uHbiZG-z0dkjg72VsCLw&cb_client=search.gws-prod.gps&w=408&h=240&yaw=45.611237&pitch=0&thumbfov=100,1.0,0,2025-06-11T18:14:01.809Z,venta
06 - Alvarez Neumáticos - Olavarría,Tienda de neumáticos,http://www.alvarezneumaticos.com/,Av. Pringles 2776,+54 2284 44-5006,Olavarría,Provincia de Buenos Aires,-36.8981093,-60.3173142,4.7,47,https://lh3.googleusercontent.com/p/AF1QipPpU8l5ADE6jTnE7HN7h_yLyPg8Vlg4s39bVZp7=w408-h306-k-no,39.0,292,2025-06-11T18:14:01.809Z,venta
Superusados,Tienda de vehículos de segunda mano y de ocasión,,Av. del Valle 4580,+54 2284 30-4433,Olavarría,Provincia de Buenos Aires,-36.9099622,-60.3128638,4.7,48,https://lh3.googleusercontent.com/gps-cs-s/AC9h4npoA2ZuvX_YXfY_szZRA1rlp14_D8CpdyUFlACrgisyg-LSNC6oqRYVN6vuLwdJ2OABFn7Q-4Y7oF3g0BdHTJE5qTag7HDuHGzHzzTYcrhilUH2V279R-w2vyhoOqrbd8iHIui6cA=w408-h306-k-no,7.0,6,2025-06-11T18:14:01.809Z,venta
Jimena Vazquez,Consultor inmobiliario,,Moreno 2073,+54 2284 62-5895,Olavarría,Provincia de Buenos Aires,-36.8992925,-60.3278113,4.2,49,https://lh3.googleusercontent.com/gps-cs-s/AC9h4npnpOfayDWsCYbg7f2CGlgsbq2WumiDMJx-1B8R3k-b1qMYIh1HqlrwFd5BKOyS4YHmefG67eWPDuHwWI2FdWdNLCvObXIVVnle-xnkTusoSXJ_YpNNaqs1zIa3RAarEXwFeiaV=w408-h647-k-no,3.0,5,2025-06-11T18:14:01.809Z,venta
Millennium Propiedades,Agencia inmobiliaria,https://www.millenniumpropiedades.com/,9 de Julio 2133,+54 2284 66-4941,Olavarría,Provincia de Buenos Aires,-36.9015387,-60.32393,4.3,50,https://lh3.googleusercontent.com/gps-cs-s/AC9h4nr31z8fzzKX92RW-WmltFLz1aNoUTgTtMlgshLITHPD7XArVtnAr_ROwEF22h9hsJpCp8GFDkuiZnIAqYahP8JZiFDwxAtg3upnh55CJ4ZI0rl2t20yHTgJZxrJmFvGN5IbdkmHqw=w408-h383-k-no,11.0,22,2025-06-11T18:14:01.809Z,venta
El Arriero Asador Criollo,Parrilla,https://m.facebook.com/arrieroasador.criollo.5,Av. del Valle 3405,+54 2284 41-3030,Olavarría,Provincia de Buenos Aires,-36.9020272,-60.3218611,4.6,51,https://lh3.googleusercontent.com/p/AF1QipNoTZmEyVJZT5N7rHyfUeQ8PsSb7K-wru_eahs=w408-h544-k-no,30.0,221,2025-06-11T18:14:01.809Z,venta
Hankook Neumáticos,Tienda de neumáticos,http://www.hankook.com.ar/,Av. Pueyrredón 7400,+54 2284 41-8111,Olavarría,Provincia de Buenos Aires,-36.9059061,-60.3272052,4.7,52,https://lh3.googleusercontent.com/gps-proxy/ALd4DhFM8k49_dfFdwVWE2gnQqzyeRW5H1KqphTzvM2bcP8swyA9eRCwsMReCtBi1rxJQX3EzADAU_1qf09x146eupcom5egc4Da4GcFaHB87HyvRZubKJr5aZ-kR7MeE_P6S4EN8utRbYkeyiDBQBNHuH6snShk8LA7j0CKKcE153kUjZ49220lPutJndMfB7kV7XcFkz8=w408-h306-k-no,3.0,55,2025-06-11T18:14:01.809Z,venta
Interamerica Motors,Concesionario de automóviles,http://interamericamotors.com/,Av. del Valle 4060,+54 2284 44-4302,Olavarría,Provincia de Buenos Aires,-36.906596,-60.3170416,4.7,53,https://lh3.googleusercontent.com/gps-proxy/ALd4DhHwkTmUyrPzhW_wXhnEqp2RpAUajfwuuc6pDPK0kwHW5Efi7VmBRYlKpIQyveWNIzaEik2pEdG5QRAB9iZ3oyIa9zcXnsVepHIsz9Y9C51yMwC7IeeBGGrqBtIh6Mukhb9_V7vjS5OvkkKDOJ-WR7tNqxapWqviIZasXjwASxEzhNuJaf91RDF99fQQuygFxifuUUM=w408-h306-k-no,26.0,37,2025-06-11T18:14:01.810Z,venta
Gomería Grupo San Juan Olavarria,Tienda de neumáticos,http://www.gruposanjuan.com.ar/,Av. del Valle 3728,+54 2284 44-0433,Olavarría,Provincia de Buenos Aires,-36.9042196,-60.3199662,4.7,54,https://lh3.googleusercontent.com/gps-cs-s/AC9h4nq_yt0WTEPGeOWva0SgQjascnqOuE_5-HnPvuHpzixjIedNArZFcQpWGvH1ptEJAA69Qxg7T6QyixyBFuDT0d7Y8_2dWtJIQgLi7zVzB8r6w8Xo13B757AALoNF_h4WCZ_3qNxcQg=w408-h306-k-no,13.0,79,2025-06-11T18:14:01.810Z,venta
Iriart Inmobiliaría,Agencia inmobiliaria,http://inmobiliariairiart.blogspot.com/,Vélez Sarsfield 3310,+54 2284 41-9181,JZB,Provincia de Buenos Aires,-36.9004672,-60.3221873,4.3,56,https://lh3.googleusercontent.com/gps-proxy/ALd4DhFncs-DAByNs2vlhsguEDdgok0HPJXRKArHlni5w43lGs4KlBGj8MtMemsy7jPvoCtkb2qDBfezleKKsQAIFa-DZjBgPipXoOFSLq4Vjj8Zi7P8Er9rgl-x7g1uKvFXfPYJ5KePfMKQVhMbPlJr97peGGjPgwNlMXWoAk1B65e02I8lA0A3dBNBtbiSLxXgyprxU0I=w408-h306-k-no,4.0,6,2025-06-11T18:14:01.810Z,venta
Inmobiliaria Juan A. Ilarraz Propiedades,Agentes inmobiliarios,http://ilarrazpropiedades.blogspot.com.ar/,Bolívar 3295,+54 2284 42-1570,Olavarría,Provincia de Buenos Aires,-36.8996356,-60.3215886,3.7,57,https://lh3.googleusercontent.com/p/AF1QipP8gEcWRzH35V4asU0O7GdeB4DovVW7yjqmGwre=w427-h240-k-no,5.0,20,2025-06-11T18:14:01.810Z,venta
Somoza Automotores,Tienda de vehículos de segunda mano y de ocasión,https://m.facebook.com/home.php?refsrc=https://m.facebook.com/checkpoint/&_rdr#~!/somozautomotores/?ref=bookmarks,Canaveri 4556,+54 2284 36-3303,Olavarría,Provincia de Buenos Aires,-36.9164218,-60.321,5.0,58,https://lh3.googleusercontent.com/gps-cs-s/AC9h4npGQyZ76B19oz4hFzgZsM_r2MsZEwurSGG0_p_7ufr9hb1z12NchrtMl7drDbADzMoKPvBKdOoCg2z24mqhFfJlc63y2SGrBVE17hRpqKCFCrfoCFvesiHpT_QGGV_YCHEVUAbZug=w408-h306-k-no,76.0,4,2025-06-11T18:14:01.810Z,venta
Anivlis Lanas y Tejidos,Mercería,,Dorrego 4440,+54 2284 46-6561,Olavarría,Provincia de Buenos Aires,-36.9037913,-60.3072125,,60,https://streetviewpixels-pa.googleapis.com/v1/thumbnail?panoid=CHXOfO6QS2clEuIYYKiaZw&cb_client=search.gws-prod.gps&w=408&h=240&yaw=228.75241&pitch=0&thumbfov=100,1.0,0,2025-06-11T18:14:01.810Z,venta
Alloggia Propiedades,Agencia inmobiliaria,,"Micro Centro, 25 de Mayo 2420",+54 445420,Olavarría,Provincia de Buenos Aires,-36.8990078,-60.3220373,4.0,61,https://lh3.googleusercontent.com/gps-cs-s/AC9h4npMqQw2nJJgj69yi3cWqjt12c8JLUlJYl4WTHxKkNCLyGT5hoE0Frmnvsojbm10zNh5Gtl58vxSCvTtRsbJMPmtuO5WTNaaev7n3Ejn028tYeJMVBqcO3aWs_ZfUJjgKXlaa8MEbg=w408-h321-k-no,3.0,50,2025-06-11T18:14:02.620Z,venta
VARESE INMOBILIARIA,Oficinas de empresa,,Manuel Leal 3079,+54 2284 42-7862,Olavarría,Provincia de Buenos Aires,-36.9027809,-60.3068161,4.3,62,https://lh3.googleusercontent.com/gps-cs-s/AC9h4nr0OyeHfuzpHUd5RiiuU_v3tic8jmKbg0jELrBXdAB1RgVWYRqtF8YFcjzKe8ODTBgngH4H-YiER5p3fGanjwFsOoT_JI2mHmVyh-aUdJqKA-_ty1S0DDr1AfIPYolYqcbYq-Jn=w426-h240-k-no,3.0,3,2025-06-11T18:14:02.620Z,venta
Natalia López Osornio - Propiedades,Agencia inmobiliaria,https://www.natalialopezosornio.com.ar/,Bolívar 3228,+54 9 2284 71-0211,Olavarría,Provincia de Buenos Aires,-36.8994244,-60.3222665,5.0,63,https://streetviewpixels-pa.googleapis.com/v1/thumbnail?panoid=ag3x1FRLK7hm9S5gddMZ5g&cb_client=search.gws-prod.gps&w=408&h=240&yaw=227.22269&pitch=0&thumbfov=100,4.0,1,2025-06-11T18:14:02.620Z,venta
Neumático Lopez,Tienda de neumáticos,,Av. del Valle 4380,+54 2284 67-4755,Olavarría,Provincia de Buenos Aires,-36.9086086,-60.3144745,4.3,64,https://lh3.googleusercontent.com/gps-proxy/ALd4DhEv5cu4FBmhtq0CPu-Xwd3hdWjEp7o9bOXs4liTBPT6t_OTWhTXQd5vTkgae1c1GWb1sbrKnRV2DAfVzc0VdaRJumzjXwIcgsSDEPwzL8JPHjLlKX5dVED1OIfouDwS3aJ1wFxh6ic_dWZxJKznVy3y26dgpNyLuWrmbD86Wt2uWtnx5jQei1xM1Bm6YvwixoP1Gg=w408-h306-k-no,3.0,13,2025-06-11T18:14:02.620Z,venta
Susana Iturralde Propiedades,Consultor inmobiliario,,Gral. Paz 2964,+54 2284 30-5250,Olavarría,Provincia de Buenos Aires,-36.8957169,-60.3219673,5.0,65,https://lh3.googleusercontent.com/p/AF1QipM3P9VWg6LKh9yXrWEVdOymECIVChiTKG86sokQ=w408-h884-k-no,4.0,1,2025-06-11T18:14:02.621Z,venta
Natalia Torrecilla,Tienda de lencería,https://instagram.com/torrecillanatalia.lingerie?igshid=YmMyMTA2M2Y=,Cortés 4610,+54 2284 55-3091,Olavarría,Provincia de Buenos Aires,-36.9154066,-60.3188753,,81,https://lh3.googleusercontent.com/p/AF1QipNE5YF658TJvJydNsgxquwsMwLKP8XZ7fXLNDDr=w408-h885-k-no,2.0,0,2025-06-11T18:14:02.701Z,tienda
Vavrín Cuchillería,Servicio de afilado,,Av. del Valle 2975,,Olavarría,Provincia de Buenos Aires,-36.8987659,-60.3258879,5.0,82,https://streetviewpixels-pa.googleapis.com/v1/thumbnail?panoid=uIvP2pC8q5DQWDAZ7PgHTA&cb_client=search.gws-prod.gps&w=408&h=240&yaw=49.785675&pitch=0&thumbfov=100,1.0,4,2025-06-11T18:14:02.701Z,tienda
Cabina de Fotos Para Eventos,Tienda de fotografía,,Alvaro Barros 3801,+54 2284 30-3170,Olavarría,Provincia de Buenos Aires,-36.8971397,-60.3098768,,83,https://lh3.googleusercontent.com/p/AF1QipO-iYD_fsRqD6jZDE1VVpkV7rFsOH3ov87TA9s4=w408-h725-k-no,2.0,0,2025-06-11T18:14:02.701Z,tienda
Frauen,Tienda de lencería,,"DAD, Lamadrid 2450",+54 2284 41-6916,Olavarría,Provincia de Buenos Aires,-36.8975619,-60.3236116,4.6,84,https://lh3.googleusercontent.com/gps-proxy/ALd4DhG5yXX7ESRUh3Uo53rK_sBfO8cG0KrztbQcbTN-zvxO52Ux0I-Regv24NT4zwhq2oPgl_RYTTOw9dcC5_Nx2dnzHKS640eopuywoHOKsR1-PldjdgwRz1JrxyyW9qzVMFg7_GNsnxb70NLMI6tIO43-jkltFTvZ-gtfnIyY0M86CvqGl5_WclJCxYfF_48_Os2q3DA=w408-h306-k-no,6.0,8,2025-06-11T18:14:02.701Z,tienda
C&F Anexos,Tienda de alfombras,,Av. Urquiza 2201,+54 2284 41-3471,Olavarría,Provincia de Buenos Aires,-36.9056621,-60.3173813,4.6,85,https://lh3.googleusercontent.com/gps-proxy/ALd4DhES0V4lc_Bi91volYBxm636LHDfJ4bixCpWwhP0JjkregnjfBGuo9MbvmMcVI3O_1NyhutaqI4KRDRcYE094rQ8cnqG_zur5TuyKSQyKHZOAQUofP7mBNrmL-OoUxs377Ld_Fm5KUxEKktBLNDgqyNjCEzMN5xKJ722g8VxZXznq013Zi3BjrmZyk3frmtT9pKkDbs=w408-h306-k-no,6.0,7,2025-06-11T18:14:02.701Z,tienda
Electró Nico,Tienda de electricidad,,Av. Pellegrini 2027,,Olavarría,Provincia de Buenos Aires,-36.911139,-60.3140411,5.0,86,https://lh3.googleusercontent.com/p/AF1QipNCfWkG9b-rcLbCPqBkaRkZZu23SyzYafOZesTa=w426-h240-k-no,5.0,5,2025-06-11T18:14:02.701Z,tienda
Mercería La Reina,Mercería,,Av. Pueyrredón 4198,+54 9 2284 54-5493,Olavarría,Provincia de Buenos Aires,-36.9113905,-60.3210331,4.0,87,https://lh3.googleusercontent.com/gps-cs-s/AC9h4noRwRbW1fAZvDQw_LE4vgcTSJeDwp6KVIUWD4-746JreVp2X1EhiWpgHNjnO_473RcVwYke5w-6TvBoQFXA20RIArK1qStSQm__WnqLXkj_LV-OWAo1I3FHWUyKXnBuDrCMKUx6=w408-h544-k-no,6.0,3,2025-06-11T18:14:02.701Z,tienda
Madero Muebles,Tienda de muebles,,,,Olavarría,Provincia de Buenos Aires,-36.9057963,-60.3168547,5.0,88,https://streetviewpixels-pa.googleapis.com/v1/thumbnail?panoid=ufI9-u0OcFQYrA6rJ73yLQ&cb_client=search.gws-prod.gps&w=408&h=240&yaw=114.181946&pitch=0&thumbfov=100,1.0,3,2025-06-11T18:14:02.701Z,tienda
Neumáticos y Alineaciones Alberto,Tienda de neumáticos,,"FYK, Tierra del Fuego 3409",+54 2284 43-0102,Olavarría,Provincia de Buenos Aires,-36.9034078,-60.2999489,4.7,89,https://lh3.googleusercontent.com/gps-cs-s/AC9h4nqyatv2wI-f5UQGa9P00af7-FgNzps7LykKgC8SiLBUm0JfT_XwJSf7Jd3-2LfrDaM8VGejOh0CNbAUo5oqosqSs03ryEC4jO5N941GBcU_Wk_xbCuuv-0kEkLCbIWQ_0sv5swD=w408-h544-k-no,4.0,39,2025-06-11T18:14:02.701Z,tienda
Soria COLCHONES SOMMIERS,Colchonería,,9 de Julio 2922,+54 2281 65-0294,Olavarría,Provincia de Buenos Aires,-36.8964287,-60.3171534,5.0,90,https://streetviewpixels-pa.googleapis.com/v1/thumbnail?panoid=0WowCOfIKdQVM7HfB1wMGA&cb_client=search.gws-prod.gps&w=408&h=240&yaw=134.00266&pitch=0&thumbfov=100,1.0,1,2025-06-11T18:14:02.701Z,tienda
Muebles Feigelson - Clásico - Moderno -,Tienda de muebles,,Bolívar 3276,+54 2284 42-7273,Olavarría,Provincia de Buenos Aires,-36.8997225,-60.3219015,4.5,92,https://lh3.googleusercontent.com/gps-cs-s/AC9h4npDaZ46ZCnUJUByyCFV5ytNPSZlpjvXJ-tPZRvnvcJVdaqahAuIYU-N7D15S5JvAzypDc6YO6-JbD9fiaPjfH4rmDdm0iX7_vpVU6UZD5MHObbqDlhmil3SAy5iIG5M3TruuOQ=w408-h816-k-no,5.0,73,2025-06-11T18:14:02.701Z,tienda
Tomás Natalio,Tienda de materiales para suelos,http://www.decorant.com.ar/,Gral. Paz 2953,+54 2284 41-1722,Olavarría,Provincia de Buenos Aires,-36.8954327,-60.3218514,4.3,93,https://lh3.googleusercontent.com/gps-proxy/ALd4DhEAemlthzBJWSTVWrRlOPcoqvDN5Ockj3xetO7stUYSUNFR-F7Wo2sM11Bc07nSSyGuHOsFrcz8VqGOB63soO9M8FcczqIqiBN7M_pr8yxNhegMQZkfbRyKhapTBYCTrc8hf2okwjRhe2Jr4eEm6T7BwHE2W7WMf4AkKCojeS4PciMzdWwLbqHRHNgvxCbHjYqGi7w=w408-h306-k-no,8.0,32,2025-06-11T18:14:02.701Z,tienda
GOLDENBIKE Olavarría,Tienda de bicicletas,https://www.goldenbike.com.ar/,Necochea 3300,+54 2284 52-1334,Olavarría,Provincia de Buenos Aires,-36.8952234,-60.3159157,4.5,94,https://lh3.googleusercontent.com/p/AF1QipN8iWO7XQjK2XCZ0xJlUrNOiGDc20lDHK2eLFkB=w408-h544-k-no,7.0,8,2025-06-11T18:14:02.701Z,tienda
Baby Shop Cotton,Tienda de ropa para bebés,https://www.facebook.com/Baby-Shop-Cotton-391481641704031/,Av. Pringles 2492,+54 2284 41-3017,Olavarría,Provincia de Buenos Aires,-36.8998974,-60.3198628,,95,https://lh3.googleusercontent.com/p/AF1QipNzleUZ5VQvVg_VaApP_89G_-02uTKtUVZhG9pD=w408-h244-k-no,19.0,0,2025-06-11T18:14:02.701Z,tienda
Veterinaria Patita's,Veterinario,,9 de Julio 1603,+54 2284 41-8300,Olavarría,Provincia de Buenos Aires,-36.9049631,-60.3283989,4.7,96,https://lh3.googleusercontent.com/gps-cs-s/AC9h4npYesbiR3be_aAmBZc__uivAq7SynxuJwvkYybR9Y_TdttrbEVqomlRHNn90p5ZsY-Q8h60EHh_oavnrRQiGxCMpzVmvBbir6JsUOTTAR79jPfxp8bSkHf6CydDubGD40PCAVs=w408-h306-k-no,21.0,108,2025-06-11T18:14:02.701Z,tienda
MyG Cueros,Proveedor de artículos de cuero,https://m.facebook.com/myg.cueros,25 de Mayo 2147,+54 2284 41-5105,Olavarría,Provincia de Buenos Aires,-36.900818,-60.324705,4.7,97,https://lh3.googleusercontent.com/p/AF1QipOeUZGgoiCyTbEi_EJExnufO_q6dEyLh7V8pWnv=w408-h306-k-no,31.0,3,2025-06-11T18:14:02.701Z,tienda
Colchoneria Italia - SUAVESTAR,Colchonería,http://www.facebook.com/colchoneriaitalia,"7400, Av. Pringles 2621",+54 2284 58-0986,Olavarría,Provincia de Buenos Aires,-36.8989096,-60.319132,,98,https://lh3.googleusercontent.com/p/AF1QipNmXXYpGBYLFbYU0mcK_o2l1HuhTXyDCqi45Gr1=w408-h544-k-no,5.0,0,2025-06-11T18:14:02.701Z,tienda
Tavi,Tienda de ropa,,Hipólito Yrigoyen 1410,+54 2284 52-3693,Gran Buenos Aires,Provincia de Buenos Aires,-36.8791463,-60.3272047,4.6,1,https://lh3.googleusercontent.com/gps-proxy/ALd4DhH3D0vEUtoBs4oBOIxpJGJXaTfPnE1HoqQcQraTfFH_m0DX1GfuoQA8faEbGyCwZ8FH9LJZOLYl2-uPt22DDzLG9_2E96xJkNbUiOkGaEHi76502p-cndWtLxenyPrzqmWKUedZgpxAPBLM3nk_1hoN8VXDmhqTuwe_rcAON-Fl7i9-EoSWx3w67rHekxCEvPXzYsY=w408-h306-k-no,5.0,53,2025-06-11T18:14:04.468Z,comercio
Agronomía Olavarría,Comercio,,"Club Atlético Pueblo Nuevo, Cnel. Suárez 2344",+54 2284 41-4514,Olavarría,Provincia de Buenos Aires,-36.892114,-60.327944,4.7,3,https://lh3.googleusercontent.com/gps-proxy/ALd4DhEtoL6fgzkFrnMgq5Ed25SCFXarRllGsWsWHqDJ7iUv0CvfO5CAydVeku8stAk7X4oemc3jzCHfaO0oGjR6n3R9_Yu_kXnW3GWPcUTvWtPfH01C3Ki6T5zbqy01en71POqc6ifXqJC3TAt2GaAINQNRbBPUHpSOHgb7tBI1jvIncGQxtOvlkmP0GbIZ_2rQO9QZaFI=w408-h306-k-no,10.0,142,2025-06-11T18:14:04.468Z,comercio
Costumbres Argentinas,Carnicería,,"Club Atlético Pueblo Nuevo, San Lorenzo 2932",+54 9 2284 53-0665,Olavarría,Provincia de Buenos Aires,-36.8862512,-60.329414,4.9,4,https://lh3.googleusercontent.com/gps-proxy/ALd4DhH0-zK2v9dYWsSKNzqi4Lf2Gn810PNGgyXLR0iUOjrSZ16Jy2snwCUY8GiX0WibBJNlV3dZn34yZ5_5XEk_O_dSphQu5gYPZfDEfTPKrgxUS1NZplYOWjzKDOhiOOBu8HTg8CcHt9FSmPUJt2zxBm3yVHITCFRaVE_pWTB0MYE2RAecapAldaKIi9T3KlA9tHAMTys=w408-h306-k-no,6.0,28,2025-06-11T18:14:04.468Z,comercio
Despensa Mercantil,Supermercado,,Piedras 2002,,Olavarría,Provincia de Buenos Aires,-36.8904126,-60.3397582,4.5,5,https://lh3.googleusercontent.com/gps-cs-s/AC9h4nqfQJkSHoJ_scm9JPC_mMdXH6ClLtPT7Yi9KbWX8Tkr_U9-8KK2hy6vmp_xDSnDe-RdjxPqQzmWj_4mrjaMmOBypliGfF7lYBivmEE6Ke54vK4O-L65gWmAs9QZp6CCUykQBZoF=w408-h725-k-no,2.0,14,2025-06-11T18:14:04.468Z,comercio
kalcio olavarria,Comercio,http://kalcioolavarria.com.ar/,Av. Colón 2643,+54 2284 56-5902,Olavarría,Provincia de Buenos Aires,-36.8885625,-60.3183659,5.0,6,https://streetviewpixels-pa.googleapis.com/v1/thumbnail?panoid=bpGGdxNPdiwGzHlbqVndOA&cb_client=search.gws-prod.gps&w=408&h=240&yaw=50.98725&pitch=0&thumbfov=100,1.0,1,2025-06-11T18:14:04.468Z,comercio
Polirrubro iara,Tienda general,,Av. Colón 1980,,Olavarría,Provincia de Buenos Aires,-36.8844049,-60.3243034,1.0,8,https://streetviewpixels-pa.googleapis.com/v1/thumbnail?panoid=R0D-PROGqgIUw1t3hHXssQ&cb_client=search.gws-prod.gps&w=408&h=240&yaw=221.70528&pitch=0&thumbfov=100,1.0,1,2025-06-11T18:14:04.468Z,comercio
Bazar Centenario,Tienda de artículos para el hogar,https://m.facebook.com/bazar.centenario,Vicente López 3099,+54 2284 42-3868,Olavarría,Provincia de Buenos Aires,-36.8911689,-60.3208577,4.7,9,https://lh3.googleusercontent.com/gps-cs-s/AC9h4npZykQiC83ZxlRvPwG1x3jo44fiwsQv9q7SU8RzdhEOt72pxFpzGFPTTHYhIynCMINDoFbJmAN5gOEt0dysaUNi_v3gIbX5TJubiLM1mbQdH2IMmz6bDNFr6dUctgUZt9f-m0B-2Q=w426-h240-k-no,25.0,178,2025-06-11T18:14:04.468Z,comercio
El Lolo,Tienda de alimentación,,Junín 4437,,Olavarría,Provincia de Buenos Aires,-36.8726537,-60.3210844,5.0,10,https://lh3.googleusercontent.com/gps-cs-s/AC9h4nprIbdpf-cI1yy2N_pRq6Q9e6F8VHNCkQuKtHrCCXcgMOP_ykMYv-8fYumz5c5ubsgFk8druqrUcJjkcnTSHz37hGPrX4cmciVh8ui9rtBKHEXCJW_uljnox70fGqKLC5C3JgTq=w408-h284-k-no,3.0,7,2025-06-11T18:14:04.468Z,comercio
Supermercado El Imparcial,Supermercado,,Belgrano,+54 2284 41-6513,Olavarría,Provincia de Buenos Aires,-36.8837304,-60.3328913,4.5,11,https://lh3.googleusercontent.com/gps-proxy/ALd4DhGKvuENreOzBByLQSMiSPKDcMD3d0JmD-I3gxHvxNsZKuME3iqr4Xcy0LLVo8Sx1jAFaVslSMM37GUbfDfKxuDjqG6UF-KiQPESaGT1s8KfzxPp749wWZhhRZR_qphwuKkE_uyvqmse1Y7iF1Dc31QALB9jkIcfuud8owWRTZ2jq-wGFOEh2KtfX48Jfs-bOf6bN7g=w408-h306-k-no,4.0,62,2025-06-11T18:14:04.468Z,comercio
Kiosco Alex,Kiosco,,Ayacucho 4572,+54 2284 42-6753,Olavarría,Provincia de Buenos Aires,-36.8747223,-60.3164954,4.3,12,https://lh3.googleusercontent.com/gps-proxy/ALd4DhFmLtcdpDBMdSNBpMR3VXd9SCSRsYpzwmhwDWPYzceLBVQEHBDoqJfd80sOLubwfRFcS478ZeiROYKuWlLtzDUx1DEbumrBY9pnG3hTCJ_mzO2Z3e2Hr3gtQ_3pi-lLAdh0HYaBUnMIDCj_jr89mBV0hUR-YaY4ZTjMgi304XmqSIWbLaLmTGgpMgc1PSDth0qdMo4=w427-h240-k-no,8.0,12,2025-06-11T18:14:04.469Z,comercio
Semillería El Pensamiento,Centro de jardinería,,Alsina 2884,+54 2284 55-6435,Olavarría,Provincia de Buenos Aires,-36.8920376,-60.323244,4.2,13,https://lh3.googleusercontent.com/gps-cs-s/AC9h4nqjBp-Nun4FvzVJyaPeW6JUoc3fdZed7qdZ07zw0hejUnc2zO-84KVW6Oly89TgXutLJeLdOWXYoQXL01OoemC7UlLsTFfA1RNhP4zW4iDrwoLIg5tsY9wwE8GJKr5xyhb48svX=w408-h544-k-no,10.0,15,2025-06-11T18:14:04.469Z,comercio
Forrajería Lo de Precci,Tienda de alimentos para animales,,Av. Ituzaingó 2285,,Olavarría,Provincia de Buenos Aires,-36.8890407,-60.3369592,4.6,15,https://lh3.googleusercontent.com/gps-cs-s/AC9h4npennF9TKfgsYtER2ew23ku3d5MHXe8nxaSo0oJQCoqzf87-woVfImCIw3-x2kdXA-4AQuDK6dRVQ36F1P4OpMaPaFNLWqUDSrgp5qIm_J8hRwU9UMfrBQHmkDJ_KzePuTK5QOJ=w408-h883-k-no,5.0,46,2025-06-11T18:14:04.469Z,comercio
"Minimercado ""Lo de Sosita""",Almacén,,Cerrito 4115,+54 2284 30-0138,Olavarría,Provincia de Buenos Aires,-36.8807725,-60.316336,4.3,16,https://lh3.googleusercontent.com/gps-cs-s/AC9h4npohqYESzfnXo1A2hgp3fI-CXiSp86atrcRWosB-6hHsAyXXz1GswejNJRTyvoUvNTdj6fEoDr7O5LHv_otxF9hJqJA4Ua11GJDn1GdDEITd1mzekL1NrtV1KblFEseWZxY1HEk=w408-h306-k-no,10.0,3,2025-06-11T18:14:04.469Z,comercio
Kiosko y Almacén Díaz Rosana,Tienda de alimentación,,"Club Atlético Pueblo Nuevo, Maipú 3198",+54 9 2284 21-8567,Olavarría,Provincia de Buenos Aires,-36.886627,-60.324885,5.0,17,https://lh3.googleusercontent.com/gps-proxy/ALd4DhGEwpCAKP4Xncb0uq9HzqFCxfCr1Q9e5ZA0eoJJxrDh5VOyRWLvixjX0vEg8cVAdUPLZ9_UmA4nbIcWmHbxh8IN5luLZHwhbNPHjR4Zlwo9EGNq4Y_Yqtg9aEtUIVakeTpgddPmRjCUj3LFhlJxulY4vFuXfX8Z1806TSE7U1UKVd5qSLurcl_eyaVELA4_p8_dRBI=w408-h306-k-no,2.0,3,2025-06-11T18:14:04.469Z,comercio
Agusmar por Mayor y Menor,Frutería,,Av. Colón 1051,+54 2284 41-9926,Olavarría,Provincia de Buenos Aires,-36.877953,-60.331549,3.7,18,https://streetviewpixels-pa.googleapis.com/v1/thumbnail?panoid=svN6_VCH9i-BJvSgbT7LpA&cb_client=search.gws-prod.gps&w=408&h=240&yaw=55.32554&pitch=0&thumbfov=100,1.0,6,2025-06-11T18:14:04.469Z,comercio
Pet Shop San Huberto,Tienda de alimentación,,Av. Ituzaingó 2935,+54 2284 55-2536,Olavarría,Provincia de Buenos Aires,-36.8848715,-60.3314511,4.4,19,https://lh3.googleusercontent.com/gps-cs-s/AC9h4nogH53wRR3ohLXUuy3l6PejNMra775bAtRQthD2A0X9jp5d1Hv-5qpJ3SucGRnVJUYEUgRIHc5nlNhkEegkLxr6Bqh0JWzrG9RcInSvY6z0b6ojOs9lDKTr5MO0cTii41Hr6NM9SA=w426-h240-k-no,10.0,20,2025-06-11T18:14:04.469Z,comercio
"Autoservicio ""Asiel""",Tienda de alimentación,,Av. Alberdi 3839,,Olavarría,Provincia de Buenos Aires,-36.8745489,-60.3287416,5.0,20,https://streetviewpixels-pa.googleapis.com/v1/thumbnail?panoid=y2IqTFjYcIR5ObYVCfaO_g&cb_client=search.gws-prod.gps&w=408&h=240&yaw=304.34094&pitch=0&thumbfov=100,1.0,1,2025-06-11T18:14:04.469Z,comercio
Duwen Maipu,Mercería,,Maipú 3144,+54 2284 41-5750,Olavarría,Provincia de Buenos Aires,-36.8868949,-60.3251985,4.8,2,https://lh3.googleusercontent.com/p/AF1QipPi0T2UmQoNS0NGIpnBcnpDcgC9fujkJy-TKDrz=w408-h406-k-no,15.0,6,2025-06-11T18:14:04.732Z,venta online
Pesca y Camping el Barba,Tienda de artículos de camping,https://www.facebook.com/Pesca-El-Barba-279981982178451/,Dorrego 795,+54 9 2284 22-5219,Olavarría,Provincia de Buenos Aires,-36.8786867,-60.3374206,4.4,10,https://lh3.googleusercontent.com/gps-cs-s/AC9h4noozCKaX2qVFL74ebHZMjJlTMDeEhBw4e1muz3Ld2oQg9zWloZ413QPrCzs5Pc2CKiLlyNgm0hsWNQM56Baxjg3B1HnQ2hGosYrvmp-Vp307Q_JF2EOJdFINz7RFmndBrhqItcZTw=w408-h306-k-no,26.0,115,2025-06-11T18:14:04.733Z,venta online
Hilos y Regalos,Mercería,https://tiendadehilosymas.com.ar/,Av. Domingo Faustino Sarmiento 1455,,Olavarría,Provincia de Buenos Aires,-36.8767843,-60.3235459,4.7,13,https://lh3.googleusercontent.com/p/AF1QipPsmEE0lTc7ekI13pZcferhZJAfZeeN41N_yyOH=w408-h544-k-no,119.0,43,2025-06-11T18:14:04.733Z,venta online
Kevingston,Tienda de ropa,http://www.kevingston.com/,Vicente López 3056,+54 2284 42-7647,Olavarría,Provincia de Buenos Aires,-36.8915662,-60.3209793,4.7,16,https://streetviewpixels-pa.googleapis.com/v1/thumbnail?panoid=A01Fj6gowgRcAwRYIG1Z2A&cb_client=search.gws-prod.gps&w=408&h=240&yaw=127.42893&pitch=0&thumbfov=100,1.0,126,2025-06-11T18:14:04.733Z,venta online
MaxiCell,Tienda de móviles,https://maxicellolavarria.empretienda.com.ar/,Rivadavia 3119,+54 2284 41-7695,Olavarría,Provincia de Buenos Aires,-36.8915875,-60.3197939,4.4,17,https://lh3.googleusercontent.com/gps-cs-s/AC9h4noqVU08c7hG0vp_uc7q3s0G-YmUVLUNf2kzaG1jL6A7PphCXsYSzF2mkH9utQwLe5zhyYVF_OK2joo3VmyBNlfbm17uoAEk9bglPQC2BmyoZJuXxYZQRBFaLB1meqmhlzqpCNnc=w408-h544-k-no,3.0,61,2025-06-11T18:14:04.733Z,venta online
Telas en Pueblo Nuevo,Tienda de telas,,Necochea 2087,,Olavarría,Provincia de Buenos Aires,-36.8868868,-60.3257375,4.3,18,https://lh3.googleusercontent.com/gps-cs-s/AC9h4npEPQP8jjlHe072GYWDa8yqP_VaEVgwzprAAZHil7JuiS8-FY24TZ6-jTM_UzBAoEG2NReHdPjVhfjNU5n-XFszelq90lF0-ccNklVx46AQqPomh1nxo_EU4N9glcX0D405n1Go=w426-h240-k-no,5.0,38,2025-06-11T18:14:04.733Z,venta online
Ollas Essen Olavarria,Comercio,https://essencialparatodos.com/,Roque Sáenz Peña 3271,+54 2284 20-3410,Olavarría,Provincia de Buenos Aires,-36.8921069,-60.3124899,5.0,21,https://lh3.googleusercontent.com/p/AF1QipPhyL8MiiyawCsemQBLTqFV0_pKOcNipSjGcOei=w408-h582-k-no,70.0,8,2025-06-11T18:14:05.467Z,comercio
Zabdi,Comercio,,Aguilar 4094,+54 2284 72-1038,Olavarría,Provincia de Buenos Aires,-36.8905153,-60.3044339,,23,https://streetviewpixels-pa.googleapis.com/v1/thumbnail?panoid=4dSge621x59I0xcxy-YQ9A&cb_client=search.gws-prod.gps&w=408&h=240&yaw=144.48201&pitch=0&thumbfov=100,1.0,0,2025-06-11T18:14:05.467Z,comercio
Cooperativa Obrera,Tienda de alimentación,http://www.cooperativaobrera.coop/,Av. Pringles 4461,+54 2284 42-4757,Olavarría,Provincia de Buenos Aires,-36.8867347,-60.3037707,4.3,25,https://lh3.googleusercontent.com/gps-cs-s/AC9h4nojGFcu6CjJyp17FaEUNRmTp8a17-GaZz3c9UpC6xLxYCsjWSBu31f2ke9EzKwMYx14gVUDfl9nth3SvofufXdCLO5iDy2OPpuAiI2umSJfr-UjlLQUv1Wq6TiI1_mKsQyzUeuO=w426-h240-k-no,84.0,1121,2025-06-11T18:14:05.467Z,comercio
Kiosco Junver,Kiosco,https://www.facebook.com/ayelen.nair.9,Rivadavia 4182,+54 2284 50-5252,Olavarría,Provincia de Buenos Aires,-36.8847789,-60.3105875,4.7,27,https://lh3.googleusercontent.com/gps-proxy/ALd4DhHKGfPj_WzMoofxTfAe6EM_eIfbfSQc_GmOfhvOC784ECsgD3Ot7fa9tCGIOZDNHy4OdmHY1ZVpB-u6MUvqern6LEKC16UGbXfb-I4h8iwsD3WuwdVsV_7cQMhL7oYCBiLKzU3OnKg6hIVTVCJe7bOhBtZyinFKbPiH9kEmpZJ5oihbk0ClqYe2BUNPFnyQTSflEKo=w408-h306-k-no,5.0,27,2025-06-11T18:14:05.467Z,comercio
Polleria NaOm Y Anexos De Pescaderia,Comercio,,Rivadavia 5299-5399,+54 2284 41-1033,Olavarría,Provincia de Buenos Aires,-36.8767101,-60.301009,4.8,31,https://lh3.googleusercontent.com/p/AF1QipOjAWLHBAeKbKCrJIHgZjmoVHeO4i7bk8YuXcPe=w427-h240-k-no,18.0,18,2025-06-11T18:14:05.467Z,comercio
Forrajería y Semillería Los Trigales,Tienda de alimentos para animales,https://www.instagram.com/lostrigales48,Av. Pringles 4502,+54 2284 30-2604,Olavarría,Provincia de Buenos Aires,-36.8865879,-60.3028004,4.2,32,https://lh3.googleusercontent.com/gps-cs-s/AC9h4nr24xL5orQq0gjKsM_-u8V067l9JaU3uTcB45oklVR2TkuMkSbiyoQADrYYqA9zQWvWAEYhN2U2Dtc7lHwcrXPt3wh3lwtNGHdTBAUHDKkVnJLO6xuYvqrMt-jzmUtESp8Tons=w408-h302-k-no,19.0,21,2025-06-11T18:14:05.467Z,comercio
Kiosco 24 horas barrio 104,Kiosco,,"Buchardo, Av. Ituzaingó e",,Olavarría,Provincia de Buenos Aires,-36.8923965,-60.3408021,,34,https://lh3.googleusercontent.com/p/AF1QipO9BqVusZ_wQmscjCUxbadYTpdBGnV0uwV4ULwD=w408-h725-k-no,7.0,0,2025-06-11T18:14:05.467Z,comercio
Del Roca,Quiosco,,Lavalle 4358,+54 2284 42-2497,Gran Buenos Aires,Provincia de Buenos Aires,-36.881536,-60.3115929,5.0,36,https://lh3.googleusercontent.com/gps-proxy/ALd4DhF527tBm06pRQaVhI_MI6FJLKc2FsFvkL7r8dbpNeTqHuPsRMwpQK5-7M_KwP5P1IBaZ9G31r-HTsPJU7k9jIAwKhIB8u7iN9xRzfkmYen4Y4ZDoWtvMVpNvGn2thyk1MtzOGrlgzpEVlHxXy_7XNcS9XXvFv6S4jahhrHQMW4ByvmlNVGm9vR-OGYMErKA-EU3vg=w408-h306-k-no,8.0,2,2025-06-11T18:14:05.467Z,comercio
Claudio Refrigeración,Comercio,https://www.facebook.com/ClaudioBrefrig,Av. Pringles 4257,+54 2284 22-2089,Olavarría,Provincia de Buenos Aires,-36.8879258,-60.3052752,4.8,40,https://lh3.googleusercontent.com/p/AF1QipP_kbOivv2bis3u1r8u8JUrNN24OJXi-P08Etkz=w408-h408-k-no,38.0,8,2025-06-11T18:14:05.468Z,comercio
Emprender tu negocio online,Diseñador de sitios web,https://emprendertunegocioonline.online/,Vicente Bahia 2719,+54 2284 69-4869,Olavarría,Provincia de Buenos Aires,-36.8787898,-60.342201,,2,,,0,2025-06-11T18:14:05.621Z,ecommerce
AUTOSERVICIO Endulza 2,Tienda de alimentación,,,,Olavarría,Provincia de Buenos Aires,-36.8816445,-60.3071557,,41,https://streetviewpixels-pa.googleapis.com/v1/thumbnail?panoid=kXnKIKH7ZiQQ7S334yp7jQ&cb_client=search.gws-prod.gps&w=408&h=240&yaw=272.36377&pitch=0&thumbfov=100,1.0,0,2025-06-11T18:14:06.237Z,comercio
JR Seguridad,Tienda de ropa de trabajo,,Bartolomé Mitre 2908,+54 2284 41-6178,Olavarría,Provincia de Buenos Aires,-36.8872893,-60.312287,4.6,42,https://lh3.googleusercontent.com/gps-proxy/ALd4DhGv9QRQC6pjxuZmjE-JOrW7FgnIwc9bXz3ypzGJxsTCpI30XSMkaqOteOGZ6vs7ryuNM77ZNI5GzmECvrirhtz8lJ_z5lEyL90zXmm5rIBfrSgQDAz4fGvrefcSIB7HH8hcrq1rhRwkUzo_b6yD03WpcYy6Pukhf3eyXOUSn7IKRS_Lp5RxfojEqX7QC7wNnDN9Efc=w408-h306-k-no,6.0,54,2025-06-11T18:14:06.237Z,comercio
Autoservicio Pueblo Nuevo,Tienda de alimentación,,Cnel. Suárez 2070,,Olavarría,Provincia de Buenos Aires,-36.8903177,-60.330189,3.0,44,https://lh3.googleusercontent.com/gps-proxy/ALd4DhFYmynFN92MUzxgGRFkxJ4DwMZ5BpiJRuE4sLx7_TVz3YwfMg7Ttfyx7C5k227DfpQL1kLvfTwaAIzx1lJw_SwtKxmEXvt1UOgTRwXOsfj6c7jjiROw1L_5_a_Fwx9I_HQMKOMAvXPmRKNbKGx4J7f_JzN-2xXUAU3SdSyoMdg-al6JI58nUNp0OEeETrVK-vTbU_g=w408-h306-k-no,2.0,1,2025-06-11T18:14:06.237Z,comercio
Maxikiosco Endulza2,Quiosco,,Av. de los Trabajadores 2795,+54 2284 41-7388,Olavarría,Provincia de Buenos Aires,-36.8815361,-60.3071257,4.0,45,https://lh3.googleusercontent.com/gps-proxy/ALd4DhGS-I4SlIcIvpbX_b9RbMMFgzP-bX6w6NSXeGJAV4Ot1C7v4nWEvU7boHKRfqpiP_h_-zCHXKVl2ioR4dZUOYzdRMJVBKBsFjvMzadLlTtWCWTwoxbNRzKzySjJ99RGcqMBfuk0rMU4wuZbUKHpo7h35zcM_F-_-AUhzcaDtBWZ9LIfHIV5uT3MaMwqMJ74yhTY3GY=w408-h306-k-no,4.0,4,2025-06-11T18:14:06.237Z,comercio
Distribuidora la Casera Fiambres - Quesos,Tienda de alimentación,https://www.instagram.com/distribuidoralacasera,Av. Colón 2831,+54 2284 42-1106,Olavarría,Provincia de Buenos Aires,-36.8898977,-60.3168669,4.7,46,https://streetviewpixels-pa.googleapis.com/v1/thumbnail?panoid=ICCghV193iWuEHwhk26HfQ&cb_client=search.gws-prod.gps&w=408&h=240&yaw=56.472973&pitch=0&thumbfov=100,2.0,6,2025-06-11T18:14:06.237Z,comercio
Materiales Bouciguez S.A,Tienda de materiales para la construcción,http://www.bouciguez.com/,"Chacabuco 2343, Independencia 5100",+54 2284 47-5812,Olavarría,Provincia de Buenos Aires,-36.8912602,-60.3327826,4.4,47,https://lh3.googleusercontent.com/p/AF1QipM-t-0wj6TyffkShEZdoYVhjHi0TPIomey5AtmG=w408-h306-k-no,42.0,115,2025-06-11T18:14:06.237Z,comercio
SUPER PIOSCO El Salvador,Librería,,Av. Colón 2690,,Olavarría,Provincia de Buenos Aires,-36.8890843,-60.3184923,,49,https://streetviewpixels-pa.googleapis.com/v1/thumbnail?panoid=VYny7uc-Mw2sEqD8SA_ObA&cb_client=search.gws-prod.gps&w=408&h=240&yaw=212.4402&pitch=0&thumbfov=100,1.0,0,2025-06-11T18:14:06.237Z,comercio
Frutihorticola Bahl,Frutería,,"Club Atlético Pueblo Nuevo, Av. Ituzaingó 2601",+54 2284 36-3380,Olavarría,Provincia de Buenos Aires,-36.8867729,-60.3340797,3.6,50,https://lh3.googleusercontent.com/gps-cs-s/AC9h4noSqw_CXZGjznW5bz1Y46_BmS9nrLyyj6MuWvYcgWkW_AtB0gkWTfHbmJ_KoY_fQBgg_Cwllm9_SALLwF9MxLT8DSbm7P61LBS8FtQrElbKj1Bkf2vmW4pFHiMjVzdB7y0grCYBPA=w408-h612-k-no,3.0,9,2025-06-11T18:14:06.237Z,comercio
ELOHIM$TORE,Tienda de ropa,,Necochea 2520,,Olavarría,Provincia de Buenos Aires,-36.8900768,-60.3221897,5.0,53,https://lh3.googleusercontent.com/gps-cs-s/AC9h4npHNDP6oOyMatbxCM4ylExf4imQedbcC1H5H_1YD14TNQ9oKj9RuBgxPqPHtA5VFo_ga_Hg4jBCbg_qk-qP-X81Uh21nRzC2BvL-KkcjIeA-Oxodidm3c-TvAcElBV8fktAbu9zhA=w408-h268-k-no,2.0,1,2025-06-11T18:14:06.237Z,comercio
Greta tienda natural,Tienda general,https://www.instagram.com/gretatiendanatural?igsh=MWtpNjVoeTd2MXprYw==,Rivadavia 3160,+54 2284 71-0571,Olavarría,Provincia de Buenos Aires,-36.8916164,-60.3192666,,54,https://lh3.googleusercontent.com/p/AF1QipOK9WA8yo8tfEufI7i2zDhnC_aMjbwjxeYRp-ow=w426-h240-k-no,4.0,0,2025-06-11T18:14:06.237Z,comercio
Déjà Vu Uniformes,Tienda de uniformes,,Bartolomé Mitre 2778,+54 2284 49-7647,Olavarría,Provincia de Buenos Aires,-36.8864446,-60.3134258,4.8,55,https://lh3.googleusercontent.com/p/AF1QipPouzI3Z64fVL70z_599vnpdcAkM2o9THfd4aPh=w408-h315-k-no,6.0,9,2025-06-11T18:14:06.237Z,comercio
Kiosco Richard 2,Quiosco,,Av. Domingo Faustino Sarmiento 2998,+54 2284 42-4100,Olavarría,Provincia de Buenos Aires,-36.8871241,-60.310856,4.5,56,https://lh3.googleusercontent.com/gps-proxy/ALd4DhG0ZwaKB3xK5ABV-ejuWXcfPjLLpBpp9e_tLreH9ZPjNU_ist5VdhQ6sGkCsXkiOdrRogypptp1MKNB7T57TJVj32e2FkwL7h1rJJ7f30dYDMNNSMBVBzp0o4iz_RrP5E1DMDnjNcCpEevhjSeJEoKX1vdv-Sn963dSRPJOJZotqi_e4cz8rUqzqhfjnvb_U8vvtw=w408-h306-k-no,4.0,2,2025-06-11T18:14:06.237Z,comercio
"""El Paisa""",Tienda de alimentos para animales,,Av. Ituzaingó 4096,+54 2284 68-8315,Olavarría,Provincia de Buenos Aires,-36.8770048,-60.3213475,4.6,57,https://lh3.googleusercontent.com/p/AF1QipMOwL0rkOVl31zd481h92KzzDW709ZPRRuOp4Jp=w408-h306-k-no,14.0,19,2025-06-11T18:14:06.237Z,comercio
Distribuidora Dionisio,Tienda de vinos,,Lavalle 4562,+54 2284 57-7768,Olavarría,Provincia de Buenos Aires,-36.8801102,-60.3099047,,58,https://streetviewpixels-pa.googleapis.com/v1/thumbnail?panoid=YEQvNdDmCyJIuram8xUCxw&cb_client=search.gws-prod.gps&w=408&h=240&yaw=119.074455&pitch=0&thumbfov=100,1.0,0,2025-06-11T18:14:06.238Z,comercio
Despensa Avenida,Tienda de alimentación,,Av. de los Trabajadores,,Olavarría,Provincia de Buenos Aires,-36.8755881,-60.3150434,,59,https://streetviewpixels-pa.googleapis.com/v1/thumbnail?panoid=x8wtZvLEzaBut_9-aQVVoQ&cb_client=search.gws-prod.gps&w=408&h=240&yaw=251.00952&pitch=0&thumbfov=100,1.0,0,2025-06-11T18:14:06.238Z,comercio
"Frutas y Verduras ""Lo de Seba""",Frutería,,Av. Domingo Faustino Sarmiento 1704,+54 2284 43-1737,Olavarría,Provincia de Buenos Aires,-36.8786595,-60.3212146,4.6,60,https://lh3.googleusercontent.com/gps-proxy/ALd4DhErO0JizeT1ejAkgmSDB3gbARwvtMuApyNS1T7xMQRvkEg9Qq8-lCmKxts5rsIssYXl8afIhxZcf4UkbP5-xXI7F9C7Ag7wjGagDGFv-odjsCnTOUc6F6EAATEJpF-jYybHO1rrGIHs0SSuet0yUxLckCDmgnOOlvDnoeu8Avb0Y8wFET5uLAREOaoOVVWQlZzDJp8=w408-h306-k-no,4.0,14,2025-06-11T18:14:06.238Z,comercio
"Mini Shoping ""Graciela""",Tienda de alimentación,,Belgrano 1866,+54 2284 41-5399,Gran Buenos Aires,Provincia de Buenos Aires,-36.8869101,-60.329398,5.0,2,https://lh3.googleusercontent.com/gps-proxy/ALd4DhHBuXv4rGsXAmtvw0PdD0T1BFtVlejX0YE3E_won2urjFBKlTK88_rKpuGj7H7BKpImt6dIXRtB0WAYZb5NYHytlp2WEjzF5O1eMI8TezAGX1paZJk8qrkJAm9S_jW-KdkaANp2ayeHpgUdInqPewMlboEcHdm9GIDtaK2NG0TnJdSaRjB5sjIQt0_e0yQi88A9joo=w408-h306-k-no,5.0,1,2025-06-11T18:14:06.404Z,tienda
Katrina,Supermercado,,Av. Alberdi,+54 2284 57-5415,Olavarría,Provincia de Buenos Aires,-36.8796149,-60.335099,5.0,4,https://lh3.googleusercontent.com/gps-proxy/ALd4DhFH7-0JVkAV3QCRNYhQkqSiS_Lxg7EBQUDJda_mW6aE7gIqMtTBt7tIi1HS7DlewREVhXD_CuYiYjvGRU2utjkhe4QWpq8IDo_xNs8uuGS14JpxsQ401-_lpppLN2YlhVba0OC2A4-loz_hs-n_rD5uus6REsQO4PXJxjbPXjhQToCaSKq5thIqf43dHlLEVgxMD7Q=w408-h306-k-no,2.0,2,2025-06-11T18:14:06.404Z,tienda
Egno Shop,Tienda de alimentación,http://www.facebook.com/egnoshop,Av. Colón,+54 9 2284 60-9993,Gran Buenos Aires,Provincia de Buenos Aires,-36.8875141,-60.3206474,5.0,7,https://lh3.googleusercontent.com/gps-proxy/ALd4DhH59O1BaaqVKWw-8l5H1fJrdMYbn30_eeFR82Jvh5libKhKh8rHS4L7ZzFfYzNTRo9vPgXfQlzuOHF8qZ_9fjDisOzqkqqPbdEgnjVjawDLTivgP0reF1cefqIrMG3Tp2arZa5u9PT45gRx7g9C3jo5wijXuoNWURXjS4WBDHYfuuJ6CbYJHczNT2Pzp0Sp8rd3KQE=w408-h306-k-no,4.0,1,2025-06-11T18:14:06.404Z,tienda
Mercadito Adrian,Tienda de alimentación,,Av. Alberdi,+54 2284 68-9321,Olavarría,Provincia de Buenos Aires,-36.8783122,-60.333403,5.0,8,https://lh3.googleusercontent.com/gps-proxy/ALd4DhGDIXMc0jXzSw9OLg-PLEgvzAIAIdNkRiAVm8cF--MZIiSNToygsPNQ3jVlNTpTNU8-FVEZxb1txi3x9R2mPahtth__Rg4JqHtF4uAVWzICAwDy7Q2LIfrS7weSF0RBv_BhItro0emqxuggXxyBWN1PVjCJd17tdkcIbJD6XHCShWLzMXk4IeePiYPpB7uSi0ns1mc=w408-h306-k-no,3.0,1,2025-06-11T18:14:06.404Z,tienda
Kiosco Enzo,Kiosco,,"KWD Olavarría AR, Belgrano 2268",+54 2284 41-0045,Olavarría,Provincia de Buenos Aires,-36.8896123,-60.3261484,4.1,9,https://lh3.googleusercontent.com/p/AF1QipN6vo7r4j0zkAmbfWw8w1MDX64Ehea3DzrCwEiG=w426-h240-k-no,16.0,9,2025-06-11T18:14:06.405Z,tienda
Casa Gustavo,Tienda de alimentación,,España 3661,+54 2284 44-0938,Olavarría,Provincia de Buenos Aires,-36.8899815,-60.3127881,4.5,10,https://lh3.googleusercontent.com/gps-proxy/ALd4DhFg0KKuzAhHfNHNACFBObErZQTYDs550cWbn7JOtXzZUzJfhP5daFb9Vb1V5drcjBu0a5XP08zgO7zKIIMR2KdOkANbk_yxTc6cfEkwJVDjqjKhommdSxxjYPVkrYF4X9-eCwoS5xp7rqhvAh5DTkiVLslcL8pKZUJM15cK7EsuqoB-vBtHvJ10kVWWOvPa31WMwA=w408-h306-k-no,3.0,2,2025-06-11T18:14:06.405Z,tienda
Kiosco Reyes,Tienda de alimentación,,Av. Colón 1758,+54 220 944-0894,Olavarría,Provincia de Buenos Aires,-36.882994,-60.3261593,5.0,11,https://lh3.googleusercontent.com/gps-proxy/ALd4DhGVYLxwXFFY72qj5aupvkKDodnlbOw3H9fsty1p-Ykr87YgRex8_U-rSLU116QMJADsGDkRPh9b9Ux08rc7Xv3aSyu5EqPXK6TVMRSy4g2Zy6rktmR1c1AfIWTSGoAv1kSLOvbbtXQaUfxUn_DQ2vRS6-diVL1fDc-uQx_XDm70pzLIJw8RNMiByZXc_nLQqDDDV2w=w408-h306-k-no,6.0,2,2025-06-11T18:14:06.405Z,tienda
Mercadito Los Eduardos,Tienda de alimentación,https://www.facebook.com/mercaditolos.eduardos,Av. Ituzaingó 1801,+54 2284 63-1685,Olavarría,Provincia de Buenos Aires,-36.8922541,-60.340864,5.0,12,https://lh3.googleusercontent.com/gps-cs-s/AC9h4nr6KJjWY3Ef_21YJB0UBC8WHBBu_CUXrv_hskB7u5At_5J6fFhwpFUiMEeMVAW4YO0sEu4I5ye5MnQdIc80u4-45ud4NlNlOVcv2oACqfwfACrPsHS_1tf-Ky6UlvFLtV10R3zf=w408-h544-k-no,23.0,1,2025-06-11T18:14:06.405Z,tienda
Maxi Kiosco New City,Tienda de alimentación,,España 3801,+54 2284 67-5079,DFE,Provincia de Buenos Aires,-36.8901795,-60.3142645,4.0,15,https://lh3.googleusercontent.com/gps-proxy/ALd4DhH9b53nfjVOeAqFkhqzRZQDu-kmOj7WHkr6cHv3eFV6xIQXcBLYk26OMlAfi2_wicHJRkGJCQfdIV57TEBvDoCJ-zL6X1Zf2wH1E906pMTyp-vIoAKKddu51B0z8XtVFrCtbRRfcTmijU3Z1G1BwA_SQ2KJb32bxtVaDJO9ai0bG4MP_sxkgsnzq9UWi9wePYhSK2I=w408-h306-k-no,4.0,1,2025-06-11T18:14:06.405Z,tienda
Minimercado Cristian,Tienda de alimentación,,España 3598,,Olavarría,Provincia de Buenos Aires,-36.8906132,-60.3131532,4.7,16,https://lh3.googleusercontent.com/gps-proxy/ALd4DhFeVFyLJuKsppQ7ORgoTCQTmVQFjkpF_IOHokvnqL5_-zcMJez_IA1DYr8tWdqZz_R_4slQW9p-BBxCLHi_CH3PlUP2U_9CvYeYogkzWS5CujxVpEK0mqSvdDqZ4uqXmTemzxnG6yyl-59O3pvymmez1KKqud2dCENoGgVoiecbvB4CB03-sfYfqNXvXXCsPN1SAQ=w408-h306-k-no,5.0,3,2025-06-11T18:14:06.405Z,tienda
La Mona Lisa,Kiosco,,Belgrano 2438,+54 2284 60-5222,Olavarría,Provincia de Buenos Aires,-36.8908913,-60.3245889,,18,https://lh3.googleusercontent.com/gps-proxy/ALd4DhHj4E6srKHR0UkQ0N3vV-dMFTEOUt33hRmm9dV7q6oS7B-E9Nlb_aP1PrT-uARgezbenUaHFm3oRvYcmvLl73WARzy5b9asy_6APtqbaogLZprONXYKppDqLAjIlFXVmMSK3P-b9bCyNx-TVJtCKPc67HzkYXWb4keZjYEi_CvX0lNd2ISHLt93Fc19DZw87R7dp3o=w408-h306-k-no,2.0,0,2025-06-11T18:14:06.405Z,tienda
Despensa Pina,Tienda de alimentación,,Grimaldi 1745,+54 2284 42-0512,Gran Buenos Aires,Provincia de Buenos Aires,-36.875949,-60.3174794,,20,https://lh3.googleusercontent.com/gps-proxy/ALd4DhFwY_BqnWAxD3X8VwdmZZlW15RaFoAd5KuiETzNgJMWErhBJzOde3flLy_pnC7ZQGBYW5o1V_IGDZj8KtrCHNiHA6-04mQnmsxxhKDJ7TRexwSb46kjNJfr6ARc11GroPnrdTf2OSgoV1TsMruQ8QYfcJ6wonSEYs61p7mZBoGOsvzs9Zi9bYodNjjItClIhS8c_Q4=w408-h306-k-no,4.0,0,2025-06-11T18:14:06.405Z,tienda
Despensa,Tienda de alimentación,,Juan Montesano,,Olavarría,Provincia de Buenos Aires,-36.8655327,-60.3206608,5.0,61,,,1,2025-06-11T18:14:07.023Z,comercio
Servicios Integrados,Proveedor de equipos de calefacción,,"Olavarria Buenos Aires AR, Lamadrid 3279",+54 2284 44-1833,DAS,Provincia de Buenos Aires,-36.8919735,-60.3168664,4.1,62,https://lh3.googleusercontent.com/p/AF1QipOo4V_f-oyNYcprdiJ5yCUnlglvrJ7SeFEZVy0b=w408-h272-k-no,8.0,18,2025-06-11T18:14:07.023Z,comercio
La Verdu Pueblo Nuevo,Frutería,,Independencia 2341,+54 2284 52-0565,Olavarría,Provincia de Buenos Aires,-36.8906527,-60.3337982,,63,https://lh3.googleusercontent.com/gps-cs-s/AC9h4nq5Q2KhLVwbMdHag8wN3TM-Xk8qMsDrZBe8nzGvhYTJn9kjNaZtUe5gpY0aqAXIVmdWdCfCuQvqbgt1Fb1XKmcfjKrh6GUaMb5Y1MwIxZXWxO5tuJfaVJbjDWdbDSWIcsu3ml8g6A=w408-h306-k-no,6.0,0,2025-06-11T18:14:07.023Z,comercio
Minimercado Los Toros,Tienda de alimentación,,Av. de los Trabajadores 1839,,Olavarría,Provincia de Buenos Aires,-36.8752275,-60.3150431,,64,https://streetviewpixels-pa.googleapis.com/v1/thumbnail?panoid=TTXg-SV7CL2qzZ9NNMvjOA&cb_client=search.gws-prod.gps&w=408&h=240&yaw=64.837135&pitch=0&thumbfov=100,1.0,0,2025-06-11T18:14:07.023Z,comercio
SALADITA ROPA UNISEX,Tienda de ropa,,Tacuarí 3446 2284223249,+54 9 2284 47-5225,Olavarría,Provincia de Buenos Aires,-36.8801516,-60.328417,5.0,65,https://lh3.googleusercontent.com/p/AF1QipNcnJ46oK3OL1WuEQvQ77ORP_dDU5KZEhCudLkF=w408-h444-k-no,4.0,1,2025-06-11T18:14:07.023Z,comercio
Mariposa accesorios,Tienda de accesorios de moda,,Av. Colón 54/14-15 N677,,Colon,Provincia de Buenos Aires,-36.8757318,-60.334966,4.3,66,https://lh3.googleusercontent.com/gps-cs-s/AC9h4nrvGvoL3mXcXCKXBPmyjl9gXs-fypG0H_zvVIxyJuzYKnHTyN1VJcKAf0L1oTOsMZdfmYnC0M86yYlGiaR69O5rCsTw87d8aqcOju7QPTzywdGNvvNHxCTMTI3pCbsuTgDZwV76mg=w408-h544-k-no,2.0,6,2025-06-11T18:14:07.023Z,comercio
Ferretería y Pinturería Avenida,Tienda de pinturas,,Av. Sarmiento 2531,,Gran Buenos Aires,Provincia de Buenos Aires,-36.8839682,-60.3143073,4.5,67,https://lh3.googleusercontent.com/gps-proxy/ALd4DhHxRWQBc_SS7KjubeYIRWjuBNYrn3gk7gX_fC9TiZ5KP2YNaNWiCxPho0a7WpmhcuWDXGFhuAvhVtGecZGkp5H02lUiOPihNuBTqMywn0nDbLcYD7tnNzRnJo5_rOcn9upb-qWYIrF4rJxxXUHVKaulmIpy0Un6ugqt0Hb1kJ0I0t3q4cRHAUVHmAZtgfeoE9vcYP0=w408-h306-k-no,8.0,70,2025-06-11T18:14:07.023Z,comercio
Yahvéh,Centro de jardinería,,Av. Colón 2447,+54 2284 35-3106,Olavarría,Provincia de Buenos Aires,-36.8873278,-60.3200058,5.0,68,https://lh3.googleusercontent.com/p/AF1QipNa9rsBQC0ColWT8oX3hhKIIC98LreKH-GGbMCJ=w408-h370-k-no,22.0,1,2025-06-11T18:14:07.023Z,comercio
Supermercado Cero,Supermercado chino,,Av. Domingo Faustino Sarmiento 1958,+54 2284 42-4401,Olavarría,Provincia de Buenos Aires,-36.8802613,-60.319473,3.8,69,https://lh3.googleusercontent.com/gps-proxy/ALd4DhH0xBVBg6Qq81Q5MRjirKFt6j2XiYmd9llHBgjLgaWOTmOIS1fmEkbBkWg2_nq9CWdR6U2XHxNVy5zBOCZ9CZ1P_6VsIm2xIuYGlsxh2w9Mqmi6IlKRghWAl5kpiWANOJaccTCh1pXLfu0XnSx21DSEq8TfMT5p71To3i4QpalVun5kFYmkYkJG2v-IFjA-pKE0FVQ=w408-h306-k-no,18.0,413,2025-06-11T18:14:07.023Z,comercio
Lale,Tienda de ropa,,,,Olavarría,Provincia de Buenos Aires,-36.8863973,-60.3013843,,70,https://streetviewpixels-pa.googleapis.com/v1/thumbnail?panoid=Fu0_2afWR8t9K2C9o7njRw&cb_client=search.gws-prod.gps&w=408&h=240&yaw=23.519712&pitch=0&thumbfov=100,1.0,0,2025-06-11T18:14:07.023Z,comercio
Super chino,Tienda de alimentación,,Av. de los Trabajadores 3140,,Olavarría,Provincia de Buenos Aires,-36.8842992,-60.3045696,,71,https://streetviewpixels-pa.googleapis.com/v1/thumbnail?panoid=usHiUNGp_NptFtmoyoXvMw&cb_client=search.gws-prod.gps&w=408&h=240&yaw=223.85892&pitch=0&thumbfov=100,1.0,0,2025-06-11T18:14:07.023Z,comercio
"Saladita ""La Esquina""",Tienda de ropa,,Azopardo,,Olavarría,Provincia de Buenos Aires,-36.8891448,-60.3465461,,72,https://streetviewpixels-pa.googleapis.com/v1/thumbnail?panoid=lm_0luV0S0igxHqA_bhW_w&cb_client=search.gws-prod.gps&w=408&h=240&yaw=247.03691&pitch=0&thumbfov=100,1.0,0,2025-06-11T18:14:07.023Z,comercio
The Family - Polleria Y Pescaderia,Tienda de alimentación,,Rivadavia 4560,+54 2284 41-9125,Olavarría,Provincia de Buenos Aires,-36.8821816,-60.3074909,4.7,73,https://lh3.googleusercontent.com/gps-cs-s/AC9h4nqNHoRxsPEdj_wQQcVwdjc4ShcttmFXK85bSqsXdFdKQMZXZkuq1q9exJdJbnq75HtLIuC0rUEjQWbKqfE0g3R5Mu4IG8XoXpbgH3zrw9VTT1hcuhamRLquF0eBH_I9eFeCRr9trQ=w408-h544-k-no,7.0,58,2025-06-11T18:14:07.023Z,comercio
Daniel Iglesias,Tienda de artículos para el hogar,,Vicente Bahia,,Olavarría,Provincia de Buenos Aires,-36.87975,-60.3434228,,74,,,0,2025-06-11T18:14:07.023Z,comercio
Verduleria Lo De Flor,Frutería,,Sgto. Cabral 2532,,Olavarría,Provincia de Buenos Aires,-36.8895274,-60.3212628,5.0,75,https://streetviewpixels-pa.googleapis.com/v1/thumbnail?panoid=JlkZN8UPzBBtwuQNY6UdjA&cb_client=search.gws-prod.gps&w=408&h=240&yaw=224.59526&pitch=0&thumbfov=100,1.0,2,2025-06-11T18:14:07.023Z,comercio
Vinilos mdq olavarria,Tienda de señalización,https://www.facebook.com/vinilosmdqolv,Sgto. Cabral 2892,+54 2284 42-8427,Olavarría,Provincia de Buenos Aires,-36.8918052,-60.3183999,4.6,76,https://lh3.googleusercontent.com/p/AF1QipNgqQsdimmwFFXBXxW7qjtuh67tr8mZL5-Zq2dZ=w408-h403-k-no,2.0,15,2025-06-11T18:14:07.023Z,comercio
Autoservicio El Zonda,Supermercado,,Maipú 3652,,Olavarría,Provincia de Buenos Aires,-36.8835076,-60.3208665,4.5,77,https://lh3.googleusercontent.com/gps-cs-s/AC9h4noF21ZrwT7tbBhTNfPy-hMjiB-5_TwoTfRIP8CuGaj9RyB89MBtWxuwGiUR790kpbHT9jHq5t3tho4Sjvo439x8Q9-tGziOTry7N6nnzf6evFh5Hf9M5YXEqRK_QRZi6Z5deoI0=w408-h306-k-no,9.0,45,2025-06-11T18:14:07.023Z,comercio
Gentino Express,Tienda de alimentación,,"Belgrano, Cerrito &",,Olavarría,Provincia de Buenos Aires,-36.8891063,-60.3265575,4.3,78,https://lh3.googleusercontent.com/gps-cs-s/AC9h4nrw2GLRm5U-ML5Yv7Kz413B4P-SgxUJCVDho5k51_PIb8xDxt7LC-aVTIyDECyriB5WhfvZAk58_my9z4TTyL-WRzGy_f9cunEv0aLEABYmZ7ZLQVGwVMioYSAIPNeHTzOnXFre=w408-h725-k-no,2.0,15,2025-06-11T18:14:07.023Z,comercio
Los Parrales,Tienda de vinos,,Av. Colón 1788,,Olavarría,Provincia de Buenos Aires,-36.8830485,-60.3259683,3.0,79,https://lh3.googleusercontent.com/gps-cs-s/AC9h4nqNLwZaLt24vIgipu_0pfbdYMP7zYPGYvYWoodjhpK3OmN7bgFHJvIbLlCakHmgmLSGUCuoN5zZYHHHlwfPCcbR6tcMlBwS88m3YoOHue6tFxI-wjZsTyr5ZoccnGZawk2HlXE=w408-h306-k-no,2.0,2,2025-06-11T18:14:07.024Z,comercio
Cerrajeria automotriz lier,,,Joaquín Pourtale 2860,+54 2284 61-2658,Olavarría,Provincia de Buenos Aires,-36.8818439,-60.3361997,,80,https://lh3.googleusercontent.com/p/AF1QipMPPMZKgs-aMUX-TCA9CUkTfEnaUwp75EzK8HM1=w532-h240-k-no,4.0,0,2025-06-11T18:14:07.024Z,comercio
Tiendas Tere,Tienda de ropa,,Dorrego 2624,+54 2284 73-1780,Olavarría,Provincia de Buenos Aires,-36.891445,-60.322267,3.5,22,https://lh3.googleusercontent.com/gps-cs-s/AC9h4noBwHwr-Ex78wherF5hJX2vIFtujUsutXNFrIdzXdfxuDSjMp4ke_CF5myfbYHfUy_5-QcUR7AnDh0wrdLULW7LJPeyUhA5TenTyS_8JIqfa5XAcM-ahoqh90vaTfJHq0snbpn2PA=w506-h240-k-no,31.0,2,2025-06-11T18:14:07.256Z,tienda
Ramos Generales,Mercado,,Lavalle,,Olavarría,Provincia de Buenos Aires,-36.8853343,-60.3163857,4.3,24,https://lh3.googleusercontent.com/gps-proxy/ALd4DhFhelha1AAgrOD_F4Z5xzi4jaITZBvXnCvNoCjwqjA6RmMLQ4oB8rpqV3xAP2sIeCfFBDuxbvKgGw5ufKtv1g58vtKjeCnrb1reU4UWCPr8bmulbxJVw8Kff6LrDJ7p1N83DblhaKB1voNbGlyefbApggbjSG4HQg1CEKxzC38h8cLN_YlxaCCFaXRfilthRze2mrw=w408-h306-k-no,2.0,7,2025-06-11T18:14:07.256Z,tienda
La Vía,Tienda de alimentación,,Av. Domingo Faustino Sarmiento 3494,,Olavarría,Provincia de Buenos Aires,-36.8905259,-60.3067101,3.0,28,https://lh3.googleusercontent.com/gps-cs-s/AC9h4npNi8TEeGlvnLnPrBczF_HQth-swXKkOw1X1U8k8PjSO2C_gCNytB76BF54Ni5GhaLbdFIL5GH13dDPWaLTQfojshmNLAeOCbVeskpiWxl4Od2bwhgy7HmYFFWFBdHl1fIohzj5=w408-h306-k-no,3.0,2,2025-06-11T18:14:07.256Z,tienda
Sabor Argentino,Quesería,https://deliveryolavarria.com/tienda/sabor-argentino/,Alsina 2987,+54 2284 41-2500,COO,Provincia de Buenos Aires,-36.8911418,-60.3225113,4.8,29,https://lh3.googleusercontent.com/gps-proxy/ALd4DhHVv3tyosaFu_4xpH7170o4tFxInur0OY-1dbOiAOyjILnm6owUVBwJQKFM9usPBV2VPMGA3w4wrfW5yFm-6OjJSTw55qNH3lvMvrtzHpKeeD7TqtIo2qQN1bq-a9A1da5Ipo8E7iFVjN6dAjPT9QN9E-lvWEPt8VmxOJcIF_RuUzkP8XgTYfkcIvPmCpTcE-DvWWk=w408-h306-k-no,3.0,10,2025-06-11T18:14:07.256Z,tienda
Kioskon,Kiosco,,Av. Domingo Faustino Sarmiento 3390,+54 2284 51-0094,Olavarría,Provincia de Buenos Aires,-36.8898545,-60.3075,4.7,30,https://lh3.googleusercontent.com/p/AF1QipOV2eli-a77qSXz8HP87Cts8H5NZWUqUUQ4Lz7q=w408-h408-k-no,17.0,59,2025-06-11T18:14:07.256Z,tienda
Tienda Saludable Pueblo Nuevo,Tienda de alimentación,,Independencia 2772,,Olavarría,Provincia de Buenos Aires,-36.8880989,-60.3299773,5.0,31,https://lh3.googleusercontent.com/gps-cs-s/AC9h4noWi4N-ynuhf3sgBA3Yo5wHi2iHQYqi4NgqM-hCbFhH8vf-4mZHgbMOrtZycQI1HecpEXjfKtnc6qpc_g0RyfbtD4lDHpCV8TksNbhuKsKmvPnksCv6Kd1DKVcokGHhXakLPrFH=w408-h725-k-no,2.0,2,2025-06-11T18:14:07.256Z,tienda
J C - Tienda de ropa,Tienda de ropa,https://www.facebook.com/pg/JC-104014204313449/shop/?ref=page_internal,Vicente López 3333,+54 2284 45-4104,Olavarría,Provincia de Buenos Aires,-36.8895502,-60.3189101,3.5,32,https://lh3.googleusercontent.com/gps-cs-s/AC9h4npa4mdPmkLPm6eLLHESY87Lbpc268DILVq7d_TsBA5G1rJoFB16zf3_-IZVfrRz-9CPCCmh00RQMzznrIUUvqLxBZEGXiqK1iPtmojjpD6buI4UbFG9lJtybjVVU91ChPs5TMAi=w408-h306-k-no,9.0,2,2025-06-11T18:14:07.256Z,tienda
Famularo,Tienda de ropa,https://m.facebook.com/pages/FAMULARO-SA/159162330949584,Rivadavia 3024,+54 2284 42-4431,Olavarría,Provincia de Buenos Aires,-36.892554,-60.3203452,4.1,34,https://lh3.googleusercontent.com/gps-cs-s/AC9h4npxAW4Oy0Q5538C6tRZ-3I59WezAX7q9ZvmUrx_CAhcWqCpoZPySr5pBoTOTGF3hh0au8jUYAem_PC92SxqrtTeohdyVYHD5Eh8mIMb3hX9TZ9uUpttFkNVKYgx-dWcfy-cyTJVOg=w408-h306-k-no,8.0,403,2025-06-11T18:14:07.256Z,tienda
"Autoservicio ""Lo de Moni""",Supermercado,,Av. Domingo Faustino Sarmiento 3187,+54 2284 57-5138,Olavarría,Provincia de Buenos Aires,-36.8883142,-60.3089445,4.7,36,https://lh3.googleusercontent.com/gps-cs-s/AC9h4npkCVfR73nnzA2oCkpUnu5KKNQkCTEgACoEvLw82AI54dotzwzYzuZZpW9ldY90u8y-7IuWMqt2G6mLhtbSteVxu7KcUQFcUAFdJK1WNK9Aic9tUvE6iAuZuO97AcShOaOqfDTWaA=w426-h240-k-no,15.0,66,2025-06-11T18:14:07.256Z,tienda
"Tienda ""flores chic""",Tienda de ropa de vestir,,Necochea 2752,+54 2284 60-1604,Olavarría,Provincia de Buenos Aires,-36.8917155,-60.3204727,,37,https://lh3.googleusercontent.com/p/AF1QipPnBYCk5Mm0bE22N423kUZRHqKkY6dkqtZA7Vp0=w408-h477-k-no,5.0,0,2025-06-11T18:14:07.256Z,tienda
Tienda El Horneto,Tienda de alimentación,,España 3781,,Olavarría,Provincia de Buenos Aires,-36.8892093,-60.3116876,,38,https://streetviewpixels-pa.googleapis.com/v1/thumbnail?panoid=6vbfuhVBG-XnkoJvSPQTeA&cb_client=search.gws-prod.gps&w=408&h=240&yaw=321.83984&pitch=0&thumbfov=100,1.0,0,2025-06-11T18:14:07.256Z,tienda
Toxica,Tienda de ropa de mujer,,Necochea 2757,,Olavarría,Provincia de Buenos Aires,-36.8914707,-60.3201646,5.0,39,https://lh3.googleusercontent.com/gps-cs-s/AC9h4noiaDH_c94uTvcf2Uadx_oznVI-MWwdNllaVF7lj_WeWKTgexkaj42cRRrcV0bLvsSFlZqycSbMl1U6vEI4MKC7xJBYPnkqtwEbN0n0lPwh9TpBpbT_17MM5N96FaM67M-Eb1fJtQ=w426-h240-k-no,2.0,1,2025-06-11T18:14:07.256Z,tienda
Tienda Dulce Camila,Tienda de ropa,,Av. Ituzaingó 3870,,Olavarría,Provincia de Buenos Aires,-36.8786915,-60.3232056,4.4,40,https://lh3.googleusercontent.com/gps-proxy/ALd4DhGgLuG5zKzgnhEaD1qHtdpQbIRcS5J_AM8t_wJHpOAoSPQ7YRCZgpoplweImwrY-WMyEr_26XYy8Xku9MPyGec1G987pgN6exEiABE13GDaIkg_NimYgcdp_B3X3_VJbEc3X6KdevGsxHmUmIc_JW8qoJuTiWjSsgJml5f9QGdgnNlHE6dlCC18XAGJaZH227Yc4bI=w408-h306-k-no,4.0,10,2025-06-11T18:14:07.256Z,tienda
La Casa para El Embutido Triovac SRL,Taller de maquinaria,https://www.facebook.com/La-casa-para-el-embutido-2034003376833022/,Av. Domingo Faustino Sarmiento 2578,+54 2284 44-0630,Olavarría,Provincia de Buenos Aires,-36.8845121,-60.3142373,4.4,7,https://lh3.googleusercontent.com/gps-cs-s/AC9h4nrYQtQPiTyvWhOOLhMIRWZpr-foUueQjuRSr7RVCvwdwUyVX5HIKyP4UdZF6xnrAmFGQ4GbFYYYEf7GR8zICGa1nwCDwpfZb7aYUqWh8m6asboCs-2UdG39O7hpvfa3XmFhPYKg=w408-h293-k-no,22.0,20,2025-06-11T18:14:07.429Z,venta
Messineo Maderas,Carpintero,,Independencia 2780,+54 2284 41-2945,Olavarría,Provincia de Buenos Aires,-36.8880205,-60.3299529,4.5,11,https://lh3.googleusercontent.com/gps-cs-s/AC9h4nruA3rTMGmKXJBxSLD7xVndvTU2cwfgdsFUy2miafMmIB4AUkbUzpsrnl9U-l-RE8GCmpegBhmEph_uicsUbi55CWrZocsz77yOW8qDeJrWHqrg1HpyVm7VAMqTHSPn17AbVDLC=w426-h240-k-no,23.0,231,2025-06-11T18:14:07.429Z,venta
Golomania Mayorista,Mayorista de confitería,https://m.facebook.com/mayoristaintegra/?locale2=es_LA,Lavalle 3128,+54 2284 43-0061,Olavarría,Provincia de Buenos Aires,-36.8896984,-60.3219887,4.7,12,https://streetviewpixels-pa.googleapis.com/v1/thumbnail?panoid=ZrcAg2vtWPR1oCYFZOSstg&cb_client=search.gws-prod.gps&w=408&h=240&yaw=138.88728&pitch=0&thumbfov=100,1.0,13,2025-06-11T18:14:07.430Z,venta
Tienda de Telas,Tienda de telas,,Necochea 2874,,B7400LCX,Provincia de Buenos Aires,-36.8923438,-60.3194165,3.8,13,https://streetviewpixels-pa.googleapis.com/v1/thumbnail?panoid=Xb1lTWu3avdeGCtfaQjZCA&cb_client=search.gws-prod.gps&w=408&h=240&yaw=226.80994&pitch=0&thumbfov=100,1.0,5,2025-06-11T18:14:07.430Z,venta
Llorente & Paz Inmobiliaria,Agencia inmobiliaria,https://llorentepazinmobiliaria.com/,Riobamba 2877,+54 9 2284 58-4666,Olavarría,Provincia de Buenos Aires,-36.8898948,-60.3260466,3.8,14,https://lh3.googleusercontent.com/p/AF1QipMxXLae7SSvvkwgSffD4DieOB25EWvZa3wnQZ4m=w408-h306-k-no,5.0,9,2025-06-11T18:14:07.430Z,venta
Matafuegos Messineo,Servicio de seguridad contra incendios,https://www.guia-dorada.com.ar/guia/aviso-messineo-recarga-y-venta-de-matafuegos-en-olavarria-buenos-aires-21220.html,Av. Ituzaingó 3145,+54 2284 41-2577,Olavarría,Provincia de Buenos Aires,-36.883394,-60.329655,4.6,15,https://lh3.googleusercontent.com/p/AF1QipNYouy3bbv9l3HJIm1HHRz8V-2JcZpJlrORYtT5=w408-h306-k-no,119.0,45,2025-06-11T18:14:07.430Z,venta
Luciano Paz Negocios Inmobiliarios,Agencia inmobiliaria,,Riobamba 2877,+54 2284 64-5686,Olavarría,Provincia de Buenos Aires,-36.8898948,-60.3260466,4.0,18,https://streetviewpixels-pa.googleapis.com/v1/thumbnail?panoid=qWEyUBtYzokRSgEVFbY5LQ&cb_client=search.gws-prod.gps&w=408&h=240&yaw=311.52823&pitch=0&thumbfov=100,1.0,1,2025-06-11T18:14:07.430Z,venta
Aller Propiedades,Agencia inmobiliaria,,Alvaro Barros 3126,+54 2284 41-7940,LLD,Provincia de Buenos Aires,-36.8927801,-60.3156194,4.4,19,https://streetviewpixels-pa.googleapis.com/v1/thumbnail?panoid=bvxKh3f68dKru8r30Ry3_w&cb_client=search.gws-prod.gps&w=408&h=240&yaw=241.05771&pitch=0&thumbfov=100,2.0,18,2025-06-11T18:14:07.430Z,venta
Mecanica Dorrego Reparacion y venta de Cajas de Velocidad ydiferenciales,Taller de reparación de automóviles,,Dorrego 1627,+54 2284 45-6037,Olavarría,Provincia de Buenos Aires,-36.8845778,-60.3302699,4.7,20,https://lh3.googleusercontent.com/p/AF1QipP4hAamPhWZHBmbyCvtkVhizj14-tXRCpdW-aDm=w408-h306-k-no,73.0,26,2025-06-11T18:14:07.430Z,venta
NaturaNe,Perfumería,https://www.instagram.com/naturaneolavarria?igsh=cXpoaHR0eGZuNGxq,7 Bis 2319,+54 2284 23-1382,Olavarría,Provincia de Buenos Aires,-36.8801272,-60.3459682,,81,https://lh3.googleusercontent.com/p/AF1QipOA0O19l36zl2TNj-CBqGba-34gxHFX4D4-cTAU=w408-h725-k-no,2.0,0,2025-06-11T18:14:07.857Z,comercio
FERRETERIA,Ferretería,,Av. Colón 1032,,Gran Buenos Aires,Provincia de Buenos Aires,-36.8780243,-60.332102,,82,https://streetviewpixels-pa.googleapis.com/v1/thumbnail?panoid=Njg-J6b-vSzX9VZEya-yTQ&cb_client=search.gws-prod.gps&w=408&h=240&yaw=240.8628&pitch=0&thumbfov=100,1.0,0,2025-06-11T18:14:07.857Z,comercio
Bouciguez Materiales para la Contratación,Tienda de materiales para la construcción,,"Ruta Nacional 226, Independencia &",,Olavarría,Provincia de Buenos Aires,-36.8718959,-60.3098546,,83,https://streetviewpixels-pa.googleapis.com/v1/thumbnail?panoid=2LnReWbWR9x2kW6U_fldcg&cb_client=search.gws-prod.gps&w=408&h=240&yaw=316.47382&pitch=0&thumbfov=100,1.0,0,2025-06-11T18:14:07.857Z,comercio
Ferretería Víctor.,Ferretería,https://www.facebook.com/ferreteria.victor.7,Vicente López 3255,+54 2284 42-0503,Olavarría,Provincia de Buenos Aires,-36.890169,-60.3192283,4.3,85,https://lh3.googleusercontent.com/p/AF1QipPSia0g72DXjfk4Y9-lzmXnSyJVKi2HfaI-fYLV=w426-h240-k-no,16.0,152,2025-06-11T18:14:07.857Z,comercio
Ampilampi,Tienda de artículos para el hogar,https://ampilampi.mitiendanube.com/,Sgto. Cabral 1782,+54 2284 22-6991,Olavarría,Provincia de Buenos Aires,-36.8844853,-60.3275895,,86,https://lh3.googleusercontent.com/gps-cs-s/AC9h4nrT12cpm2WGG-XlBljH11_tQv1n6lwPwN5nvYKo--32e4Z7cP1rMgxGRj77xbizry1Ani3NzCdhF0RurTUo7B8LG_2JaCJg5Vv1GPeoiW8zEblCEUcB3bfvSc5KLj3FgdY-pIH6_w=w408-h544-k-no,5.0,0,2025-06-11T18:14:07.857Z,comercio
Blees Indumentaria,Tienda de ropa,,Av. Colón 3175,+54 2284 42-3864,Olavarría,Provincia de Buenos Aires,-36.8922135,-60.3140511,,87,https://lh3.googleusercontent.com/gps-proxy/ALd4DhG99ZNzA_0CV_Yuzkx6K3zllx6SVWQhctdwqCTZFr0-7gTkdjnPPTSfdoViJau3aWeBGneJKzsvkrIiphl4ms6Aau-7jGdbN7Q4Lr3-fjwoA-LlhguJHISkH-rbBfmQfYd-KAIa_6jMX-H3loNo_imvwEu_2Z9h1FUqRTPikM62uAH5BS0-dyZdpeYfvc33oX0ggxg=w408-h306-k-no,5.0,0,2025-06-11T18:14:07.857Z,comercio
Open 24hs! Kiosco,Tienda de alimentación,,Dorrego,+54 11 6021-6094,Olavarría,Provincia de Buenos Aires,-36.8916635,-60.3214684,3.0,88,https://streetviewpixels-pa.googleapis.com/v1/thumbnail?panoid=B6hGV6ysY1-lal5v8urqfQ&cb_client=search.gws-prod.gps&w=408&h=240&yaw=59.736202&pitch=0&thumbfov=100,1.0,2,2025-06-11T18:14:07.857Z,comercio
Lima Limon,Tienda de ropa de hombre,,"Club Atlético Pueblo Nuevo, Chacabuco 2987",+54 2284 41-8196,Olavarría,Provincia de Buenos Aires,-36.8872511,-60.3278251,4.0,89,https://lh3.googleusercontent.com/gps-proxy/ALd4DhH3KmTP_6CeGbooj1WQLK-C5lQs-reERrzK5xzsxxIWZR_3Q95EldA7enoKSo81dRruzsQZ3dLMXOaAF4mQdlKeGcMQpmc2vVRbyHiA7ibdz9K_l2tljLDWxtJyOQO2MeXcp5RMmVylurjFVsuhJlZrzwnOfN1gdCWQHIK8LNpavL6Nv1Mwg68e_w2OVxFGfZ3UFAQ=w408-h306-k-no,2.0,1,2025-06-11T18:14:07.858Z,comercio
Frutería y verdulería FG,Tienda de alimentación,,Av. de los Trabajadores 1291,,Olavarría,Provincia de Buenos Aires,-36.8715868,-60.3197324,5.0,90,https://lh3.googleusercontent.com/gps-cs-s/AC9h4nrdkAS6vPoUUNiWQyvixgWUM-55BhevqUt2csS34KMfH5j1zPTRgjTWNu82OmzlVTbz2k035Plbj1H5C0jYknSvbXazEYoPwv3VPFVYuOUe4BX3wgd_J-nwarABJV42qjKcz50e=w408-h306-k-no,85.0,2,2025-06-11T18:14:07.858Z,comercio
X-28 ALARMAS,Tienda de alarmas antirrobo,http://x-28.com/,25 de Mayo 3471,+54 2284 53-0417,DJY,Provincia de Buenos Aires,-36.8919181,-60.3134807,4.5,91,https://lh3.googleusercontent.com/gps-proxy/ALd4DhGL-YfsetWs-PsS7LNNCYXkW7TqnaGm5Tucvs_0A4vwf_wF99-tj4osG0aKY72i93Wka8iN-yb1p5Ll4lhY3zX5zsqkApTPPHwzTVSf95OHCiVgJKQAn9xyatmYrx9h21J7RYXuOQDbp6m2YYgb8QhUyb8tFAtWIoqV9EwtqRNxJsWoxmpXo14RmbKpG195pv7OkA=w408-h306-k-no,7.0,50,2025-06-11T18:14:07.858Z,comercio
Caramel Store Kiosco,Tienda general,https://caramelstore4.mitiendanube.com/,Necochea 2676,+54 2284 65-3262,Olavarría,Provincia de Buenos Aires,-36.8911161,-60.321101,3.9,92,https://streetviewpixels-pa.googleapis.com/v1/thumbnail?panoid=qLRIiTu9B0QiT3VgoFYufg&cb_client=search.gws-prod.gps&w=408&h=240&yaw=220.92737&pitch=0&thumbfov=100,1.0,7,2025-06-11T18:14:07.858Z,comercio
El Superclasico,Tienda de artículos para correr,https://www.facebook.com/profile.php?id=100046396940305,Rivadavia 2818 Local 5,+54 2284 41-9058,Olavarría,Provincia de Buenos Aires,-36.8919606,-60.3198822,3.7,93,https://lh3.googleusercontent.com/gps-proxy/ALd4DhGT1-QtHE0MVG6kRYXcdp7JK3sr4ITaUUQEHBT1I_h5emvJf1Z72yTbKjQXlaDn_bES44ksmj67z1EwtOCoF7D75pPHnTxsMqN0ts7lGf2Ih7PmFZBDeHUsNDPxO-uHktlm3vtOCfN_1L1ewpFBFpQ90J1_m-rYV2DVeEm1S5rtpEg52wXgw7JKMbs99Lbn6DoWL8o=w408-h306-k-no,4.0,3,2025-06-11T18:14:07.858Z,comercio
Amal'ric Fashion Love,Tienda de ropa de mujer,,Rivadavia 3368,,Olavarría,Provincia de Buenos Aires,-36.8902199,-60.317528,5.0,94,https://lh3.googleusercontent.com/gps-cs-s/AC9h4npbpn4BY96AIx1qhp038TLU6PyWyQYC-dnclBkMqb_y5FpvV_PxJCoXJINClz9bko95nea6o2kFCNIckAI4odSoJxlmwYrNPqvgjbWvnPM0CxYt6XNcgc73bEYgJhrFgCTVIm_RFA=w408-h725-k-no,4.0,1,2025-06-11T18:14:07.858Z,comercio
Sion Skateshop,Tienda de ropa,,Belgrano 2655,+54 2284 68-3954,Olavarría,Provincia de Buenos Aires,-36.8920586,-60.3226849,4.3,95,https://lh3.googleusercontent.com/gps-cs-s/AC9h4nop7oxFBqssz1Sk9ZoTndlAU0Qz3DX6Gh5CFfzfBarmt4UA0dW9TV4f0wzm1nOoCD12C3m1NC5GsSXacUW1ZrPxFm88rL4OpQ4Pc2BBP6uLOUs1lugI5E3Hg8bfkvjSIRTNnnI=w408-h265-k-no,8.0,6,2025-06-11T18:14:07.858Z,comercio
La Esquina Del Pollo,Tienda de aves de corral,,7400,+54 2284 61-2667,Olavarría,Provincia de Buenos Aires,-36.8835566,-60.3299026,4.5,96,https://lh3.googleusercontent.com/gps-cs-s/AC9h4nofTYbt-mDhNU-dlvC0aM3DCwHSLAk-JzuzY4x_eHCSOpOEl_YoE4vz0Ujdlu7O1HLCR24eaAq0nNJ1eGf0_wdfOY5EVJywUgkIINf2D0Gze2jGlCoy1mO-lEDEcHSi9wwH-1HMWQ=w408-h725-k-no,2.0,17,2025-06-11T18:14:07.858Z,comercio
Ensueños Hogar,Tienda de ropa de cama,https://www.ensuenoshogar.com.ar/,Necochea 2218,+54 2284 42-8995,Olavarría,Provincia de Buenos Aires,-36.8879897,-60.3247067,4.8,97,https://lh3.googleusercontent.com/p/AF1QipPB6r29Li9_YoiRlmP3TNzuHrlQ4UmE8hxuSL4=w408-h725-k-no,36.0,293,2025-06-11T18:14:07.858Z,comercio
Kiara,Tienda de ropa,,Rivadavia 3145,+54 2284 42-5388,Olavarría,Provincia de Buenos Aires,-36.8914681,-60.3196277,,98,https://streetviewpixels-pa.googleapis.com/v1/thumbnail?panoid=nKoXtbs5SfAu9RHPRlJ8Gg&cb_client=search.gws-prod.gps&w=408&h=240&yaw=310.0021&pitch=0&thumbfov=100,1.0,0,2025-06-11T18:14:07.858Z,comercio
Bajitos,Tienda de ropa infantil,,Necochea 2520,,Olavarría,Provincia de Buenos Aires,-36.890268,-60.3216253,4.3,99,https://lh3.googleusercontent.com/gps-cs-s/AC9h4npwlOlc3eA4Wbs4WBnKi9ZboNNI3l9nr0GfCbfw44R0rPHFIaKlumrBQT73i1E9swyMBiClVZuMz-bNbujEEQTER-PAWI6JY-x7k0qkChaKpPOIey25_vGdTTjyr9fNlDwJq8TL=w408-h341-k-no,3.0,3,2025-06-11T18:14:07.858Z,comercio
Total Autopartes,Tienda de repuestos para automóviles,,"Av J B Alberdi 3985, Olavarr a, Buenos Aires",+54 2284 23-0813,Olavarría,Provincia de Buenos Aires,-36.8737306,-60.3274849,4.4,100,https://lh3.googleusercontent.com/gps-cs-s/AC9h4np3_uqq-AbZhOmO6CgXISD9KxtPs4aekmjOVcW8OiPgrwvFuIhX_JAyrMbDXBLLDnQQmSrbEkQ0LOjz4baHeOjb9uWbXSfUuo7pnrOkWMn3lGSbBxUlbwILoI0NTU5RfzaujKWuHg=w426-h240-k-no,2.0,47,2025-06-11T18:14:07.858Z,comercio
CHEEKY,Tienda de ropa infantil,http://www.cheeky.com.ar/,Rivadavia 2998,,Olavarría,Provincia de Buenos Aires,-36.8926579,-60.3206495,4.4,41,https://lh3.googleusercontent.com/gps-cs-s/AC9h4npExioxrN0w-Xu0bfGVEHwKNHLUCXlOxSAWB5R7wZmOLy6XbhduEmuv0veP57Y6Qe0FkVEGMgbrLXgf1B4UmjOuean9PRVCVq23ilhKnjGhd1UmB84AFMT4iydj7foyh11oG08b=w501-h240-k-no,40.0,46,2025-06-11T18:14:08.275Z,tienda
SAYA,Tienda de ropa,http://www.facebook.com/sayaolavarria,rivadavia y juanxxIII loca1 walmart,+54 2284 41-0520,Olavarría,Provincia de Buenos Aires,-36.8804756,-60.3044289,3.6,42,https://lh3.googleusercontent.com/gps-cs-s/AC9h4nrPgtYTCrZOoDORSynjyIP15AVPL65TCGx2UHNyGHDXjC_QKhnxpWkTy6vY0YdsPWag5Fkw932_ClDI6dD4SKUGFxXqb_VynjVPs3NQ_FnuYE12HQaeAqmcuHr4v9qztfAfHTKx=w408-h408-k-no,18.0,9,2025-06-11T18:14:08.275Z,tienda
A Full-PC,Tienda de informática,https://afull-pc.negocio.site/,Vicente López 2865,+54 2284 55-7696,Olavarría,Provincia de Buenos Aires,-36.8926949,-60.322883,4.8,43,https://lh3.googleusercontent.com/gps-cs-s/AC9h4noTR85RSHk9Syj3wf0HvsijLetX3CHJ9hQg6eGZxtCOXWYLmlmbpVCBdk6gfTh96KweQ-x6A3Alti6-J33DerkWmPYgU7gcElrImUJVC77SmZtwrCLiuT1A32NZlnlNjD_ANsnt=w408-h296-k-no,210.0,45,2025-06-11T18:14:08.275Z,tienda
Maxikiosko Lavalle,Tienda de alimentación,,Lavalle 2715,+54 2284 41-5660,Olavarría,Provincia de Buenos Aires,-36.8922178,-60.3255492,,45,https://lh3.googleusercontent.com/gps-proxy/ALd4DhE6iD0owJ5OLvWko-0kcZEqmcYJPBMGJBOu5kTnZe6by0J4qTuP1IBItPb6j6ngbqi35nkYJ-Cgh9GnivH5aL4QEtUTJRFHmFWzD55XG3ZJYrXkfqbnL-D2xWT0buUd2KbOlWBYqINxz-_nDlolALFcSATu5epi-XPBkc5zGo5HMDVSnul6Rh7qIQEOZVeBYQKdFMM=w408-h306-k-no,5.0,0,2025-06-11T18:14:08.276Z,tienda
Paredes Pesca Camping,Tienda de artículos de pesca,http://www.facebook.com/pescaparedes,Av. Pringles 3946,+54 2284 56-8268,Olavarría,Provincia de Buenos Aires,-36.8903509,-60.3075815,4.7,46,https://lh3.googleusercontent.com/gps-cs-s/AC9h4noLEUbk83czRKwPvKSJBO_55ewljc8yiabIrAQGiEwRS99GnjQetNM3KARZo-wkKeeIcO81bR0Ya-M7SLLmZETqQOiNpEuAJ7LrWtjy5i7dl8PhPc6AO8k3JIjuImMjT9fTC2XS=w426-h240-k-no,9.0,58,2025-06-11T18:14:08.276Z,tienda
Stagoros.veg • Alimento Artesanal,Tienda de delicatessen,https://www.instagram.com/stagoros.veg?utm_source=ig_web_button_share_sheet&igsh=ZDNlZDc0MzIxNw==,Zona Pueblo Nuevo Zona Racing Atletic Club,+54 2284 20-0047,Olavarría,Provincia de Buenos Aires,-36.882949,-60.3260263,5.0,47,https://lh3.googleusercontent.com/p/AF1QipNGfoTTbjlksXOhy6lzXImjpSW6R5sUO2Riezir=w408-h726-k-no,33.0,11,2025-06-11T18:14:08.276Z,tienda
El Secreto Tienda de Vinos,Tienda de vinos,http://instagram.com/elsecretotiendadevinos,Alsina 3299,+54 2284 41-0401,Olavarría,Provincia de Buenos Aires,-36.8892011,-60.3200191,4.6,48,https://lh3.googleusercontent.com/gps-cs-s/AC9h4npqFNHyHNJ03oUbbhM0eVKii0GesHJz3lKWQPj26qXjjlKymJznYaZ8b8zR168LBXJdh2yO7qP7cSwWOffSUuKB5u5hDoCkV-vxFNzdBxsoBFhkjntQshymmKJZWEqwhNO9cTJChQ=w408-h306-k-no,102.0,144,2025-06-11T18:14:08.276Z,tienda
Vidal Amoblamientos Comerciales,Tienda de muebles de cocina,http://amoblamientosvidal.com.ar/,Av. de los Trabajadores 2902,+54 2284 43-0447,Olavarría,Provincia de Buenos Aires,-36.8826226,-60.306437,4.6,49,https://lh3.googleusercontent.com/gps-cs-s/AC9h4nql8bFwMI_xfQHVjVZCReEawzPpabpIMOYLRPjjiS-nHjqwZ_6Teg-dsKmrfscSZy7gn1hjRNNXrQs91OqDMhYzTrLdwTyrdzI5wEZOObE4X69WPHAPV7txGEKn4D2tNjxkevN4=w408-h544-k-no,64.0,123,2025-06-11T18:14:08.276Z,tienda
"""La Casiana Olavarria""",Tienda de productos lácteos,http://www.lacasiana.com/,Av. Colón 2498,+54 2284 67-1534,Olavarría,Provincia de Buenos Aires,-36.8879252,-60.3201289,4.6,51,https://lh3.googleusercontent.com/gps-proxy/ALd4DhFwa4C7rrjAxeZRTahZ3U8Eb8Q-MX_DybYjNZldaX0hchj6lZAx_rBXy_wquba-tWpYzi2kVjUxog1AIyFJ0YWi5GWWUUCrBqeizl1VI2KcE10L-4NX_wbRTu6D9IHlYRWi8G77UppzcAL8SglgWMJWcUGbBxdeUCw7CU6yaU4QuPh6nIS0h9Chjs_T-5_Nyo65l-Y=w408-h306-k-no,10.0,172,2025-06-11T18:14:08.276Z,tienda
Chocolates Venecia,Tienda de productos de chocolate,,Chacabuco 3015,+54 2284 20-0909,Gran Buenos Aires,Provincia de Buenos Aires,-36.8868589,-60.3272589,4.6,52,https://lh3.googleusercontent.com/gps-proxy/ALd4DhE-i8dFQs0-XAi9vNqW0tZ-M91-FqKYuHwY3l-d1-70ZrUgW00L6RVDlCN8QeSSsR5LgKKNgHJvRWxWT2vWG7f3xvzbcxPb16SzxU26bynIHFxDkzBYDbVxQLDzOxYLk95_r-VTfGbBGrmDa4HP_EjDqMhY8AcMVo0spHsCUUJEVly-Suw7RtKFp7gbWelJQWoGHUo=w408-h306-k-no,23.0,56,2025-06-11T18:14:08.276Z,tienda
Milito,Tienda de ropa de mujer,https://www.facebook.com/sherlyn.sherlyn.524,Rivadavia 3179,+54 2284 41-0684,Olavarría,Provincia de Buenos Aires,-36.8912499,-60.3193789,4.4,54,https://lh3.googleusercontent.com/gps-cs-s/AC9h4np2kRuDbKbTTMJsKu2FmCx_wcI-9MYiZCaNB62bLTHLOxWVhQHAsTmxyj8bHdE4Lo-oWjqIOj8ovuqQfW3sErRNQi653gG6rD1gxo927tb0He3vR3ZywgjWdIH12W9uJK1dp2sTvg=w408-h306-k-no,8.0,5,2025-06-11T18:14:08.276Z,tienda
Tienda Fan!,Tienda de ropa infantil,,Cnel. Suárez 1389,,Olavarría,Provincia de Buenos Aires,-36.8854631,-60.3357443,,55,https://streetviewpixels-pa.googleapis.com/v1/thumbnail?panoid=mgOYUB9mF5elHY3sn6ye8A&cb_client=search.gws-prod.gps&w=408&h=240&yaw=47.017597&pitch=0&thumbfov=100,1.0,0,2025-06-11T18:14:08.276Z,tienda
Pinturería y Ferretería El Arco Iris,Tienda de pinturas,http://www.pintureriaelarcoiris.com/,Av. Colón & Riobamba,+54 2284 37-4782,Olavarría,Provincia de Buenos Aires,-36.886465,-60.3217945,4.9,56,https://lh3.googleusercontent.com/p/AF1QipNq-j9aqRrVcO_EKkukf3dCOycy4gjzZktIoAWK=w427-h240-k-no,29.0,47,2025-06-11T18:14:08.276Z,tienda
Tienda De Ropa Iker,Tienda de ropa,,Vicente López 3356,,Olavarría,Provincia de Buenos Aires,-36.8895755,-60.3184799,,58,https://streetviewpixels-pa.googleapis.com/v1/thumbnail?panoid=aAD33XIfzxZT2YcbOm0gPA&cb_client=search.gws-prod.gps&w=408&h=240&yaw=115.741104&pitch=0&thumbfov=100,1.0,0,2025-06-11T18:14:08.277Z,tienda
Karui tienda de regalos,Tienda de regalos,https://www.instagram.com/_karuii?igsh=ODhzNDIwaGZ3ZmF6,Junín 3110,+54 2284 20-1027,Olavarría,Provincia de Buenos Aires,-36.8816838,-60.3319963,,60,https://lh3.googleusercontent.com/p/AF1QipOQ7KQ_eNiH8W-GGaEZNEe4tok0BvgSaY9q3Sxd=w408-h727-k-no,12.0,0,2025-06-11T18:14:08.277Z,tienda
El lago indumentaria,Tienda de uniformes,,Estrada 2854,+54 2284 61-3939,Olavarría,Provincia de Buenos Aires,-36.8856399,-60.311119,5.0,101,https://lh3.googleusercontent.com/gps-cs-s/AC9h4npHdR7GjpoTdECdBxOs7Gr2I7XloPXBbnA1yEKWBjCULih1sYt3lXx0gaiK5eB1ri1WbHMEHcrhd5Yb_JZbxMVqwRFCbv7l5DEPh352fN0Svfz_K5XhVhc-R7pD74btHGe9r98=w408-h408-k-no,8.0,2,2025-06-11T18:14:08.690Z,comercio
Frutas y verduras JONY,Frutería,,Av. Pringles 4210,,Olavarría,Provincia de Buenos Aires,-36.8885761,-60.3052628,,102,https://streetviewpixels-pa.googleapis.com/v1/thumbnail?panoid=MMFnnAL2nK80Q6Rp3ZtyvA&cb_client=search.gws-prod.gps&w=408&h=240&yaw=150.92348&pitch=0&thumbfov=100,1.0,0,2025-06-11T18:14:08.690Z,comercio
Cotillón Celeste,Tienda de artículos de fiesta,,Belgrano 2150,+54 2284 43-1300,Gran Buenos Aires,Provincia de Buenos Aires,-36.888865,-60.3270153,4.6,103,https://lh3.googleusercontent.com/gps-cs-s/AC9h4nruoTDZa2LrZgIFKgJD29aR9ivCsOQil4cy5P89WLtpfCZ69UlKyPcRLhORXJIYLpbjj6oypiZ9GfsQzvt6two8EN7Ea1TURUpdbeuNGTVa2BAUXnzJYl4nDZI7hLDRAyLXkNCy=w408-h544-k-no,9.0,139,2025-06-11T18:14:08.690Z,comercio
Panificadora Cervino,Panadería,,Belgrano 1349,,Gran Buenos Aires,Provincia de Buenos Aires,-36.8832637,-60.3334134,4.7,105,https://lh3.googleusercontent.com/gps-cs-s/AC9h4nqKKD55govd6dgpbw7fKvYDG_JENlcqiwZZngr8jxdazkk6qCv5hOccZs1ASL-5S6bIzHBGZiy9WZC7-yxbrO6a4IS4eucX4eE7KXm4GCsIgOmQXHx7hhQUgpTVyop280K837w=w408-h544-k-no,5.0,81,2025-06-11T18:14:08.690Z,comercio
Casa del Credito,Tienda de artículos para el hogar,https://www.facebook.com/pages/Casa-del-Credito/101839566528760?ref=ts&fref=ts,Av. Colón 2850,+54 2284 44-6548,Olavarría,Provincia de Buenos Aires,-36.8903039,-60.3170167,4.3,106,https://lh3.googleusercontent.com/gps-cs-s/AC9h4nouMDGK4Yn0HYtgv1O5Q83n7wr1CBEwjHGUQpc8nDNbXncsZ1QAY4Ep511kE3ufNlIXBYt39NPr-o30_aZbxW7hqfhmIFdypONswVM_-haGhOn0cU3BPEIUXUyuB_lON9DYy_iZOQ=w408-h544-k-no,4.0,39,2025-06-11T18:14:08.690Z,comercio
Caprichitos,Tienda de ropa,,"Club Atlético Pueblo Nuevo, Belgrano 2144",+54 2284 41-1010,Olavarría,Provincia de Buenos Aires,-36.888808,-60.327044,,107,https://lh3.googleusercontent.com/gps-proxy/ALd4DhGiblSLH9X7r7KJ_bPcL6iGXvfPsmwQ5TjKS8jtLxRwY19DgQ-koNymLKGb2v4ruMlQAhFe7pSpd8_pkBhGUg4P0-It2P2DdqZTE9gd8OzZzk8jFhLd3HdZ78xjKTFlwwzQ3XH0A_VgU97zPCbHRjM33b7jxumO6y3-uaOJ4ODzwWwVrqbhH_1pypfSSEsfp3oKjHs=w408-h306-k-no,5.0,0,2025-06-11T18:14:08.690Z,comercio
Grand - Prix,Tienda de repuestos para automóviles,,Belgrano,+54 2284 42-8088,Gran Buenos Aires,Provincia de Buenos Aires,-36.8865525,-60.3297875,4.4,108,https://lh3.googleusercontent.com/gps-proxy/ALd4DhHRydZ-thLw-f814Sh20C92Tc1jnNC5B8I4UfTELOmqcInxZ0e9a4pklJx5A1jl-r9gQx-qEKe4A__mpnoR34u3U66YW2UN1xidrUEYP3m1ZrxixkoAaoz9wajE4CVI6-PNa0J_c-dCU4PC7-_ZDazgKKb7Q0rzQ1qAsd1OgJjUts9oOKBuv8vaI14YR39oFjkS7Mw=w408-h306-k-no,5.0,74,2025-06-11T18:14:08.690Z,comercio
Lázzaro,Carnicería,,Av. Ituzaingó 2974,+54 2284 45-7308,Olavarría,Provincia de Buenos Aires,-36.884431,-60.330989,4.8,109,https://lh3.googleusercontent.com/gps-proxy/ALd4DhHJK9GBvR_R_DmzsDcmOtIwQ6ArEYwsqa_b62YGgaSghm-R1BIdrV4BvOmlTaZM5f1wHQdmmptjEMfoMpnHrM5SvukPkWqXZ3-5v2f5gswWJ7RkzFDiu7gtTztZHuvKDquDLKjlWlzb6JpyFOtiEBw2SxlBDY6VIYNQp7nkhChNEtAL1Xkqss0kB40Zl9zibUBccw=w408-h306-k-no,5.0,81,2025-06-11T18:14:08.690Z,comercio
Boutique Emma H. Modas,Tienda de ropa,,España 3302,+54 2284 41-8780,Olavarría,Provincia de Buenos Aires,-36.8925216,-60.3155835,5.0,110,https://lh3.googleusercontent.com/gps-proxy/ALd4DhFx4MdcBp39NR2lcT3PBDAzfazvid_MpR-P6fUmp9q4f40gmJJojbhdxX1CGJYyAB0CRxc7yLIyM0eurtYNYUV-5wEzTBHNVss51eBuLoQA0dJgbASn_muOvf8XvGFtQ8HvpXwnB5hoOmeONZUdnlVK-4MoWOEHKQnTfOrFMaIiwXCZnMi_CxYYQPpCmqsh-5BiCA=w408-h306-k-no,4.0,1,2025-06-11T18:14:08.690Z,comercio
Confitería Fernando V,Panadería,,"2700, San Martín 2600",+54 2284 44-5790,Olavarría,Provincia de Buenos Aires,-36.8926054,-60.3235428,4.5,111,https://lh3.googleusercontent.com/gps-cs-s/AC9h4nr_lQBos25lU0dTJTcH4v3nirMzIkCPYg-s_UM6idnJDRxds3upToEU2_AQvNQxkeqovdS_DJ12dGkwDMeDziR9a94vZubBscIFw8iZt6JNC38vVb-7Fl3xtkpB29Rsnp6AQv2O=w426-h240-k-no,52.0,670,2025-06-11T18:14:08.691Z,comercio
Frutería y Verdulería El Negro,Frutería,,Alsina 2876,,Olavarría,Provincia de Buenos Aires,-36.8921588,-60.3232405,,112,https://streetviewpixels-pa.googleapis.com/v1/thumbnail?panoid=cgCFX41JMxUW6RLvV80N8Q&cb_client=search.gws-prod.gps&w=408&h=240&yaw=145.94226&pitch=0&thumbfov=100,1.0,0,2025-06-11T18:14:08.691Z,comercio
Roca Plana,Tienda de ropa,http://www.rocaplana.com.ar/,Vicente López 3201,+54 2284 41-0648,Olavarría,Provincia de Buenos Aires,-36.890499,-60.319896,4.7,113,https://lh3.googleusercontent.com/p/AF1QipM9l2bkw9_QMuN-EuNxap4OCbG3-u8E9vM-LwlT=w408-h306-k-no,24.0,170,2025-06-11T18:14:08.691Z,comercio
Jacoba Urbano,Tienda de ropa de mujer,,Av. Domingo Faustino Sarmiento 2929,+54 2284 41-3540,Olavarría,Provincia de Buenos Aires,-36.8865767,-60.3110553,,114,https://lh3.googleusercontent.com/gps-proxy/ALd4DhHOv0dA-dcWoiGSEYVBxaeX7QBOAgnHOSEP76EvgOT60_Zlejw_EqzP0JROE7r2xazvOb0Vz2DH0JnHHLNKKAV556SuvMXuCN7Tihta5Cit9ZLFByAH84skt2BdvdyMy5ccjhXrIscez6EMhm1n-LDw3NNqxtVsPmVVDrTauqkMcnQNTULkJYDdmmhaWDQiKxONW1s=w408-h306-k-no,4.0,0,2025-06-11T18:14:08.691Z,comercio
Forrajeria El Pampa,Tienda de animales,,Av. Domingo Faustino Sarmiento 2130,+54 2284 62-5807,Olavarría,Provincia de Buenos Aires,-36.8814092,-60.3179388,4.1,115,https://lh3.googleusercontent.com/gps-proxy/ALd4DhEON_lIGTjEult6YYLiZZ1QvXpfU0AAqivYcQEg8hSKO1_HJj2vVd9zPJULyxIujA8eAES6_qQgd376mnc9RX2nKEvXDmxYMpY_OvnVq4eABllTCRijc3o1R63Ivac6SdC-OfCsRphs_cXZAb4m3Hq_GJFJZCCZXAC4IBmcfvcD6QDMrROnxzmhnBIBr7iV_-wO5A=w408-h306-k-no,9.0,29,2025-06-11T18:14:08.691Z,comercio
Carnicería Jesu,Carnicería,,Av. de los Trabajadores 1839,+54 9 2284 51-6092,Olavarría,Provincia de Buenos Aires,-36.8751741,-60.3150483,3.8,116,https://lh3.googleusercontent.com/gps-proxy/ALd4DhGPvAmvK5caHUEjiupEF_bnc7laTFjr-t45QGadvQanR6jM8WXptxkcNB-jQlpo_M6Tiv3R3Ib6SovzPIKmsGpl0LIcr8ONoiNhzeccb1Wa2LT5JwwYLmKeUt7aprJuJKC9V5UmIB6wowslZmRcvmXNo1QfVWJ-OdywUyMmBbUbKYBOgz6Xx0A3qDwKU2lQNhTxCw=w408-h306-k-no,4.0,4,2025-06-11T18:14:08.691Z,comercio
ChurroMania,Churrería,https://instagram.com/churrosolavarria?igshid=OGQ5ZDc2ODk2ZA==,Gral. Paz 2486,+54 2284 59-2165,Olavarría,Provincia de Buenos Aires,-36.8923706,-60.3259669,4.5,117,http://t1.gstatic.com/images?q=tbn:ANd9GcTvAsN5t-n3WaKUmx1CQy2gTuiPli1RQwVZY47UUpsBHuMhv9j9,30.0,8,2025-06-11T18:14:08.692Z,comercio
Kiss me,Tienda de cosméticos,,"Moreno 3132, B7400CYR",,Gran Buenos Aires,Provincia de Buenos Aires,-36.8924104,-60.3186455,,118,https://lh3.googleusercontent.com/gps-cs-s/AC9h4nqUGCSRp6s4XmrFUuvQ6jemJM2KuQlJ5ei8GkbC82Ho7ewdqCcd07CPkXAceSjq7-edk4yL8mcCwd_uUB3onN1DtdWoE_PRGgJbOP62z338b6fEtPp6K3nTSEba4QraQT4Lp7Sx=w408-h544-k-no,2.0,0,2025-06-11T18:14:08.692Z,comercio
Panadería La Esperanza,Panadería,,Av. Colón 1627,+54 2284 30-3553,Olavarría,Provincia de Buenos Aires,-36.8818537,-60.3266262,4.7,119,https://streetviewpixels-pa.googleapis.com/v1/thumbnail?panoid=Pf5pL0bnPpJMyHOSxfcMjg&cb_client=search.gws-prod.gps&w=408&h=240&yaw=57.550392&pitch=0&thumbfov=100,1.0,21,2025-06-11T18:14:08.692Z,comercio
Relojeria - Joyeria Artistica - Plateria Criolla,Joyería,,Rivadavia 3035,+54 2284 44-1920,Olavarría,Provincia de Buenos Aires,-36.8922024,-60.320459,1.0,120,https://lh3.googleusercontent.com/gps-cs-s/AC9h4nqTYS4154SVf58BE8bpM2FfycVQVmIO7OPd5jZt29MxHASxzwZ30jO6YWZsG0AC8A4_qkv98EvC4hj6dGAu7Y-EX5bYZw3f5YvJ_L1iCbSmPuKqBVfvvaNRrDHVynfsDSXWRVk3=w408-h544-k-no,8.0,1,2025-06-11T18:14:08.692Z,comercio
Centro Empleados de Comercio,Asociación u organización,,Moreno 2647,,Olavarría,Provincia de Buenos Aires,-36.8953679,-60.3228953,4.4,1,https://lh3.googleusercontent.com/gps-proxy/ALd4DhEMtFB8RrE6i_Wbdz4MtMQHZDm7QfJeyeSmdFdUf0Y7yeQXe25xzBQyhPfXPJ3vgnRMdCYORy9P8flQB3OT8gbQfgphUMvGs61h8m-GP3s4E3o9YmeTNUjUZSZJMnqdAazeEVGfYID8Djk2vhFLSJobhHdr_gchz7xotf4slZ2p9TBtnULoVLJtDpyV0zr2WMUQ7A=w408-h306-k-no,9.0,112,2025-06-11T18:14:08.761Z,comercio
Minimercado Riccobene,Comercio,,C. Muñoz 4331,+54 2284 44-4816,Olavarría,Provincia de Buenos Aires,-36.8936424,-60.2970224,4.0,2,https://lh3.googleusercontent.com/p/AF1QipPqz_6ryxec2u4WKEr5VKnaCxGhGDz3KNhh2IMj=w408-h305-k-no,49.0,54,2025-06-11T18:14:08.761Z,comercio
Le Utthe,Tienda de ropa,http://www.leutthe.com/,Vicente López 3158,,Olavarría,Provincia de Buenos Aires,-36.8909738,-60.3200587,4.4,64,https://lh3.googleusercontent.com/gps-cs-s/AC9h4nr6romtMYvC3gHQD5DuCiggSmXPwTSDnyO4lGHyl2O6TcwuXDwtdmGKMDB-fg8SNOQgW-grN2vLxri9iGEwOmJUHHsTEwAfKKdlehMoYHpWrFHAYjuWLWP32L7QgDdMPN1aI2AF=w426-h240-k-no,35.0,952,2025-06-11T18:14:09.262Z,tienda
Coldie - Tienda de Juguetes,Juguetería,https://www.facebook.com/coldietiendadejuguetes,Rivadavia 3147,+54 2284 47-7080,Olavarría,Provincia de Buenos Aires,-36.8915005,-60.3195869,4.9,65,https://lh3.googleusercontent.com/p/AF1QipPP4-fk2SlVDuY6FrV8_CayAPA6T-QPhYoEZSeM=w408-h544-k-no,20.0,26,2025-06-11T18:14:09.262Z,tienda
Hernán Cajes,Tienda de ropa,,Aguilar 4402,+54 9 2284 50-8017,Olavarría,Provincia de Buenos Aires,-36.8883814,-60.3022155,,66,https://lh3.googleusercontent.com/gps-proxy/ALd4DhGzH8Qpt9HDEnVHXkWrod51gJTvZIaIHF2PNbA98hi37ynfbQWdjheI9DL2MnJaXJTWILH_oloAtIuHgAfvQAbStqhi8NWFtjq2c6WmzEvE6FHyOPm-3HY0j6vUb7wcYZg_cHnWHIEu_QK-8G8-xx30TteXIXtX3hgBEb54MFIhUbAehpGYPPTrxXrQmC5JAkw44-A=w408-h306-k-no,2.0,0,2025-06-11T18:14:09.262Z,tienda
tienda trostrostrillie,Tienda de ropa infantil,,Cnel. Suárez 1389,,Olavarría,Provincia de Buenos Aires,-36.8854631,-60.3357443,,67,https://streetviewpixels-pa.googleapis.com/v1/thumbnail?panoid=mgOYUB9mF5elHY3sn6ye8A&cb_client=search.gws-prod.gps&w=408&h=240&yaw=47.017597&pitch=0&thumbfov=100,1.0,0,2025-06-11T18:14:09.262Z,tienda
El Palacio de las Medias,Tienda de lencería,,Rivadavia 3029,+54 2284 41-0574,Olavarría,Provincia de Buenos Aires,-36.8922128,-60.3205853,4.5,68,https://lh3.googleusercontent.com/p/AF1QipN4iDpMII2hom27cXQb5-o28X-K25PQWKMU-3DQ=w408-h305-k-no,4.0,46,2025-06-11T18:14:09.262Z,tienda
Laberinto,Mercadillo,,"MOO, Av. Domingo Faustino Sarmiento 2712",+54 2284 55-7617,Olavarría,Provincia de Buenos Aires,-36.8853751,-60.3129737,3.8,69,https://lh3.googleusercontent.com/gps-proxy/ALd4DhFvVsYE8Uitn0tZSL_vz6DC3xsQeYke43QsiKgsdskgwzzJ0ENhHFUd0RrwHcDyQg6pwBdr1Suu4Y3rOB1lQjiFxmlAk2fWySYc4i1sgiG2Wspk6swD-nBdP4_LfpbOgGuVsfHvHwd3I0OhZlVtfF14-xEE5snx28NnYO_zpgpp9jFM9fGSnhv1tTwqGf2NF0h-HQ=w408-h306-k-no,4.0,6,2025-06-11T18:14:09.262Z,tienda
Danger,Tienda de ropa,http://danger.com.ar/,Belgrano 2680,,Olavarría,Provincia de Buenos Aires,-36.8923938,-60.3226021,,70,https://streetviewpixels-pa.googleapis.com/v1/thumbnail?panoid=P-rG2CcySmdgxkmpLHh_vQ&cb_client=search.gws-prod.gps&w=408&h=240&yaw=199.96826&pitch=0&thumbfov=100,2.0,0,2025-06-11T18:14:09.262Z,tienda
Verea Perfumerias,Perfumería,,Rivadavia 3051,+54 2284 44-6055,Olavarría,Provincia de Buenos Aires,-36.892113,-60.320474,4.5,71,https://lh3.googleusercontent.com/gps-cs-s/AC9h4nruVoqnsLlVuVK1adKWADwLKIk8jv6mElKvkudetqQSCtSyyneL7CEOft4bx5Pjun6pgoyx-b-a2rdWPQn9Hk2lwBbz6in7NceU-QgSkkT5nR5V2bLFCZT8mVRhZ52FAJXxalk=w409-h240-k-no,13.0,672,2025-06-11T18:14:09.262Z,tienda
Ana Marsico,Tienda de ropa de mujer,,Necochea 2475,+54 2284 42-8058,Olavarría,Provincia de Buenos Aires,-36.889579,-60.322468,4.6,72,https://lh3.googleusercontent.com/p/AF1QipMnjghRPdRDt9rZrRpg9htEFbqyY0NlFsRjANs5=w426-h240-k-no,9.0,71,2025-06-11T18:14:09.262Z,tienda
ELPRA,Tienda de baterías,http://elpra.com.ar/,Sgto. Cabral 2646,+54 2284 72-8198,Olavarría,Provincia de Buenos Aires,-36.8902259,-60.3203936,4.5,73,https://lh3.googleusercontent.com/p/AF1QipNTUNqgmyZ81-RAEiZ2bStTGllQNJoy8fc9eGc=w408-h306-k-no,28.0,11,2025-06-11T18:14:09.262Z,tienda
DI TASCA,Tienda de ropa de hombre,https://www.instagram.com/ditascaolav/,Vicente López 2881,+54 2284 41-9488,Olavarría,Provincia de Buenos Aires,-36.8925238,-60.3226351,4.6,74,https://lh3.googleusercontent.com/p/AF1QipPLD60HPX4ziuiw-dQ18TpkZmEFTZJRZ80je_iX=w408-h306-k-no,17.0,25,2025-06-11T18:14:09.262Z,tienda
Mimo & Co.,Tienda de ropa infantil,http://www.mimo.com.ar/,Belgrano 2721,+54 2284 24-7477,Olavarría,Provincia de Buenos Aires,-36.8925222,-60.3218931,4.4,75,https://lh3.googleusercontent.com/gps-cs-s/AC9h4nqMR19u9eC1jXX5wbPaAX_oaMkzfBXJvexgIGunckIV08BiREM-GeBfqPej4u6WDZpQmSveDIu03pO2mKvR-RlPpHjevbvkYCIwZtG37UU0st74981aQoLnfqWp_-szUYhXvG1fJA=w408-h306-k-no,5.0,79,2025-06-11T18:14:09.262Z,tienda
Todo Bulón SA,Ferretería,,Cnel. Suárez 1870,+54 2284 42-4735,Olavarría,Provincia de Buenos Aires,-36.888921,-60.3318688,4.7,76,https://lh3.googleusercontent.com/p/AF1QipOZIFwXjj5iGKQHQIErrM7d8uTSXg8cNot0Aheq=w408-h408-k-no,11.0,151,2025-06-11T18:14:09.262Z,tienda
Ale de libano,Tienda de fotografía,https://www.facebook.com/aledelibano/,"Trabajadores y, Aguilar",+54 2284 56-1081,Olavarría,Provincia de Buenos Aires,-36.8874186,-60.3003309,,77,https://streetviewpixels-pa.googleapis.com/v1/thumbnail?panoid=h7JGdQYveEPS_rSaCgep8g&cb_client=search.gws-prod.gps&w=408&h=240&yaw=356.03024&pitch=0&thumbfov=100,1.0,0,2025-06-11T18:14:09.262Z,tienda
Sportia,Tienda de ropa de deportes,https://instagram.com/sportiaolavarria,Belgrano 2482,+54 2284 41-4414,Olavarría,Provincia de Buenos Aires,-36.8910737,-60.3243518,4.5,78,https://lh3.googleusercontent.com/gps-proxy/ALd4DhHxjAO_ecsCEMmxRjO4NuRBdJaB0SOT3JClWsxh6w12EfCyCqgc1Q7pcNMlvo53ageQz0g8V_dizkVV0nd44MrlB_-LL6-uqdJ_wd8uetXAI2suQGMwgiZTRp3REJWXJ6dUdNwhx55ynPCYpxdMiXUTVRYefWFJVlV-QjT9WCoK_JvKuHZ5VHySPXk4FVUa57kP7KE=w408-h306-k-no,2.0,50,2025-06-11T18:14:09.262Z,tienda
Afrodita,Tienda de ropa de mujer,,"CUF, Necochea 2725",+54 9 2284 46-9401,Olavarría,Provincia de Buenos Aires,-36.891222,-60.3204265,4.7,79,https://lh3.googleusercontent.com/gps-cs-s/AC9h4novVc73oQKyuUtN7_trK1lVKams4eDtfPVQBAPfxN4xq8tPk6AvOWh01m86LnqBmUFY6ojQbdCFIcAf6D8jNISm6bIWMyOwePUbRRnJ0uonxRlQfbqLy7r-JQEa3_ikTlhwWwMY=w408-h306-k-no,18.0,11,2025-06-11T18:14:09.263Z,tienda
A Tu Lado Indumentaria,Tienda de camisetas personalizadas,https://atuladoindumentaria2.mitiendanube.com/,Vicente López 2865 Local,+54 2284 47-0932,Olavarría,Provincia de Buenos Aires,-36.8926949,-60.322883,,80,https://streetviewpixels-pa.googleapis.com/v1/thumbnail?panoid=Pn3ObdS8_Jbd6s9YssEGWQ&cb_client=search.gws-prod.gps&w=408&h=240&yaw=324.0788&pitch=0&thumbfov=100,1.0,0,2025-06-11T18:14:09.263Z,tienda
"Carnicería ""Los hermanos""",Carnicería,,Av. Urquiza 4243,+54 2284 58-9589,Olavarría,Provincia de Buenos Aires,-36.8920484,-60.3001909,5.0,121,https://lh3.googleusercontent.com/gps-cs-s/AC9h4nreelFyUtggatTpvqXpkTZGup1G02q8DGyxcgc4sAAGxi9ilHD4tQf1AVd6rimk_g2Te-T76zTbxTAviVxHCccxsTRvS6wIdNydhMrPLBPN6VIRh5cOCBrojHR927nldtzOsMU=w506-h240-k-no,3.0,1,2025-06-11T18:14:09.732Z,comercio
Pañalera Consentidos,Tienda de ropa,,Av. de los Trabajadores 1845,,Olavarría,Provincia de Buenos Aires,-36.8752364,-60.3150477,,122,https://streetviewpixels-pa.googleapis.com/v1/thumbnail?panoid=TTXg-SV7CL2qzZ9NNMvjOA&cb_client=search.gws-prod.gps&w=408&h=240&yaw=69.13502&pitch=0&thumbfov=100,1.0,0,2025-06-11T18:14:09.732Z,comercio
Eyelit,Tienda de ropa interior,https://eyelit.com.ar/,Belgrano 2663,+54 2284 21-6486,Olavarría,Provincia de Buenos Aires,-36.8921396,-60.3226491,5.0,123,https://streetviewpixels-pa.googleapis.com/v1/thumbnail?panoid=Qzcd4-Pd7yjFQfM0qJyrVA&cb_client=search.gws-prod.gps&w=408&h=240&yaw=47.379658&pitch=0&thumbfov=100,1.0,1,2025-06-11T18:14:09.732Z,comercio
Farmacia Soeco,Farmacia,https://www.facebook.com/farmacia.soeco/,"Pueblo Nuevo, Cnel. Suárez 2201",+54 2284 52-0267,Olavarría,Provincia de Buenos Aires,-36.89141,-60.3288383,4.2,124,https://lh3.googleusercontent.com/gps-cs-s/AC9h4npYaXmC_M1yGdFYfjIV-yJB_hnUuJXobypkLHA0w2Bz82o4OidnvCls-M9RE5H_ziZOkIjr2FCDHj9rYi5F-us-xOBJfKKmA9TvMDrFYJwH4Gc9gBpOPYS2Pw_TD8jGzkYtfhIR=w426-h240-k-no,5.0,5,2025-06-11T18:14:09.732Z,comercio
Ciclomoto,Tienda de repuestos para motos,https://www.instagram.com/ciclomoto.olavarria,Av. Colón 1850,,Olavarría,Provincia de Buenos Aires,-36.8835319,-60.3253992,4.3,126,https://lh3.googleusercontent.com/gps-cs-s/AC9h4noRwr5FHHJey3qfooOp4SB_oc7RdOVaV-4OiWCoTMiua0m0ADC0p0aUI97Nb8kLqfiK2KEUrZwUAUjuP7777Oge4UTbDkwT0xJHIlLgFNMtwP-pXoAxxGQ2mNdd63gk6LmpPaxHXw=w408-h544-k-no,2.0,51,2025-06-11T18:14:09.732Z,comercio
Pelotero Carrusel de Fantasias Pura Diversion,Tienda de ropa,,"San Mart n 3050, Olavarr a, Buenos Aires",+54 2284 41-7771,Olavarría,Provincia de Buenos Aires,-36.8844716,-60.3097132,,127,https://streetviewpixels-pa.googleapis.com/v1/thumbnail?panoid=Z6Xebh7PfanT81VLp2ugjw&cb_client=search.gws-prod.gps&w=408&h=240&yaw=48.11429&pitch=0&thumbfov=100,1.0,0,2025-06-11T18:14:09.732Z,comercio
Repostería Casera,Pastelería,,Tacuarí 2817,,Olavarría,Provincia de Buenos Aires,-36.8841374,-60.3338905,5.0,128,https://lh3.googleusercontent.com/p/AF1QipNeZT1z_iduQGCK2cYKiOJM2apQfgJRP4ViwxQz=w408-h446-k-no,67.0,2,2025-06-11T18:14:09.732Z,comercio
Ituzaingó y Rufino fal,Carnicería,,Av. Ituzaingó 4229,,Olavarría,Provincia de Buenos Aires,-36.8763132,-60.3202449,,129,https://streetviewpixels-pa.googleapis.com/v1/thumbnail?panoid=Pdu4jpIFX6vz5ZySYOP7Rg&cb_client=search.gws-prod.gps&w=408&h=240&yaw=135.91843&pitch=0&thumbfov=100,1.0,0,2025-06-11T18:14:09.732Z,comercio
Honda Multimedios,Concesionario de motos,http://www.honda.com.ar/,Hipólito Yrigoyen 3403,,Olavarría,Provincia de Buenos Aires,-36.8925806,-60.3102183,4.2,130,https://lh3.googleusercontent.com/gps-proxy/ALd4DhFJRCTT-XTjhEin4R8RScQwEn7d3sFi3GiSCijL2RG3SJftpeWZZlmoawZP_L1_DkP83k4Sw2FGppuEFmy9UfAmDoCfR3DVpbC8Mlg3TLL5t6_7zkEjzRTlm4Y8FYvNerKY0-l5NyMnAkd4PsPvp-uBGlu056eBc4eTXTmmBHGp0xG180jbGxXVqsKpkszQXN4SOzA=w408-h306-k-no,23.0,65,2025-06-11T18:14:09.733Z,comercio
Dalcros SA,Concesionario de automóviles,https://chevroletdalcros.com.ar/,RN226 Km 297.5,+54 2284 42-1345,Olavarría,Provincia de Buenos Aires,-36.8796115,-60.3015793,4.3,131,https://lh3.googleusercontent.com/gps-proxy/ALd4DhHfW-vI_0FKuI4LehHv2aJca8pDhpo6ZOInifJtrrV9CKLoPbt_vsuKwUZQ896wOHMutFihM4b8yt-_DCO1ZXhAR2IqfrnDINWq3pLN4scDMAjLTlVWoQjxSS5z8Mugy6uZiNWDmSEwSiYOCB2-2ZcWLAT6lDM8ZvCbkSHR8UTaEtIcIwg50mpdC3M0DoAIIv7JDaA=w408-h306-k-no,15.0,42,2025-06-11T18:14:09.733Z,comercio
Kodak,Tienda de fotografía,,Belgrano 2679,+54 2284 57-6053,Olavarría,Provincia de Buenos Aires,-36.8921769,-60.3225391,3.8,132,https://lh3.googleusercontent.com/gps-cs-s/AC9h4nquDOmPFBqDHtu7fRzIVQ0SoVUGto4WDmFQpMiv7DoiTslqENo7XTUQ0SrzD_Xx4F8PICG8RNQKMRbmNHmyHF_x7TrssDSkuKMxl_Nemy3EThWWg-jvF5vPnwu9yrIQuzWPLNaq=w408-h544-k-no,6.0,8,2025-06-11T18:14:09.733Z,comercio
Rotisería Poly,Tienda de alimentación,,Av. Domingo Faustino Sarmiento 2543,+54 2284 20-3055,Olavarría,Provincia de Buenos Aires,-36.8839538,-60.3142306,4.7,133,https://lh3.googleusercontent.com/p/AF1QipNZy8kndOTWjnznDP_r_AFEkGMLE9qDYw3ly3NS=w408-h725-k-no,42.0,14,2025-06-11T18:14:09.733Z,comercio
Carnes Marcelo,Carnicería,,Independencia 3317,+54 2284 42-1926,Olavarría,Provincia de Buenos Aires,-36.8841021,-60.3250574,4.4,134,https://lh3.googleusercontent.com/gps-proxy/ALd4DhFy_i0vuB9tlo3Zj8v1u5dOB6reFpIX5uRUTy9-P0CRRhVuauhYWH_wQqMrsLmV-FXmuoX8BVeswBlporG_ESONRcbxnv3uTYB4qYyCHsh-Z4YMMin6rTOwOhmOgDvqnCDsDAJvaCXZ6ujhjSsIvI_fS9en8oW9pMCnpCk9bcRCBUsCU01m0S__U-KPpaoFldg0Aec=w408-h306-k-no,2.0,36,2025-06-11T18:14:09.733Z,comercio
Hollywood Video Club,Videoclub,,"Club Atlético Pueblo Nuevo, Belgrano 1969",+54 2284 44-6132,Olavarría,Provincia de Buenos Aires,-36.887465,-60.328337,4.2,135,https://lh3.googleusercontent.com/gps-proxy/ALd4DhEQKeuSSxNUVUQ0R6JUx4BrBuUww9yV55TPEsWgcygUWlA89afJpxEf3Z_qiqro3muJI3M7N-jjVNJ0Dol9WGFo9oQBLh1S-gBj9Sell346NZfHctotzl1nnSSue4j_rd7nxaIy4gDT_1iPgsFfYr-4ZlSbDTuXhAW0IA10pTrTjVCWrNl-tv3kEjPSlJkghv2RxH8=w408-h306-k-no,3.0,21,2025-06-11T18:14:09.733Z,comercio
Kegreiss Alfredo,Tienda de repuestos para automóviles,,Cnel. Suárez 1687,+54 2284 45-5068,Olavarría,Provincia de Buenos Aires,-36.8875274,-60.333111,5.0,136,https://lh3.googleusercontent.com/gps-cs-s/AC9h4nrOWLm6QAP8rqOvH2rSQUDLAgWYM-PNIyQxVvRge_nr6zUqSU9XR_EsFX_YBILmE5G9gtqbd94NUQvhBX_SxF4xbWBXdec5Y8jZkdkEcjnZ0MNAJuGcgK2SZX8Fp3SmDjLJrOieNw=w408-h306-k-no,3.0,23,2025-06-11T18:14:09.733Z,comercio
Malibú,Tienda de ropa de mujer,,Moreno 3124,,Olavarría,Provincia de Buenos Aires,-36.8923994,-60.3186009,,137,https://streetviewpixels-pa.googleapis.com/v1/thumbnail?panoid=h-FAjUcL1hYpU1gsjY2JmA&cb_client=search.gws-prod.gps&w=408&h=240&yaw=122.23094&pitch=0&thumbfov=100,1.0,0,2025-06-11T18:14:09.733Z,comercio
La Rocket,Tienda de ropa,http://www.larocket.com.ar/,Vicente López 3046,+54 2284 47-4850,Olavarría,Provincia de Buenos Aires,-36.8916166,-60.3213717,4.6,138,https://lh3.googleusercontent.com/gps-proxy/ALd4DhFg15Hr54Q28GmLiTFvEHQKsVsIJH3Vk2Vp_KuKqnQh3P3SIScUCF19ZEPs4WQZ-Ds0ehIOXmIwOiAzLwfGt857A9A32Q_nMUWIINMahZ4yaWVGvGKVKRzHoC26HjHq_CGoNcFEYcaXPJAf6p1tjrn_r_XQpkg9lzhOcP45O-Rl8q3NDPRa78qauibJucwe5guJzw=w408-h306-k-no,142.0,27,2025-06-11T18:14:09.733Z,comercio
Carnicería Rubencito,Carnicería,,Av. Ituzaingó 2135,,Olavarría,Provincia de Buenos Aires,-36.8900579,-60.338132,,139,https://lh3.googleusercontent.com/gps-proxy/ALd4DhHtkQgliabeqg1cPJqOER1F-4vMHfeNw4PDIMECp25iKfOqbKrmdpkO8d5qdCIXoEpXPtEunWYo23qIRb0kyn_VQ1OkzzhW9VU0TYbhJf_HpV3ZvNJX6IXPhiU6iaQi5JfDzbraRytr_-KUvobGuNa8KBRbuplGG3Mo4Ci2YTiHv9NKcy1onBBzDGAPC_2DRaDvGT0=w408-h306-k-no,3.0,0,2025-06-11T18:14:09.733Z,comercio
Triple X Lulu,Tienda de ropa,https://www.facebook.com/showroomtriplexlulu?mibextid=ZbWKwL,Necochea 2653,+54 2284 26-9706,Olavarría,Provincia de Buenos Aires,-36.8907827,-60.3209243,5.0,140,https://lh3.googleusercontent.com/p/AF1QipNF4DyAZVXM1E_MIJH7s7UKzN2VZj4CuKRA0IMJ=w408-h408-k-no,3.0,1,2025-06-11T18:14:09.733Z,comercio
PERFECT SOUND audio Car,Tienda de equipos estéreo para automóviles,,Belgrano 2151,+54 9 2284 61-3229,Olavarría,Provincia de Buenos Aires,-36.8886547,-60.3268404,4.8,81,https://lh3.googleusercontent.com/p/AF1QipOAPfLyB1GHf9REPOXELI_FRbHm4fY6qG5wt9W7=w408-h306-k-no,59.0,44,2025-06-11T18:14:10.307Z,tienda
Refrigeración Julio,Supermercado de muebles,,Rivadavia 4401,+54 2284 42-3596,CVQ,Provincia de Buenos Aires,-36.8828941,-60.3089244,4.5,82,https://lh3.googleusercontent.com/p/AF1QipNpw5QlYIouKHq1B6od2Z-s7g4T1oynOJ0Ph1W6=w408-h306-k-no,57.0,24,2025-06-11T18:14:10.307Z,tienda
Mirame y Vestite,Tienda de ropa de mujer,,Rivadavia 3112,+54 2284 41-3715,Olavarría,Provincia de Buenos Aires,-36.8918131,-60.3196437,4.2,83,https://lh3.googleusercontent.com/gps-proxy/ALd4DhEo7SczGRu_8oySNQhSaIyHC2Ogu_hbZEvZvg4jaleAnP6kG-QWLEeG3ECVfqTHQRbtUGvVWJ_8NSpOlLZ3SaT65iVNsdF0FiuYM_uRplzwIjUGO8Yacmtqf2cPZ2xyWzlWJG6O6VGemAWwHhNgFQGH9qmgMzPLwVbKuAddyx4sxaXUgWMuneMvCHYZtNYEOM5oFeQ=w408-h306-k-no,2.0,15,2025-06-11T18:14:10.307Z,tienda
TORO'S. .. ACCESORIOS PARA VEHÍCULOS,Tienda de repuestos para automóviles,http://www.facebook.com/accesoriostoros,Av. Pringles 4498,+54 2284 34-0090,Olavarría,Provincia de Buenos Aires,-36.8867557,-60.3030114,4.0,84,https://lh3.googleusercontent.com/gps-cs-s/AC9h4noUt-U8WtH82EIPO7-j1isz8v38Ge46rfJKPvx36Fc-Q-zrxEfyDvwNif2y-Oel91VX4zHf_Ha3ULi0_edqAZC9aFFM3Yfhpk1-FrWSKBnCq6O9BYB_JquxSy9ppjBIsWUFkLZp=w408-h306-k-no,651.0,8,2025-06-11T18:14:10.307Z,tienda
Yagmour,Tienda de ropa de mujer,http://www.yagmour.com.ar/,Belgrano 2737,+54 9 2284 60-6928,Olavarría,Provincia de Buenos Aires,-36.8927016,-60.3219049,4.8,85,https://lh3.googleusercontent.com/p/AF1QipNeyoeOthfFC4YBRFDeOl4EQ5NqNYVvbunGgfrB=w408-h317-k-no,8.0,13,2025-06-11T18:14:10.307Z,tienda
Amoblamientos Comerciales,Tienda de muebles,,Lavalle 2891,,Olavarría,Provincia de Buenos Aires,-36.8912335,-60.3241892,,86,https://streetviewpixels-pa.googleapis.com/v1/thumbnail?panoid=nu5K4llAxXX4vBr7M0bHfw&cb_client=search.gws-prod.gps&w=408&h=240&yaw=288.08585&pitch=0&thumbfov=100,1.0,0,2025-06-11T18:14:10.307Z,tienda
Modas Graciela,Tienda de ropa,http://www.facebook.com/modasgraciela,Necochea 2769,+54 2284 44-1977,Olavarría,Provincia de Buenos Aires,-36.8915461,-60.3200809,4.7,88,https://lh3.googleusercontent.com/p/AF1QipNvHFD-i5kIdjbLjC7o_5lWm34dXKjiudlakDb3=w408-h725-k-no,159.0,21,2025-06-11T18:14:10.307Z,tienda
Alay Deportes,Tienda de ropa de deportes,https://alay.com.ar/,Chacabuco 3267,+54 2284 53-7317,Olavarría,Provincia de Buenos Aires,-36.8852231,-60.3252433,5.0,89,https://lh3.googleusercontent.com/p/AF1QipPlXK7a-EwXiHl42Ti93zzhwPpwNlhAGqYo96ul=w408-h611-k-no,20.0,12,2025-06-11T18:14:10.307Z,tienda
Ferretería Todo Casa - Grupo Gaona,Tienda de herramientas,https://www.facebook.com/todocasa.olavarria,Rivadavia 3225,+54 2284 41-4488,Olavarría,Provincia de Buenos Aires,-36.8909474,-60.3189644,4.6,90,https://lh3.googleusercontent.com/gps-cs-s/AC9h4nqmxVCXl_Nkqh7_TGo8mkdECmeaJObMBaOtm7w3vlaqZajrx3TX6xXfo1_k7bcnf7eWc2oGQc0wjR6vg2oYDxXQCdR4fkCuPOPrube71QdQZ4BfaUy9WfVqKUslYfvcfa-QHTur=w408-h544-k-no,43.0,532,2025-06-11T18:14:10.307Z,tienda
Librería Juguetería Génesis,Librería,,"Club Atlético Pueblo Nuevo, KJV Olavarría Buenos Aires AR, Cnel. Suárez 2030",+54 2284 41-4551,Olavarría,Provincia de Buenos Aires,-36.8900345,-60.3304868,4.4,91,https://lh3.googleusercontent.com/gps-proxy/ALd4DhHr6D1LsyY9B_xWbvuwn_YxXEQEFpmE0kZesyumx-JhZFnr--HqoysgRntMtxKpBmQUF6UqmYBoY9c4uWsFT7hT36T9Qz_oz48UaRKTyafa0oAiki_OpVC5CfUQ1jMhUKBsj4HtrP5EbIjPSCJfYv2ZVMhP7TVmhaJ9Jwl-7rPTtoW0qO7krkSoqx1GMqnEUqHSeVU=w408-h306-k-no,4.0,34,2025-06-11T18:14:10.307Z,tienda
Juntos los Dos,Tienda de ropa para bebés,,Alvaro Barros 2433,,Olavarría,Provincia de Buenos Aires,-36.8880077,-60.3210903,4.0,92,https://lh3.googleusercontent.com/gps-cs-s/AC9h4npVqTn5XlfQkLaQt-vU6VcH7tw0HIDGdxicw_1a1pn6kQuQu0qTMuTZd1ZYR-dbfQyekYBsnxvwN5JT0ZZUCresndSCfl-4ovEVILxm0hJ2qWb9uLKauyS8gn0y9_2hNoBPwfs=w408-h306-k-no,12.0,3,2025-06-11T18:14:10.308Z,tienda
Suspensión Olavarría de María Cristina Corvi,Tienda de repuestos para automóviles,https://www.facebook.com/Suspension-Olavarria-de-Maria-Cristina-Corvi-103690851087679/,Vicente López 3580,+54 2284 44-0838,Olavarría,Provincia de Buenos Aires,-36.8880487,-60.3166086,4.8,93,https://lh3.googleusercontent.com/gps-cs-s/AC9h4nqB7GWoxdL7zbHmHZBAaKSI1ruBNUnMv_UdjuWux-wSnluwmoZFdnl8DISRQVPBkc9-JGkGMEmKjc122e-BtNvBbmw4joWkjDbiW7ElyaCSTgW9cv7kB9hFTTXLniRYBK-lCEf90g=w408-h613-k-no,63.0,47,2025-06-11T18:14:10.308Z,tienda
"Mami, que me Pongo",Tienda de ropa para bebés,,Av. Urquiza 4389,,Olavarría,Provincia de Buenos Aires,-36.8913036,-60.2992008,,95,https://lh3.googleusercontent.com/gps-proxy/ALd4DhG-2qEIQKaRmDK5wpU_k77FV-kJNV3zltarxSFeZk5BWACqO3yOdEyA-A4TM6wWvCTAd2JFEfsjGxMp4r91hh3HY73g97JqN8KeY2K7KRU429W1TKcw0CaH_UfELOUpXYmGYM9xvHPQnFKRlD2tLnzhLco6W-9KY3cD8xtAq-X8C3w9MpfJlIdnfaX3oLfo6U50Yn0=w408-h306-k-no,2.0,0,2025-06-11T18:14:10.308Z,tienda
Mujer y Hombre de Hoy,Tienda de ropa de deportes,https://www.instagram.com/mujeryhombredehoy/,Chacabuco 2556,+54 2284 22-2879,Olavarría,Provincia de Buenos Aires,-36.8900648,-60.3308393,4.8,97,https://lh3.googleusercontent.com/p/AF1QipOea2fDWMeeFGmQ9JjQtFe72JTRUvR4Bs2UbtBR=w408-h507-k-no,3.0,5,2025-06-11T18:14:10.308Z,tienda
Ocean Indumentaria,Tienda de ropa de deportes,,"Club Atlético Pueblo Nuevo, Cnel. Suárez 2036",+54 2284 42-7342,Olavarría,Provincia de Buenos Aires,-36.8900438,-60.3304329,,98,https://lh3.googleusercontent.com/gps-proxy/ALd4DhFOD_5yErP7nQLbghI1TaYMH3H_DGySE0Hn27zuRaDSoDC0Z-l9xysIFPn2qpbiDt6SG4FFThfY3P0MO-7KsDwQqPjStaGLdYHaHInBtBoOXITG0TWpYVUQjprNxU9-TZJ9DDsAGGYhAxdjKlKAy1xlgzOmDYWIp2LAmeDsUE_SXp1GRhg2WJTCmjZsLNTTDtYUfg=w408-h306-k-no,3.0,0,2025-06-11T18:14:10.308Z,tienda
Rever Pass,Tienda de ropa de hombre,http://www.reverpass.com/,Necochea 2859,,Olavarría,Provincia de Buenos Aires,-36.8921172,-60.3193155,4.0,99,https://streetviewpixels-pa.googleapis.com/v1/thumbnail?panoid=VuY9v9UCzEZ4kvR0htFMjQ&cb_client=search.gws-prod.gps&w=408&h=240&yaw=38.275475&pitch=0&thumbfov=100,1.0,1,2025-06-11T18:14:10.308Z,tienda
Muebles a medida en melamina,Tienda de muebles de cocina,,,+54 221 668-8993,Olavarría,Provincia de Buenos Aires,-36.887157,-60.3369556,5.0,100,https://lh3.googleusercontent.com/p/AF1QipND1-r3kNMb57i4sMsCDdOGqbu1lnBYWmiRDuMb=w408-h544-k-no,50.0,1,2025-06-11T18:14:10.308Z,tienda
Pintureria del Sur,Tienda de pinturas,,Av. Pringles 3917,+54 2284 39-9277,Olavarría,Provincia de Buenos Aires,-36.890227,-60.308145,5.0,141,https://lh3.googleusercontent.com/gps-cs-s/AC9h4nqn2_bQ-25tlchEIBoSAOtkg-Fv1pGYzSGL7tZD1kPEj7t3333IxX73GSaUSXOdEj5KVBVk5fhkW8Fghbwo0eW3LJUiGfrt3gVD_xmUcLNiN6_IFcYiRNkp25tXkahLHWdBsaM=w418-h240-k-no,4.0,2,2025-06-11T18:14:10.658Z,comercio
Garrison Cervecería,Tienda de cerveza,https://www.facebook.com/Garrison-110844390372799/?modal=admin_todo_tour,Cnel. Suárez 2401,+54 2284 24-7661,Olavarría,Provincia de Buenos Aires,-36.8926774,-60.3267724,4.3,142,https://lh3.googleusercontent.com/gps-cs-s/AC9h4npjpgC976P71_AfEwcsOM54lwL2d19DR2K358o42BU_pcLMLl9trrYtd-5bnQq80XHj9VUCZOhgpVncuB0ZWDsFowFX7NEpXlxtgFX9STZtMjk6xBtaetkIaepgIRm0A2xQlfo=w408-h306-k-no,140.0,494,2025-06-11T18:14:10.658Z,comercio
Las Julietinas,Tienda de ropa de mujer,,Vergara 2715,+54 2284 42-8415,Gran Buenos Aires,Provincia de Buenos Aires,-36.8911633,-60.3268272,,143,https://lh3.googleusercontent.com/gps-proxy/ALd4DhEwYAb_R7N8t5RKgG2xs_AyBgG1h6DEmWb2atgxB_1LwdaXIewl2lBSAnEpg0VEsYpX7i6_X5ahOA2a8BWhx4ai2zqN0aksDl9UdqUA-PjJzKUQ7pv4ewl2Wqlw6vxlBO1s3ycEF0vOh8Zm8U2AQSoxU6bzZ2Iy2fVkZJ8kpsi8gQqwZabEbcvWE0ahdAZ4HJZxwgs=w408-h306-k-no,4.0,0,2025-06-11T18:14:10.658Z,comercio
Materiales perez,Tienda de materiales para la construcción,,Av. Alberdi 3858,+54 2284 57-6225,Olavarría,Provincia de Buenos Aires,-36.8745218,-60.3280491,,144,https://lh3.googleusercontent.com/p/AF1QipMeP5u36UVbX0G2nkGb-dpvvfiRR1MM0jSqwVCo=w426-h240-k-no,4.0,0,2025-06-11T18:14:10.658Z,comercio
Vieja Torre,Cafetería,https://instagram.com/vieja_torre,Av. del Valle 1050,,Olavarría,Provincia de Buenos Aires,-36.8861432,-60.3421573,4.7,145,https://lh3.googleusercontent.com/gps-cs-s/AC9h4nqQFRB2QSqHtu_q27oKKIZ7q3deU0tSgTqG6XLI-ihgrPkbK9vCQLNBfcg3CiFpBXjzDKyS51k7zWItyLy4swfTJxdSm30JD1UeiMnLIHs-EK6PpgkOtGiGMNpG4OooR1cCsFLN=w408-h544-k-no,7.0,7,2025-06-11T18:14:10.658Z,comercio
"FONOAUDIÓLOGA, Palomeque Eugenia",Tienda de audífonos,,Sgto. Cabral 2959,+54 9 297 514-0248,Olavarría,Provincia de Buenos Aires,-36.8921063,-60.3175885,5.0,146,https://lh3.googleusercontent.com/gps-cs-s/AC9h4nofgsF96HykjLmjEO8GZdHSXSAQVJqJ-oAKbejj_MQDrhWUXoQK_4B5D-yXou_JZzDpVTPjTNfXAcX7xapaO9NtPzr1veMBmQ-3dmEC9kVUUazg-TjHLPIyHRsfDIGKd4dhFHo1PA=w408-h408-k-no,11.0,27,2025-06-11T18:14:10.658Z,comercio
Perfumería Luna,Perfumería,,Necochea 2178,+54 2284 72-3587,Olavarría,Provincia de Buenos Aires,-36.887709,-60.3251812,,148,https://lh3.googleusercontent.com/p/AF1QipOcGo27SL66pxcStFZbaaaDq42g-vQwlKfMwTwi=w426-h240-k-no,3.0,0,2025-06-11T18:14:10.659Z,comercio
luleå Olavarría,Tienda de ropa,https://www.instagram.com/lulea.olavarria,Sgto. Cabral 2465,+54 2284 53-5016,Olavarría,Provincia de Buenos Aires,-36.8888021,-60.3217271,,149,https://lh3.googleusercontent.com/p/AF1QipN5ZI5Sxl-ktOVMUN5EZLWhcg470VTWRsPzIt_F=w408-h511-k-no,19.0,0,2025-06-11T18:14:10.659Z,comercio
Farmacia Magistral,Farmacia,,Av. Domingo Faustino Sarmiento 2919,+54 2284 43-1313,Olavarría,Provincia de Buenos Aires,-36.8864416,-60.3112349,4.8,150,https://lh3.googleusercontent.com/gps-cs-s/AC9h4npN6xtM9uSiiaNS8eNT907QQny2A0FXfkebPn9wvWE9g0_4CjB-kTpmuWuRIBL6jXxCoxwXGme_xxcFLLd4JjKhHzuoi8edMLLYW6U9CknGF6_x_eTAPBrBrFSTr1eFAs5g1zwG=w426-h240-k-no,6.0,156,2025-06-11T18:14:10.659Z,comercio
Tatto Fabiana,Estudio de tatuajes,,Grimaldi,+54 9 2284 20-3157,Gran Buenos Aires,Provincia de Buenos Aires,-36.8910811,-60.2993964,5.0,151,https://lh3.googleusercontent.com/gps-proxy/ALd4DhECiRsBS2FeLHN9R9Fh9xGfArxkANaHn8lcEpXTNf0LGvYPPzyl7nnhqkQ_kbfy3Zgo_GQLm91u_OWvNk_prEjxGX3dv1OpJ2H1k_M-z8T0th-Atzcs6eNiChpM_HVt1n_3-8gvE27s3ArDaPkqAtpbPJ0KN7tO0rX3nfeNr990qNwJq9EOvq1K8-wdZWGwGbDPMeU=w408-h306-k-no,2.0,1,2025-06-11T18:14:10.659Z,comercio
Motos Minnig Yamaha Olavarria,Concesionario de motos,http://www.motosminnig.com.ar/,Av. Colón 2695,+54 2284 42-0788,Olavarría,Provincia de Buenos Aires,-36.8889775,-60.318067,4.5,152,https://lh3.googleusercontent.com/gps-proxy/ALd4DhHYcNLjyihrBUMRxtJSR2VI5q9ZJFpyVDOJwdZAZLWMAHtUAzzi-DarQ-U5UTNfkHKbpVixjbkr_XVLl0FsSWdwLDVV9FSSvopGdnTem0H8pjLPvxPfQnb0HgdT6CSSVsUfcK79EOonnayn2pyO560-CaY68mZhr4e7lrs8Zb6HTQ2A8gQARQhkNsvxGAqWxi73OA=w408-h306-k-no,179.0,136,2025-06-11T18:14:10.659Z,comercio
Mariano Tattoo,Estudio de tatuajes,,Dorrego 2732,+54 9 2284 20-3682,Olavarría,Provincia de Buenos Aires,-36.8921316,-60.3213601,4.7,153,https://lh3.googleusercontent.com/p/AF1QipN0zyGsmjBovMOfk6_pkfmm_4SD3qCkR04XIoUl=w408-h725-k-no,373.0,72,2025-06-11T18:14:10.659Z,comercio
La Estrella,Tienda de pasta,,"KWH Olavarría Buenos Aires AR, Belgrano 2424",+54 2284 42-5294,Olavarría,Provincia de Buenos Aires,-36.8907277,-60.3246638,4.5,154,https://lh3.googleusercontent.com/gps-proxy/ALd4DhHHsg_A3VuI7N8uSDOznWmC6QLmx3exLpd1VD957UVkWAuiWuKia3G5d74RnAV8oIt3krGCoCXiRQxslRBNHRY7_raGTauPpj6iFCLZ7FwfCz1PscRN_V1AH_szMmkxT8FkokDYo4UZKO7Wnj2py_fQ-Lr_Id_65Je6W1ZEi8tNtfT6nWsC4YQ-0w-0iGZZE5nbnF0=w408-h306-k-no,2.0,10,2025-06-11T18:14:10.659Z,comercio
Farmacia Martinez,Farmacia,,Av. Colón 3172,+54 2284 44-5641,Olavarría,Provincia de Buenos Aires,-36.8923554,-60.3144734,4.6,155,https://lh3.googleusercontent.com/gps-cs-s/AC9h4nqKnaUp2r_9K9G1xmkStSpvhZQ0stb9utkAa96_401I6pRA3BL5OZqUZbTsB3rVXvkqNUlIXUaHNADn8jnjq2nTofON7ffIQcoCWmuWgB6rs6ePH_spBKGw74u8RdR86PG1pek2=w468-h240-k-no,4.0,10,2025-06-11T18:14:10.659Z,comercio
Ferar Accesorios,Tienda de repuestos para automóviles,https://instagram.com/ferar_accesorios,Av. Colón 1670,+54 2284 53-0580,Olavarría,Provincia de Buenos Aires,-36.8823135,-60.3269122,5.0,156,https://lh3.googleusercontent.com/p/AF1QipOd87_e-RuqiJKC7QmaEYoak2gWtLg7YH9WmV_m=w408-h306-k-no,65.0,1,2025-06-11T18:14:10.659Z,comercio
Daniel Minnig Motos,Concesionario de motos,,Av. de los Trabajadores 3490,+54 2284 58-1314,Olavarría,Provincia de Buenos Aires,-36.8865081,-60.3016442,4.9,157,https://lh3.googleusercontent.com/gps-proxy/ALd4DhH_AAxEVLB7S3ezzjMX7tRqiCSxn69ZE6rIi2Xlh7uv9XDwp_y77lEhMwGGWCBYeFe9oJ2y5MKaFAPqGW5RssG-qyfLyXmV6JZu59DNRjgVvNHohdx90wq51c5DU-XXs81cPwRBkTzL8X-Xwx8dg3uBGWNOtWc23cdE85wUzc9KKMkZO0joITG4FPkRolshNitxGcM=w408-h306-k-no,15.0,9,2025-06-11T18:14:10.659Z,comercio
Motos Riders 1 - de Luis Pedersen,Concesionario de motos,,San Martín 1799,+54 2284 44-5588,Olavarría,Provincia de Buenos Aires,-36.8870784,-60.3307936,,158,https://lh3.googleusercontent.com/gps-cs-s/AC9h4nqcYXF811SGbFKjEqsKe-MRCfCUmibxGgnKamOYTPXVjshsSCZ4U_GKXGg8XmaS8lo9nuYEdczWhp3KZfVDLsidt94-8fdBfG5vdGNCZz8En8PXNSyrWZ08c1L_kJsbYpaSXkVW=w408-h306-k-no,2.0,0,2025-06-11T18:14:10.659Z,comercio
Curiosas creativa,Taller de costura,,,+54 2284 72-4247,,,-36.8596106,-60.2870294,,159,https://lh3.googleusercontent.com/p/AF1QipO9vzQt7jJRvC_zWGxXKj68X8aG2SM00PtPjAZy=w408-h541-k-no,36.0,0,2025-06-11T18:14:10.659Z,comercio
Casa Silvia (PIO V),Tienda de artículos para el hogar,http://www.casasilvia.com/,Los Gladiolos 4135 PIO V,+54 810-222-2424,Olavarría,Provincia de Buenos Aires,-36.9075147,-60.2776469,4.5,19,https://lh3.googleusercontent.com/p/AF1QipOiG7ATaCrMxP8699Dtu6JEhnAvr9XMmwv6qt5g=w440-h240-k-no,36.0,51,2025-06-11T18:14:10.808Z,venta online
"Gomeria ""La Esquina""",Tienda de neumáticos usados,,"Bartolomé Mitre 1604, B7400HNF",+54 9 2284 20-2402,Olavarría,Provincia de Buenos Aires,-36.8786054,-60.3229514,4.5,101,https://lh3.googleusercontent.com/gps-cs-s/AC9h4nqK6d_PkWX8UZYB4IRYBxS6_nlHDguPSOTNjRBoo2YnF0rlvcud_mrlAUoAAsFkJod71ipz1KbIfX25a_FAoC1NBrMJnPanEehFeBGJGDLFJ28unzAaD2h8csWo5pwfa-VAeuE-=w408-h544-k-no,2.0,36,2025-06-11T18:14:11.253Z,tienda
Foto Club Olavarria,Tienda de fotografía,https://m.facebook.com/fcolavarria/?locale2=es_LA,Alsina 2937 7400,+54 2284 41-3686,Olavarría,Provincia de Buenos Aires,-36.8914349,-60.3230121,4.7,102,https://lh3.googleusercontent.com/gps-cs-s/AC9h4nrxTF8cmZ49bFbz7pSPX7FTmw9kPt2JLL7ahB379Pfh8vU-mA-vwz0rJM3xmtWxSqaymjQQQQDOtxNYbnSmfysdU_P5zI_nE-P_uQoyrvWVfnJMZiQisvpuTcKfqsJtv6_hSkRo=w408-h544-k-no,26.0,30,2025-06-11T18:14:11.253Z,tienda
Uniformes Mel,Tienda de uniformes,https://www.facebook.com/uniformesmel,Av. Colón 2214,+54 9 2284 58-7117,Olavarría,Provincia de Buenos Aires,-36.8860299,-60.3223505,4.8,103,https://lh3.googleusercontent.com/gps-cs-s/AC9h4nqVGkUcf3xjt38zWsr8CyJpy4Zs-BZ2ErO1aN8AQF9COAL_-RiiEURw16WjiC0tcpPmSAb9ycLY-n8695OD6O62bNXFVFGYXNPN-H7iENYkYyJdw439BaJ_QhncvnbnpFpQ5rzW=w408-h544-k-no,69.0,20,2025-06-11T18:14:11.253Z,tienda
Guido Radio,Tienda de electrodomésticos,https://www.guidoradio.com/,Rivadavia 3142,+54 9 2284 63-4912,Olavarría,Provincia de Buenos Aires,-36.891689,-60.3194625,4.4,104,https://lh3.googleusercontent.com/p/AF1QipNzZUpz2MPGyCVz95YgddnxJxIylEvgM_wyQtO-=w408-h306-k-no,10.0,62,2025-06-11T18:14:11.253Z,tienda
Puntoescondidoo,Modista,,Deán Funes 4199,+54 2284 22-2972,Olavarría,Provincia de Buenos Aires,-36.8919117,-60.3016093,5.0,105,https://lh3.googleusercontent.com/p/AF1QipNZO2yEIDlN8pF19XR1eNTFtDvgZ37XiVGmGxPb=w410-h240-k-no,33.0,7,2025-06-11T18:14:11.253Z,tienda
MACANITAS OLAVARRIA,Tienda de ropa infantil,https://www.instagram.com/macanitasolavarria,Belgrano 2679,+54 2284 60-2922,Olavarría,Provincia de Buenos Aires,-36.8920956,-60.3224023,5.0,106,https://streetviewpixels-pa.googleapis.com/v1/thumbnail?panoid=Lsn5Z9HIVfOojoSu2bJ9fA&cb_client=search.gws-prod.gps&w=408&h=240&yaw=49.838516&pitch=0&thumbfov=100,1.0,1,2025-06-11T18:14:11.253Z,tienda
Las Casuarinas,Tienda de ropa de segunda mano,https://www.gurugo.com.ar/fichas/las-casuarinas_17057148,Alvaro Barros 2939,+54 2284 47-9017,Olavarría,Provincia de Buenos Aires,-36.8913575,-60.3169229,5.0,108,https://lh3.googleusercontent.com/p/AF1QipOXZXCnkBuxBExihSGja2bObvbpNAEwN6We4WXk=w408-h725-k-no,82.0,8,2025-06-11T18:14:11.253Z,tienda
Gomeria Sarmiento,Tienda de neumáticos usados,,Av. Domingo Faustino Sarmiento 3781,+54 2284 42-0080,Olavarría,Provincia de Buenos Aires,-36.8922392,-60.3039701,4.4,109,https://lh3.googleusercontent.com/gps-proxy/ALd4DhHqwzqbUY9ZsF2lcEeaqipQNhCcEpEvhnzIeJF-tmgAZWbs2zEPStxKt3TWPUZn03oOh8C8pUGLiNi3zhgyoqqyEJSTwwOTf5oh9Ggq8xegF3IjEv2_D0WTn_oIZLxCpXt2dZ592rzpPheAdEAyyks0fYkf1-NDg5OIW7DDL4UhDELCAY8Zwst0crnwGogjMZrpiw=w408-h306-k-no,4.0,188,2025-06-11T18:14:11.253Z,tienda
Muna babys and kids,Tienda de ropa para bebés,,Rivadavia 3172,,Olavarría,Provincia de Buenos Aires,-36.8915532,-60.3191966,,111,https://lh3.googleusercontent.com/p/AF1QipNAEUnOjkifGx9183NEmwzJa160JvY9g2TCwj8-=w408-h544-k-no,27.0,0,2025-06-11T18:14:11.253Z,tienda
Foto Merlos Kely,Estudio de retratos,,Belgrano 1920,+54 2284 42-2401,Gran Buenos Aires,Provincia de Buenos Aires,-36.8873675,-60.3288221,5.0,113,https://lh3.googleusercontent.com/gps-proxy/ALd4DhFF4ODMx-u6ZLp2dsO8n0DlawBZ-PHeXvEmhyPh_KBEm0z9wiwmvSc-a1miPJmYMELa1ppys4xcJzDm-fjywiXn4Of59uYWG3JGD-LTSwHEZfF9aDR5SgSxtT3V5_w9_J7a209So-exSyx-g32e4XFurffAAd5nnD0FIVbGnuwpfRA6shM9gtNBnSASg7e050FUwGk=w408-h306-k-no,6.0,2,2025-06-11T18:14:11.253Z,tienda
Hiupi Babies & Kids,Tienda de ropa para bebés,,Vicente López 3050,+54 2284 53-6907,Olavarría,Provincia de Buenos Aires,-36.8914781,-60.3211567,5.0,114,https://lh3.googleusercontent.com/gps-cs-s/AC9h4nrpnDidww8J2YRjMadOTd2KizCstiHCZ0_qAbKU1MQk2JzsvzWFqSD5xE1tNjqjRtx94hkDBb2KFHeEGFEKW0l8xwIG8UZcSTsowZSSsPWX3jlP0nqxwyD3yCNcYwu0XxqW--s=w408-h387-k-no,5.0,5,2025-06-11T18:14:11.253Z,tienda
La Impronta,Tienda de sofás,,Necochea 2859,+54 2284 48-7273,Olavarría,Provincia de Buenos Aires,-36.8921576,-60.3192762,5.0,115,https://streetviewpixels-pa.googleapis.com/v1/thumbnail?panoid=VuY9v9UCzEZ4kvR0htFMjQ&cb_client=search.gws-prod.gps&w=408&h=240&yaw=59.3799&pitch=0&thumbfov=100,1.0,3,2025-06-11T18:14:11.253Z,tienda
Kilmes sillones,Tienda de muebles,,Alvaro Barros 2708,,Olavarría,Provincia de Buenos Aires,-36.8900833,-60.3189389,,116,https://streetviewpixels-pa.googleapis.com/v1/thumbnail?panoid=Crz7AR6BM9BKD7taTLm7rQ&cb_client=search.gws-prod.gps&w=408&h=240&yaw=220.758&pitch=0&thumbfov=100,1.0,0,2025-06-11T18:14:11.253Z,tienda
Tapiceria Volonte,Tienda de telas,,San Lorenzo 3495,+54 2284 42-9690,Olavarría,Provincia de Buenos Aires,-36.8823539,-60.3248212,4.7,117,https://lh3.googleusercontent.com/gps-cs-s/AC9h4nrBC6jtEK13dMY5-SVX-8K-cxrEQqhRhWccDTo9x-Q5_jzI-I5YD11QMZrX6UWZOtUeAWjFfoP782_i6AeHvmNLYkwk6AfvsqNapAwu5V8X87DwpdnnToW6-KRzWLhHa0LVja2D-Q=w408-h884-k-no,8.0,28,2025-06-11T18:14:11.253Z,tienda
"Mimitos, ropa de bebé y niños",Tienda de ropa para bebés,,Av. Domingo Faustino Sarmiento 2918,+54 2284 61-0639,Olavarría,Provincia de Buenos Aires,-36.886659,-60.3113969,,118,https://streetviewpixels-pa.googleapis.com/v1/thumbnail?panoid=THur7ziugg2NYOoE4jCTYA&cb_client=search.gws-prod.gps&w=408&h=240&yaw=252.55159&pitch=0&thumbfov=100,1.0,0,2025-06-11T18:14:11.253Z,tienda
Casa Fernandino,Tienda de muebles de exterior,,Av. Domingo Faustino Sarmiento 2823,+54 2284 73-0265,Olavarría,Provincia de Buenos Aires,-36.8857939,-60.3119921,5.0,119,https://lh3.googleusercontent.com/p/AF1QipPmJzr5dDVbO1WXwm_5fKDTTi-rcA8nBisDroOc=w408-h285-k-no,12.0,2,2025-06-11T18:14:11.253Z,tienda
"GOMERIA ""Carlitos""",Tienda de neumáticos usados,,RN226 C7400,+54 2284 66-2348,Olavarría,Provincia de Buenos Aires,-36.8761649,-60.3057015,,120,https://lh3.googleusercontent.com/p/AF1QipOEZEgWepxwxgpPy6DiKTqi2GsjY8Db2J7lmwvc=w408-h306-k-no,4.0,0,2025-06-11T18:14:11.253Z,tienda
Necoluz,Tienda de iluminación,,Necochea 2939,+54 2284 42-3956,Olavarría,Provincia de Buenos Aires,-36.8926988,-60.3186903,4.6,121,https://lh3.googleusercontent.com/gps-cs-s/AC9h4nrmkZDGc9rTGtV5ghhgB1C4lNnuZRivg_vyIrpPYvNWQSBM7VT2sV4GJhnr9KWc5e-KxQH1O8VVF4z_shBS3Si9MddAtaPxEnLcRzRry3g-92e9p5yEWtGqMjszmvHBaqRbCpTW=w408-h544-k-no,9.0,14,2025-06-11T18:14:11.971Z,tienda
Arredo,Tienda de colchas,https://www.arredo.com.ar/,Vicente López 3119,+54 2284 41-5810,Olavarría,Provincia de Buenos Aires,-36.8909564,-60.3205661,4.7,122,https://lh3.googleusercontent.com/gps-cs-s/AC9h4nrdETcQ-nppJeca5EhLSGl2aqK-kzwGctreNZBn1272pGnT6aEzJvt8YzYFeyjHxgRsOuk2QMvwmHChmPvSS5RJ7CX4Ra91mmICdwmdabXUHglUvGR0gVXRLGGleCIRu7iZewI=w408-h240-k-no,3.0,33,2025-06-11T18:14:11.971Z,tienda
Lu-Mar,Tienda de alimentación,,Manuel Leal,+54 2284 43-0333,Olavarría,Provincia de Buenos Aires,-36.8966776,-60.2991812,4.5,1,https://lh3.googleusercontent.com/gps-proxy/ALd4DhGlvoBlVE3rVgRRYQ80GbFcizVfh22tREoryOk1V2KuwwHoSwUFsmIJG9Ev7a6WGPWqFAuTsis51zBS74h3h4TvcLDHsaJ7Lq5QMXGf4WrFRmLExKrreQlXcv_2SfwO5Rd2IvKDLlICNZkOotKOdl3GZoA84JIdJwULiDuwqv-tsGI5hmoCCOXkrW9AKifLecZBkg=w408-h306-k-no,2.0,2,2025-06-11T18:14:12.907Z,tienda
Kiosko Tío Tito,Tienda de alimentación,,Av. del Valle 5192,+54 2284 45-1753,Olavarría,Provincia de Buenos Aires,-36.9139434,-60.3080109,3.0,11,https://lh3.googleusercontent.com/gps-proxy/ALd4DhFA5szdjGzKmhvSJpOlLQNwcgmzmDhhMX8ep3nf7vp0-rFhjJ-UHMmJYbr7HKVzBDKVf5V75MRxoPe8FUZkC_4w_E0xDzXcefSU7PBu2Py5jV0K-zDQnPlM_UV0igbFTyw36BAqIrId5WN_uHUyH3lBYmsv3Y-OzhsERBQMUH8UI3sfKVgV4G-g3YkKWFwaspNMtz8=w408-h306-k-no,2.0,1,2025-06-11T18:14:12.907Z,tienda
Gallitos,Tienda de alimentación,,Av. Urquiza 3574,+54 9 2284 55-9044,Olavarría,Provincia de Buenos Aires,-36.8969141,-60.3057529,5.0,15,https://lh3.googleusercontent.com/gps-proxy/ALd4DhEdRkgWztli0kCu140k74YPqZ9bT2NOLvspmgkHt5pgZQRaHb1ju1vfY_X75X2ElRhr4NVhSh4TV3TFgPPJIFFHTjeUsaCGtQI2ogLXwdQ9ns-dK8qm9Z_sWDOtyGRu52R6WvygZNdkpAUT0yCkI0TMVHrG6f4qWtXGClIxAi4YdvI-8hlmLwSZJZ2NjU6nX-QdFhg=w408-h306-k-no,2.0,1,2025-06-11T18:14:12.907Z,tienda
"Autoservicio ""Lo de Rodo""",Tienda de alimentación,,Av. Domingo Faustino Sarmiento 3992,,Olavarría,Provincia de Buenos Aires,-36.8937988,-60.302675,3.0,18,https://lh3.googleusercontent.com/gps-cs-s/AC9h4no3K0N7LlpAOwpzjv8zaHGlZEANDkTCp1x64ZVCwhRum5cXZ0PtwpGTndl9_Y2PTji-QOp5lUp-vYQNdbhFF2KVcYyc1PUZ0XXSET4L2KdtI_1KMlXPABDqNhHvyKhEjeN2E8b5Pg=w408-h337-k-no,2.0,1,2025-06-11T18:14:12.907Z,tienda
El Manu Materiales rurales,Establecimiento de venta de madera,,Au L. Fortabat 6427,+54 2284 30-3183,Olavarría,Provincia de Buenos Aires,-36.92202,-60.2974232,4.9,4,https://lh3.googleusercontent.com/p/AF1QipOwGte0YDxC4Iwmn-n4QyyZZSp-aFoS8jn-jacW=w408-h305-k-no,11.0,35,2025-06-11T18:14:13.573Z,venta
TIENDA DAI 💖,Tienda de ropa,https://www.instagram.com/daiana.indumentaria1?igsh=MW0xN25pZHJqMWJycw==,Av. Colón 5879,,Olavarría,Provincia de Buenos Aires,-36.9101035,-60.2920992,,28,https://lh3.googleusercontent.com/p/AF1QipNr-cAO7roeNsg6c5rQRTFqfNpnbAviGOGJO26t=w408-h541-k-no,6.0,0,2025-06-11T18:14:13.857Z,tienda
Tienda Flex Planta Industrial,Tienda de artículos para el hogar,http://www.tiendaflex.com.ar/,Pablo Fassina 6890,+54 11 3242-5430,Olavarría,Provincia de Buenos Aires,-36.9087281,-60.2755389,5.0,30,https://lh3.googleusercontent.com/gps-cs-s/AC9h4nquQ37wCV-VoaVXLB3JefpcmkjM0qWD4aJrIyA1rb8Kh6Z5pEsAt7EDzEGep4uuYfwp5B15u7UsQ8WwDttR8hD3qWj-mn8yVfs5tuokIJdT2nmvJ6oXbw64YTQOywtFDSQwIhs=w408-h725-k-no,11.0,3,2025-06-11T18:14:13.857Z,tienda
Shop 365,Comercio,,Rocha Enecait 4613,,Olavarría,Provincia de Buenos Aires,-36.8910802,-60.2872835,4.3,1,https://lh3.googleusercontent.com/gps-cs-s/AC9h4nqjIWMMf6vDVLrwxwJo1iS11LSrGy0UK3DDLVgFTXmz8PldCPgMh3YMeb2GjB4sAWrJDgSUJyLF8PvfOkPyVp2NjJtSCXLl-y_O8RLphgHo8EMtlpsF_zjFslWAtLyfdJ9Rq2kl=w408-h544-k-no,9.0,41,2025-06-11T18:14:14.152Z,comercio
Polirrubro Narela (Tienda),Tienda de ropa,https://www.facebook.com/narela_olav-107420104366136/,Av. Colón 5218,+54 2284 30-2688,Olavarría,Provincia de Buenos Aires,-36.9061771,-60.2975365,5.0,45,https://lh3.googleusercontent.com/p/AF1QipNmotqlrUtavZ91w-07Jn1Q74QKRAeSH_cl__jv=w408-h557-k-no,6.0,3,2025-06-11T18:14:14.882Z,tienda
Lumi,Tienda de muebles de cocina,http://www.lumiamoblamientos.com.ar/,"Complejo ""AREA 226"" Galpón 3, Local 1",+54 2284 41-8001,Olavarría,Provincia de Buenos Aires,-36.8973512,-60.2850084,4.7,48,https://lh3.googleusercontent.com/gps-proxy/ALd4DhFLF6zwvZKtu9fTu5tesude64zygBMknk16_kZO44utq3oTYXwTeR2Gzn_91qZ7Ulrp42jDgSHOhgFejBAF0o_Lv70pRQ6oSS7YdoH4dduENUXveEqP3nALuRrfm6R0MbcgTrm6aH6uMtTiaBsZRc0Y3MZMsYUnSBOHQPk4thHRuNbid9Iwc183pP12wHwlAdqUSYI=w408-h306-k-no,4.0,3,2025-06-11T18:14:14.882Z,tienda
Ceramica CERRO NEGRO,Tienda de azulejos,http://www.cerronegro.com.ar/,RN226 6162,+54 2284 44-4456,Olavarría,Provincia de Buenos Aires,-36.8974456,-60.2763977,4.4,54,https://lh3.googleusercontent.com/gps-cs-s/AC9h4npGtBq7HXsrwCLbRiwRP_w3sPzRIaazunLtRQB7mGArZ4ni24gQRePo9p_YS4ZCXh5J9Jdvnr10lEXQ_NQRDyI6Yf6NyhuJRRasvlax84dhs-EVOUZUDebZqAUgEkz1YNPg4lwg=w408-h306-k-no,36.0,125,2025-06-11T18:14:14.882Z,tienda
Perito moreno,Tienda general,,Perito Francisco Moreno,,Olavarría,Provincia de Buenos Aires,-36.8818984,-60.2871547,,37,https://streetviewpixels-pa.googleapis.com/v1/thumbnail?panoid=NMB8WylcTPZcEUZsZjqoCg&cb_client=search.gws-prod.gps&w=408&h=240&yaw=135.56956&pitch=0&thumbfov=100,1.0,0,2025-06-11T18:14:15.050Z,comercio
Despensa y Fiambreria,Tienda de jamones,,Av. Pellegrini,,Olavarría,Provincia de Buenos Aires,-36.8991292,-60.2989054,4.2,69,https://lh3.googleusercontent.com/gps-proxy/ALd4DhEzEjBrkrCvAnlzdu7YjEZVHAjfRekvxrO5tM_RHCbqGDdhjcflAdjwk3WAyD8LoxFcdVq7y7DYP8kowz3s05OI7howqCNeUr_4kmbs-Cm_xgt627UOdUagoKFgR4GnosQSG_2R01jm-ilp7su6tN2v4Q6YI6-DQMs63teaZY0UDt8y7K96ihFQ6DLzMRQmKKY5Xgo=w408-h306-k-no,2.0,25,2025-06-11T18:14:15.848Z,tienda
MAURO SERGIO,Comercio,https://nextar.shop/tiendamsolavarria,Belgrano 2635,+54 2284 38-6007,Olavarría,Provincia de Buenos Aires,-36.8919975,-60.3228311,,45,https://lh3.googleusercontent.com/gps-cs-s/AC9h4nr6cE_e1NsoFuX8nfdoP2U54qKivlGrO6Dry4gv7emOjfpGuJLtJTSnebVRSlQwqYZJCLgghSYKzuRJikCXAiQY3gpIVEoHqju8RC062ysvuudpr9L6G0_t8pUIkOfLLGEXP3GJ1g=w408-h478-k-no,3.0,0,2025-06-11T18:14:16.189Z,comercio
Tu Kiosko,Tienda de alimentación,,Gral. Paz 2557,+54 2284 41-0325,Olavarría,Provincia de Buenos Aires,-36.8927588,-60.3250683,,15,https://lh3.googleusercontent.com/gps-cs-s/AC9h4nqRgAeOgY_yaYkuqJNQ84Nz7WHA247r3q-TRNK9j3ONU50naE4qaZ00etl4uq_PKWHkVRblgomEMcuYmeF6y_aedyrph4dz3KFSzJJ9N6N-gRJ-5teeRG1lYL1uxzeOgg9gpR--MQ=w408-h544-k-no,5.0,0,2025-06-11T18:14:16.479Z,tienda
CyS Muebles de Pino,Tienda de muebles,,,+54 2284 58-4538,Olavarría,Provincia de Buenos Aires,-36.9123809,-60.2905698,,83,https://lh3.googleusercontent.com/p/AF1QipOKop79CELkltXhxYd_WSMeLWppAndGD5Mcvtin=w408-h306-k-no,10.0,0,2025-06-11T18:14:16.819Z,tienda
TAPICERIA GRAL,Tienda de muebles,,Av. Pellegrini 3824,,Olavarría,Provincia de Buenos Aires,-36.8991664,-60.2985586,,100,https://streetviewpixels-pa.googleapis.com/v1/thumbnail?panoid=N9KqXyRA5eSLVez4Rh-B2Q&cb_client=search.gws-prod.gps&w=408&h=240&yaw=142.59361&pitch=0&thumbfov=100,1.0,0,2025-06-11T18:14:16.820Z,tienda
OLAVARRIA AUTOMOTORES,Concesionario de automóviles,https://www.facebook.com/olavarriaautomotores,Rivadavia 4698,+54 2284 67-3645,Olavarría,Provincia de Buenos Aires,-36.8810424,-60.3064292,4.5,12,https://lh3.googleusercontent.com/p/AF1QipP4nYQt0mrsWdcOqHHnAXRMifKtiTSVbrxG5rAy=w408-h283-k-no,31.0,17,2025-06-11T18:14:17.238Z,venta
Maderera Misiones,Establecimiento de venta de madera,,Rivadavia 4670&nbsp,+54 2284 44-2088,Olavarría,Provincia de Buenos Aires,-36.8814942,-60.3065134,4.6,14,https://lh3.googleusercontent.com/gps-proxy/ALd4DhGRCPsMEbJ722yIegJFQT4hpMBV-056WeRY3uc85s_exEyH12UyDUTbIRCCuE-qDra4-tTqs-JkP4pSD51AMK328XoGm_IeI5_teiq8yz-hCzjRPM0Yx9vbzHW0oXRSm6h5v8yOMxJ7F_WXBOZHF2IjJj_PnoVSgpZX7bTDPBplF_znBTRcfH1xaV2mM3Fda8XtbQ=w408-h306-k-no,9.0,109,2025-06-11T18:14:17.238Z,venta
Puma Olavarría,Gasolinera,https://www.instagram.com/puma_olavarria,Av. de los Trabajadores,+54 2284 56-7374,Olavarría,Provincia de Buenos Aires,-36.885843,-60.301812,4.3,17,https://lh3.googleusercontent.com/p/AF1QipNoEJh4pPSZGoVVCy6MPD1UCKkV4u3GrJV6xwW2=w426-h240-k-no,27.0,132,2025-06-11T18:14:17.238Z,venta
Tecnomel Aberturas de PVC y Steel framing,Fábrica,,"Rocha Enecait, Av. la Rioja &",+54 9 2284 71-6800,Olavarría,Provincia de Buenos Aires,-36.8956181,-60.2815565,4.3,104,https://lh3.googleusercontent.com/gps-cs-s/AC9h4noYB4qMHqz1lhZepJc5kglPNpw0v34oL3p39V9LlZzoe-T98OQhT1JnJO0B0f4SjJJK2vOF2rfiuc70JMRGvB9FmmF5RHy2-YaKibqcQFhC7NZ8qM2LE-Kr5rJeMr49_-6L4nj0Vg=w493-h240-k-no,6.0,10,2025-06-11T18:14:17.730Z,tienda
ojas AUTOMOTORES,Concesionario de automóviles,,Av. Urquiza 3931,,Olavarría,Provincia de Buenos Aires,-36.8942778,-60.3029421,,28,,,0,2025-06-11T18:14:20.250Z,comercio
Despensa A&D,Tienda de alimentación,,San Juan 3305,,Olavarría,Provincia de Buenos Aires,-36.912401,-60.2912687,4.2,39,https://lh3.googleusercontent.com/gps-cs-s/AC9h4nrxzwfn5zkGnM7oge-__dj7IosbfptjBAoRjFgn3dMwCp7SWcjFh991LUXecAu6QbYWxoLyHpWOXWfY3HAVk2Dov2fW7fWvsTtO45BV5xp1Romh0LHQ0lIBkjM3W9hiwUcgFPk=w426-h240-k-no,3.0,9,2025-06-11T18:14:20.653Z,comercio
AUTOSERVICIO LUCA,Tienda de alimentación,,,,Olavarría,Provincia de Buenos Aires,-36.8939166,-60.3424842,,57,https://streetviewpixels-pa.googleapis.com/v1/thumbnail?panoid=p8gC_yGjxm4Z9W_Ho6qgVw&cb_client=search.gws-prod.gps&w=408&h=240&yaw=142.47415&pitch=0&thumbfov=100,1.0,0,2025-06-11T18:14:21.201Z,comercio
Lebrero Propiedades,Agencia inmobiliaria,,Lavalle 2601,+54 2284 69-9361,Olavarría,Provincia de Buenos Aires,-36.8929226,-60.3264724,5.0,20,https://lh3.googleusercontent.com/gps-cs-s/AC9h4npDR3DCZgyaF8hHOwrJfadgFC9QFIIXv5mYEGBvlXufy15KtBdlj4PYQN2E9ZzG__iTgVPJ_0zn63RvDuAh2Ao4Syrm8i9gupZZWdeh_gnWYF_8wQwO6wKNk2uSDuI5r17zGnjQ=w408-h472-k-no,4.0,2,2025-06-11T18:14:22.395Z,venta
Extragas,Compañía del gas,http://www.extragas.com.ar/,Islas Malvinas 5198,+54 2284 33-2583,Olavarría,Provincia de Buenos Aires,-36.8927985,-60.2865251,4.0,39,https://lh3.googleusercontent.com/p/AF1QipMOk9g18u9oxv7oCXywI1veTPNLC96vdN-0ZzKZ=w426-h240-k-no,2.0,5,2025-06-11T18:14:23.889Z,venta
Claudio Refrigeracion - Fca Y Venta Amoblamientos Comerciale,Tienda de muebles,,Av. Pringles 3492,+54 2284 44-3306,Olavarría,Provincia de Buenos Aires,-36.8933159,-60.3113497,,50,https://streetviewpixels-pa.googleapis.com/v1/thumbnail?panoid=AY6rndSbHXyBFgJNBMAx4w&cb_client=search.gws-prod.gps&w=408&h=240&yaw=119.56546&pitch=0&thumbfov=100,1.0,0,2025-06-11T18:14:24.927Z,venta
La Casa de Cristina,Tienda de lana,https://www.facebook.com/profile.php?id=100011328912061,Necochea 2745,+54 2284 41-2422,Olavarría,Provincia de Buenos Aires,-36.8913585,-60.3203013,4.6,66,https://lh3.googleusercontent.com/p/AF1QipNzZhyQCI3GnLYgH6LromkzIjmKw0qNc3gaCijP=w408-h272-k-no,10.0,7,2025-06-11T18:14:25.772Z,venta
Pey Propiedades,Agencia inmobiliaria,https://www.facebook.com/PeyPropiedades,Vicente López 3236,+54 412438,Olavarría,Provincia de Buenos Aires,-36.890367,-60.3194502,3.6,68,https://streetviewpixels-pa.googleapis.com/v1/thumbnail?panoid=aEhYQbVA84Eme0va2HvpNg&cb_client=search.gws-prod.gps&w=408&h=240&yaw=141.01894&pitch=0&thumbfov=100,1.0,7,2025-06-11T18:14:25.772Z,venta
Castarés Propiedades,Agencia inmobiliaria,,Sgto. Cabral 3136,+54 2284 41-8627,Olavarría,Provincia de Buenos Aires,-36.893543,-60.3163247,5.0,69,https://streetviewpixels-pa.googleapis.com/v1/thumbnail?panoid=7vjPP-fQh1xukxBINhf3uA&cb_client=search.gws-prod.gps&w=408&h=240&yaw=241.6731&pitch=0&thumbfov=100,3.0,3,2025-06-11T18:14:25.772Z,venta
Paula Anaya Negocios Inmobiliarios,Agencia inmobiliaria,https://paulaanayanegociosinmobiliarios.com.ar/,Moreno 3142,+54 2983 51-1557,Olavarría,Provincia de Buenos Aires,-36.8924507,-60.3184855,5.0,71,https://lh3.googleusercontent.com/p/AF1QipN7hjLy2H1lQlL-i8Ws6H8iNdL3HputtjVtW88p=w408-h272-k-no,43.0,3,2025-06-11T18:14:25.772Z,venta
Cominotto Gestiones Inmobiliarias,Agencia inmobiliaria,https://cominottoinmobiliaria.com.ar/,9 de Julio 2983 Dto 1,+54 2284 59-5059,Olavarría,Provincia de Buenos Aires,-36.8958658,-60.3169301,5.0,74,https://streetviewpixels-pa.googleapis.com/v1/thumbnail?panoid=fNSH06gZvNttofGKGw7fjg&cb_client=search.gws-prod.gps&w=408&h=240&yaw=306.4077&pitch=0&thumbfov=100,5.0,4,2025-06-11T18:14:25.772Z,venta
Walter Tomas Propiedades,Agencia inmobiliaria,,Av. Urquiza 2918,,Olavarría,Provincia de Buenos Aires,-36.9013528,-60.311212,5.0,75,https://streetviewpixels-pa.googleapis.com/v1/thumbnail?panoid=0efiFm3JC_wRbCecJqiCew&cb_client=search.gws-prod.gps&w=408&h=240&yaw=137.36942&pitch=0&thumbfov=100,1.0,1,2025-06-11T18:14:25.772Z,venta
Torre Nativa,Edificio de apartamentos,,Rivadavia 3359,,Olavarría,Provincia de Buenos Aires,-36.8900421,-60.3178298,1.8,76,https://streetviewpixels-pa.googleapis.com/v1/thumbnail?panoid=zHdXcD6WSPyhLywsnav3gA&cb_client=search.gws-prod.gps&w=408&h=240&yaw=333.6971&pitch=0&thumbfov=100,1.0,5,2025-06-11T18:14:25.772Z,venta
Castagnari Neumáticos,Tienda de neumáticos,,"Villa Floresta, Av. del Valle 3532",+54 2284 42-1702,Olavarría,Provincia de Buenos Aires,-36.902983,-60.321536,4.7,77,https://lh3.googleusercontent.com/gps-cs-s/AC9h4nqoyfB8tXgLqOmBLcgM5lpA5m-jKQ4SheSvBLQsqph4kmZU_HlIcxZAmZ7MYn47-lkTom-9IeMKMwgNLFaGImNlrn6-dM073nT1w40xUn560byJUWChx7RjZ_xE-dWNlHMQY98=w426-h240-k-no,145.0,404,2025-06-11T18:14:25.772Z,venta
Perera Propiedades,Agencia inmobiliaria,https://pererapropiedades.com/,Av. Ituzaingó 2756,+54 2284 68-5200,Olavarría,Provincia de Buenos Aires,-36.8861337,-60.3325752,,78,https://lh3.googleusercontent.com/p/AF1QipN92wlOpT9_pBlUzXQJqp8ToFk-ShpCIDYkJEQR=w408-h306-k-no,10.0,0,2025-06-11T18:14:25.772Z,venta
Inmobiliaria Andrea Steinberg,Agencia inmobiliaria,,Vélez Sarsfield 2588,+54 9 2284 68-7004,Olavarría,Provincia de Buenos Aires,-36.8956718,-60.3284978,5.0,79,https://streetviewpixels-pa.googleapis.com/v1/thumbnail?panoid=CFNaBJGhGFok_f4cO4PR5A&cb_client=search.gws-prod.gps&w=408&h=240&yaw=213.95753&pitch=0&thumbfov=100,1.0,1,2025-06-11T18:14:25.772Z,venta
Liste Propiedades,Agencia inmobiliaria,,Lavalle 2955,,Olavarría,Provincia de Buenos Aires,-36.8909144,-60.3235033,4.7,80,https://lh3.googleusercontent.com/gps-cs-s/AC9h4noDmDNt8yuHCuglFq1Cl-tkeZOEVBTtEfRV00SDqnvj_q5-UKz1ihys2wPIBBIyLv46xW_nqZu4gqFAM7t2fBsJrk0OILinZeeQoQxu0thWRrQydCkW0a3YFC1CKzh86ZzCm2s=w408-h544-k-no,3.0,3,2025-06-11T18:14:25.772Z,venta
Gotham Store,Tienda de coleccionables,https://www.instagram.com/gothamstore_olav/?hl=es,Lavalle 2445,+54 2284 53-7860,Olavarría,Provincia de Buenos Aires,-36.8940082,-60.3278472,5.0,28,https://lh3.googleusercontent.com/p/AF1QipNL9S-ZeLFjPdMYxM0rOxcviC3l1kW1etfNwgJ5=w426-h240-k-no,58.0,2,2025-06-11T18:14:26.095Z,tienda
"FOXIE STORE - Prendas Urbanas Oversize Unisex , Femm y calzado importado",Tienda de ropa,https://www.instagram.com/foxie_storee?igsh=MXRjOWFuM3lkbW1kcA==,Cnel. Suárez 2581,+54 2284 20-0592,Olavarría,Provincia de Buenos Aires,-36.8935902,-60.3257334,5.0,33,https://lh3.googleusercontent.com/p/AF1QipPG4YYZ2o9YWH5aWEFwPOrc180j8fVCsimffx1J=w408-h906-k-no,189.0,7,2025-06-11T18:14:26.095Z,tienda
Claro,Compañía telefónica,,Vicente López 2865 Local 1 -2,+54 9 2284 24-6597,Olavarría,Provincia de Buenos Aires,-36.8925911,-60.32284,3.3,81,https://lh3.googleusercontent.com/gps-proxy/ALd4DhF1MizTSefttJUQPCzZLPtm-wgjA-cpqxyJzbEVhbIJwStEy2sAk_D27x2-Iy1heYYdsOrpYRZg4DnxBe61j6ZtcwqOE8DILDikJVRVUtZeehV-StN1w-Dmhp6AHwRqDAZEWPV7PoqyK0dtYdIf-iruGWUDjjjfbhBmwK3E7ajJIpSJEEBNBuo8fwMSKsZCRI9O2YQ=w408-h306-k-no,3.0,11,2025-06-11T18:14:26.640Z,venta
Inmobiliaria Notararigo de Juan Carlos Notararigo,Agencia inmobiliaria,http://notararigoweb.com.ar/,Av. del Valle 1520,+54 2284 42-5976,Olavarría,Provincia de Buenos Aires,-36.8891121,-60.3381844,3.0,82,https://streetviewpixels-pa.googleapis.com/v1/thumbnail?panoid=Ov_NcqZ75mAanPgTvbkFuA&cb_client=search.gws-prod.gps&w=408&h=240&yaw=85.090675&pitch=0&thumbfov=100,1.0,5,2025-06-11T18:14:26.640Z,venta
Zucchiatti Propiedades,Agencia inmobiliaria,http://www.zucchiattipropiedades.com.ar/,Gral. Paz 3321,+54 9 2284 35-3942,Olavarría,Provincia de Buenos Aires,-36.8978402,-60.318751,4.0,83,https://streetviewpixels-pa.googleapis.com/v1/thumbnail?panoid=mfbgbKrn6wYk8v2qv54QFw&cb_client=search.gws-prod.gps&w=408&h=240&yaw=45.243996&pitch=0&thumbfov=100,2.0,5,2025-06-11T18:14:26.640Z,venta
Pablo Coniglio Inmobiliaria,Agencia inmobiliaria,http://www.olavaprop.com/agents/pabloconiglio/,Independencia 3147,+54 2284 41-9080,Olavarría,Provincia de Buenos Aires,-36.8854956,-60.3270871,4.7,84,https://lh3.googleusercontent.com/p/AF1QipMj3zuJjCUT0E7cHtDIXTaDHOaKERR1MYWUl0UO=w426-h240-k-no,5.0,21,2025-06-11T18:14:26.640Z,venta
GNC OLAVARRIA,Taller de automóviles,,Las Heras 4146,+54 2284 56-7009,Olavarría,Provincia de Buenos Aires,-36.9090439,-60.3189057,4.2,85,https://lh3.googleusercontent.com/gps-cs-s/AC9h4npBZK_sSbK9P60ewHpqzXEN_Pd-Ogj6MbpvEx13WXzOVK-cunNUe-x8G7CdM_oIhxAR1-L0iyMrPVckk0pHpo43myelVdW5SX-JFyO9UUOtIWG1_BRnTuySGB8nwUriyzZ6wZfVbg=w408-h306-k-no,25.0,125,2025-06-11T18:14:26.640Z,venta
La Bodega de Don José,Vinoteca,,25 de Mayo,+54 2284 42-1392,Olavarría,Provincia de Buenos Aires,-36.896969,-60.3199067,4.3,86,https://lh3.googleusercontent.com/gps-cs-s/AC9h4nraMqqlQegXvWCvbv8TkpjL5Prt_xhaPpOPVmjYAjqZaWyzSBdP2Ej0uRLz2Y_hMPq7CnkpbbI5aYjmLIJAwnsX-DGgZ6Uf19puR5EvFkKSmBso0odnTou3pZshFnX2vizRAs4=w484-h240-k-no,9.0,82,2025-06-11T18:14:26.640Z,venta
Lucas Herrera Inmobiliaria,Agencia inmobiliaria,https://lucasherrerainmobiliaria.com.ar/,Lamadrid 2620,+54 2284 52-8910,Olavarría,Provincia de Buenos Aires,-36.8963277,-60.3220826,,87,https://streetviewpixels-pa.googleapis.com/v1/thumbnail?panoid=QIWoF8XfzwDNyDtBSi_zeQ&cb_client=search.gws-prod.gps&w=408&h=240&yaw=143.19386&pitch=0&thumbfov=100,2.0,0,2025-06-11T18:14:26.640Z,venta
Ciarpella Bienes Raices,Agencia inmobiliaria,,Moreno 3181,+54 2284 41-2402,Olavarría,Provincia de Buenos Aires,-36.8917993,-60.3185436,4.4,88,https://lh3.googleusercontent.com/p/AF1QipO1LPsn5iFTHjnvXFdB5cfKwvMQ3mq-zacdR7s=w408-h544-k-no,5.0,17,2025-06-11T18:14:26.640Z,venta
Pizzas Y Empanadas,Pizzería,,Av. Pringles 3141,,Olavarría,Provincia de Buenos Aires,-36.8954576,-60.3147225,4.8,89,https://streetviewpixels-pa.googleapis.com/v1/thumbnail?panoid=da6KpfChMuauOYbQ5LsxVg&cb_client=search.gws-prod.gps&w=408&h=240&yaw=312.1348&pitch=0&thumbfov=100,1.0,4,2025-06-11T18:14:26.640Z,venta
Bernardo Erro Inmobiliaria,Agencia inmobiliaria,,Collinet 2829,+54 2284 35-7733,Olavarría,Provincia de Buenos Aires,-36.902718,-60.3329039,,90,https://lh3.googleusercontent.com/p/AF1QipNw9t78nCyqKctgh3AmFm2gamSHEsmj8DuFkkmE=w408-h456-k-no,3.0,0,2025-06-11T18:14:26.640Z,venta
Barrio Jardín Monoblock 23,Edificio de apartamentos,,Av. Urquiza,,Olavarría,Provincia de Buenos Aires,-36.8905069,-60.2989917,4.5,91,https://lh3.googleusercontent.com/gps-proxy/ALd4DhEQnmKSSTgmY3xQYoA55WNNiVU86RLetDwRk_ii1h8f0XjfgVB-U29bjX5JWdCnYAkJQxLtLrg7UmVxhvFfQjCFGdO8aVzB2gFk4A6_rm-nxoJcKgiVvEH7WzJmj9h_FHvsuHYsOh8KEgZXJ0tqcuMsdrwpjT76qGBy26k8iKSLbV6MOVuT2sAWN403BCYDHdNdYw=w408-h306-k-no,2.0,2,2025-06-11T18:14:26.640Z,venta
Inmobiliaria Máspero,Consultor inmobiliario,,Vicente López 3571,+54 9 2284 62-0701,Olavarría,Provincia de Buenos Aires,-36.8879288,-60.3170094,4.0,92,https://lh3.googleusercontent.com/p/AF1QipOn2iVlhVMokO0MKb9alyMhtJ6SwE-fv8kI3K1D=w408-h306-k-no,8.0,4,2025-06-11T18:14:26.641Z,venta
Gonzalo Bahl Inmobiliaria,Agencia inmobiliaria,,Alsina 3421,+54 2284 52-2820,Olavarría,Provincia de Buenos Aires,-36.8882505,-60.318812,5.0,93,https://lh3.googleusercontent.com/gps-cs-s/AC9h4noSqW4joS66UsA4YcIbQcYx-Qc_rCmxlCAg7-ESpQ2RyPv6CkYBUIlLIpH0R7ZCUZsXI09jF3q8pIbVOMCMdGOWQrKehpBqltBwPRW7qKlrie6atCEK8vEJZ2lMraqaHrLWOFoL=w408-h306-k-no,4.0,3,2025-06-11T18:14:26.641Z,venta
PESCA CAMPING,,,Av. Avellaneda 4021,,Olavarría,Provincia de Buenos Aires,-36.914173,-60.3271356,,94,https://streetviewpixels-pa.googleapis.com/v1/thumbnail?panoid=K6bcZ-zms5Rayrs1rgrwmw&cb_client=search.gws-prod.gps&w=408&h=240&yaw=47.636467&pitch=0&thumbfov=100,1.0,0,2025-06-11T18:14:26.641Z,venta
Inmobiliaria Di Salvo,Agencia inmobiliaria,,Sgto. Cabral 2556,+54 2284 60-5026,Olavarría,Provincia de Buenos Aires,-36.8896043,-60.3211078,4.3,95,https://lh3.googleusercontent.com/p/AF1QipNxyHqz-U6UduASapT9sZlFr-q4ZoDV6dMciTxp=w408-h298-k-no,15.0,31,2025-06-11T18:14:26.641Z,venta
Matias Ale Propiedades,Agencia inmobiliaria,http://www.matiasalepropiedades.com.ar/,Moreno 2925,+54 2284 56-1450,Olavarría,Provincia de Buenos Aires,-36.8935468,-60.320601,4.7,96,https://lh3.googleusercontent.com/p/AF1QipMPUKps7jtXWvdyzzwhv_F4JXiKQqO8iX8w23dh=w408-h408-k-no,6.0,6,2025-06-11T18:14:26.641Z,venta
