title,categoryName,website,street,phone,city,state,location/lat,location/lng,totalScore,rank,imageUrl,imagesCount,reviewsCount,scrapedAt,searchString
La Casa de los Trofeos,Comercio,,Rivadavia 496,,Azul,Provincia de Buenos Aires,-36.7746611,-59.8626234,,1,,,0,2025-05-19T00:03:00.547Z,Comercio
La Escoba Loca,Tienda de artículos para el hogar,,Colón Nte. 117,+54 2281 50-2996,Azul,Provincia de Buenos Aires,-36.7672813,-59.851848,4.8,1,https://lh3.googleusercontent.com/gps-cs-s/AC9h4nrQAaOmvZ2z1z4lvQMpA2KLuyQFp5o7mGWzDytv5YF0PQfwP7XAE6kj-TlUSNLzb_IKC7RiPbPlQmsIhl80ixI-u75r5xA2BufhbZirEShz8aLrep1Ejb9JV3W-W_GeTpQtjyyg=w408-h544-k-no,44.0,73,2025-05-19T00:03:02.157Z,Comercio
Artículos magali,Tienda general,,Monseñor Caneva Nte. 160,+54 2281 31-0611,Azul,Provincia de Buenos Aires,-36.7743527,-59.8418982,4.3,2,,,12,2025-05-19T00:03:02.157Z,Comercio
Autoservicio San Jorge,Comercio,,Burgos Nte. 100,+54 2281 42-3119,Azul,Provincia de Buenos Aires,-36.7681448,-59.8513049,4.6,3,https://lh3.googleusercontent.com/p/AF1QipPV0VYkVvn3zfCgualFjP9POsmAYza7YT0ETBJ_=w426-h240-k-no,6.0,127,2025-05-19T00:03:02.157Z,Comercio
Asociacion Latina de Exportacion SA,Comercio,,Julio Argentino Roca 846,+54 2281 43-0338,Azul,Provincia de Buenos Aires,-36.7850672,-59.8592544,3.3,4,https://streetviewpixels-pa.googleapis.com/v1/thumbnail?panoid=WQnGTmaSbHhcH7RNl-Hcog&cb_client=search.gws-prod.gps&w=408&h=240&yaw=50.672348&pitch=0&thumbfov=100,1.0,4,2025-05-19T00:03:02.158Z,Comercio
Jaque Mate,Comercio,,"IAA, Colón 45",,Azul,Provincia de Buenos Aires,-36.7693194,-59.8543425,5.0,5,https://lh3.googleusercontent.com/gps-cs-s/AC9h4no-ld7lXWCQUeWg4z8HfT7KG8LKlNTrSojCgOveNXmNyGPhPmAgfMZt8grKiPZpTYfnxi6M8oAxEfSXFqXK7Ru88zRv-S4pUHxmGj8txK39YtlozKMcTZXJ0Uf6O2W3jX_sDb-T6f536iM=w408-h883-k-no,11.0,2,2025-05-19T00:03:02.158Z,Comercio
Eco System SA,Comercio,,Av. Mujica,+54 2281 43-0966,Azul,Provincia de Buenos Aires,-36.7661061,-59.8362925,5.0,6,https://streetviewpixels-pa.googleapis.com/v1/thumbnail?panoid=uW1gIEYIb6eTk-GEEOD40A&cb_client=search.gws-prod.gps&w=408&h=240&yaw=133.1178&pitch=0&thumbfov=100,1.0,1,2025-05-19T00:03:02.158Z,Comercio
Despensa y Anexos BIYO,Tienda de alimentación,,Aldaz 451-499,+54 2281 49-3233,Azul,Provincia de Buenos Aires,-36.7645249,-59.8461452,4.5,7,https://streetviewpixels-pa.googleapis.com/v1/thumbnail?panoid=NxYDTV1c0W15YmWcWI15WA&cb_client=search.gws-prod.gps&w=408&h=240&yaw=253.79605&pitch=0&thumbfov=100,2.0,36,2025-05-19T00:03:02.158Z,Comercio
El Trueque Azul,Comercio,,,,Azul,Provincia de Buenos Aires,-36.7586679,-59.8739276,4.0,8,https://streetviewpixels-pa.googleapis.com/v1/thumbnail?panoid=rclGYuv_nGbWkHFrbcaQ7g&cb_client=search.gws-prod.gps&w=408&h=240&yaw=206.82645&pitch=0&thumbfov=100,1.0,10,2025-05-19T00:03:02.159Z,Comercio
La fiambreria,Carnicería,,Necochea 74 B7300FVB,,Azul,Provincia de Buenos Aires,-36.7736897,-59.8507104,,9,,,0,2025-05-19T00:03:02.159Z,Comercio
Empleados De Comercio,,,Colón 42 33,,Azul,Provincia de Buenos Aires,-36.7691751,-59.8545435,,10,https://streetviewpixels-pa.googleapis.com/v1/thumbnail?panoid=V6HHbn6cVgNusFu-Uot8Sg&cb_client=search.gws-prod.gps&w=408&h=240&yaw=309.90277&pitch=0&thumbfov=100,1.0,0,2025-05-19T00:03:02.159Z,Comercio
Empleado de comercio edificio,Edificio de apartamentos,,Monseñor Caneva Norte,,Azul,Provincia de Buenos Aires,-36.7847704,-59.8645407,,11,https://streetviewpixels-pa.googleapis.com/v1/thumbnail?panoid=XHfQEBvWGx87zXlzkG3F_g&cb_client=search.gws-prod.gps&w=408&h=240&yaw=122.73078&pitch=0&thumbfov=100,1.0,0,2025-05-19T00:03:02.159Z,Comercio
Remates En Azul,Comercio,,Alvear Nte. 685,,Azul,Provincia de Buenos Aires,-36.7592824,-59.845484,2.0,12,https://streetviewpixels-pa.googleapis.com/v1/thumbnail?panoid=cghwIL5jKpyjQEAUBoMUTw&cb_client=search.gws-prod.gps&w=408&h=240&yaw=242.54625&pitch=0&thumbfov=100,1.0,1,2025-05-19T00:03:02.159Z,Comercio
SALAMANCA,Tienda de alimentación,https://instagram.com/punto.salamanca?igshid=MzRlODBiNWFlZA==,Av. 25 de Mayo Nte. 196,+54 9 2281 57-3224,Azul,Provincia de Buenos Aires,-36.7686006,-59.847374,4.8,13,https://lh3.googleusercontent.com/p/AF1QipNt66iUJSZk3_2dYzircdeOTzK-guil8-3_8zHM=w408-h408-k-no,2.0,4,2025-05-19T00:03:02.159Z,Comercio
Ensemble S.r.l.,Comercio,,Maipú Nte. 499,,Azul,Provincia de Buenos Aires,-36.7604302,-59.848448,4.3,14,https://streetviewpixels-pa.googleapis.com/v1/thumbnail?panoid=rqpGhptpAaZrv0AjAQOlog&cb_client=search.gws-prod.gps&w=408&h=240&yaw=279.7339&pitch=0&thumbfov=100,1.0,6,2025-05-19T00:03:02.159Z,Comercio
Despensa El Comienzo,Tienda de alimentación,,,,Azul,Provincia de Buenos Aires,-36.7740716,-59.855395,5.0,15,https://lh3.googleusercontent.com/gps-cs-s/AC9h4nowYGy2iMLMTYBrGsbBFyJFvCqtNr-9nbavfx5ktJc1p2JMfwxcOHdFB2JOact-BKSYUPm6f2jW55juw4ElUlcNbqd6VF2h-yXinNjR8Isy02vdmedbeaA4ksdATIUj3vYRzHY7OQ=w426-h240-k-no,6.0,1,2025-05-19T00:03:02.159Z,Comercio
CB indumentaria,Tienda de ropa,,C. Quiroga,,Azul,Provincia de Buenos Aires,-36.7680474,-59.874218,5.0,16,,,6,2025-05-19T00:03:02.160Z,Comercio
Polirrubro chiky,Kiosco,,7300,+54 2281 40-0191,Azul,Provincia de Buenos Aires,-36.7691114,-59.8531557,5.0,17,https://lh3.googleusercontent.com/p/AF1QipORj621XB3JNdFNDNWjVWqN6Jg3xV8lWUaeA-iW=w408-h544-k-no,2.0,3,2025-05-19T00:03:02.160Z,Comercio
Como a vos te guste accesorios,Tienda de accesorios de moda,,Cmte. Franco Nte. 049,+54 2281 68-0841,Azul,Provincia de Buenos Aires,-36.7637894,-59.8582702,5.0,18,https://lh3.googleusercontent.com/p/AF1QipNZ-H1NmKjL7KhmQN_4XnENXvOiOWjFhUlFV-bd=w408-h544-k-no,2.0,3,2025-05-19T00:03:02.160Z,Comercio
Sederia Marion,Comercio,,San Martín 572,+54 2281 43-4710,Azul,Provincia de Buenos Aires,-36.7796,-59.8613771,4.3,19,https://streetviewpixels-pa.googleapis.com/v1/thumbnail?panoid=azVhOqgo57d_QAuMWpLE-g&cb_client=search.gws-prod.gps&w=408&h=240&yaw=43.330822&pitch=0&thumbfov=100,1.0,14,2025-05-19T00:03:02.160Z,Comercio
Drugstore Center Azul 2,Kiosco,,"Avenida 25 de Mayo, Tandil &",,Azul,Provincia de Buenos Aires,-36.771342,-59.8503432,4.3,20,https://streetviewpixels-pa.googleapis.com/v1/thumbnail?panoid=mh5EyFi4lSu-89m349nEtw&cb_client=search.gws-prod.gps&w=408&h=240&yaw=189.88135&pitch=0&thumbfov=100,1.0,6,2025-05-19T00:03:02.160Z,Comercio
Marcos N Tonel,Comercio,,Av. 25 de Mayo 1000,+54 2281 42-9620,Azul,Provincia de Buenos Aires,-36.7847465,-59.8667894,4.4,1,https://streetviewpixels-pa.googleapis.com/v1/thumbnail?panoid=EXBc4YUs4R02tvvsSxG4Rg&cb_client=search.gws-prod.gps&w=408&h=240&yaw=306.273&pitch=0&thumbfov=100,1.0,9,2025-05-19T00:03:02.539Z,Comercio
Suttò piedras y aromas,Comercio,https://instagram.com/sutto.artesanias?igshid=MzRlODBiNWFlZA==,Rauch 959,+54 2281 56-7256,Azul,Provincia de Buenos Aires,-36.7863139,-59.8632744,5.0,3,https://lh3.googleusercontent.com/p/AF1QipPBiohr-DV9-paGFtBIxnCvWXlvT9DZ7iC-xNaP=w408-h306-k-no,11.0,92,2025-05-19T00:03:02.539Z,Comercio
Yannibelli Anibal,Comercio,,Burgos 1094,+54 2281 42-2516,Azul,Provincia de Buenos Aires,-36.7841454,-59.8705176,4.8,4,https://lh3.googleusercontent.com/gps-cs-s/AC9h4nrN5clbM8luKe8AJv7LWAU6Zfr1rTEaKAEPr7eEfsI8-Ite3ZSVuyBjCU212S77bLSQGew-iRPivuchrtzj2sr_5I4eMVUbeihnQKoqa8FxQ4ewhml_cMRZqACa0VsjfjWaolw=w408-h240-k-no-pi-10-ya240-ro0-fo100,2.0,13,2025-05-19T00:03:02.539Z,Comercio
Autoservicio Burbujas,Comercio,,Av. 25 de Mayo 975,+54 2281 42-5598,Azul,Provincia de Buenos Aires,-36.7847721,-59.8668178,4.3,5,https://lh3.googleusercontent.com/gps-cs-s/AC9h4nqjOvDl86CjIDM7V1zDR5jCLhRaSP8wZqhrqFpqgRQo4yxMZsfD5zqe6hS_S78DN1MeywVypgsowEAxkBoX1hd5Xr6j9couJQaeIOvaoNR83t-onJoBAFtV3Gcjhvwp6QyvhpPp=w408-h725-k-no,2.0,54,2025-05-19T00:03:02.539Z,Comercio
El Arca,Supermercado,,Av. 25 de Mayo 1001,,Azul,Provincia de Buenos Aires,-36.784992,-59.8665168,4.3,6,https://lh3.googleusercontent.com/p/AF1QipPj2fhpCMK0T38kdbWyxpnmc24QVUXaBSUWhYM3=w408-h306-k-no,16.0,86,2025-05-19T00:03:02.539Z,Comercio
Minimercado Lo de Barba,Tienda de alimentación,,Avenida Juan B. Justo 1149,,CJU,Provincia de Buenos Aires,-36.7901321,-59.8544857,4.6,7,https://lh3.googleusercontent.com/gps-cs-s/AC9h4nqUX5aDAnlxnCyukXRS9j3g4640K9ijNfSSNC45ne-CY_gFJgMngPhQ48Yv3O_AurV_bLiuL3Kjh91ox5C_l0Fvd1DltgF8C97vaQbNyjkSOWtMoFUFFAsBrZdfZ4hWkU3L2uFC=w408-h306-k-no,8.0,42,2025-05-19T00:03:02.539Z,Comercio
MiniMercado La Esquina de Alejandro y Silvina,Comercio,,España 1699,,Azul,Provincia de Buenos Aires,-36.7964878,-59.8737896,4.3,8,https://lh3.googleusercontent.com/gps-cs-s/AC9h4nqQ_9Yl8SJu-JBhioIMnWu6L30gKq1FqoF6HGb-kbV4176xuwFpypshdJmEhjPeyBDYrirJgl8xUHZ1Psvqm33WJUrb5TxH2B_qJD3f0chg6GJw-1dMTy7rGMliumqUZIJXRVh3PZum4FVT=w408-h306-k-no,20.0,22,2025-05-19T00:03:02.539Z,Comercio
El Arca,Supermercado,,Monseñor Caneva 796,,Azul,Provincia de Buenos Aires,-36.7870334,-59.8564019,4.4,10,https://streetviewpixels-pa.googleapis.com/v1/thumbnail?panoid=py761jxDy-GfvfYEtiMYGA&cb_client=search.gws-prod.gps&w=408&h=240&yaw=333.6019&pitch=0&thumbfov=100,1.0,7,2025-05-19T00:03:02.539Z,Comercio
"Lubricentro y Gomeria ""El Tucu""",Comercio,,"Monseñor Caneva, Av. Juan Domingo Perón y",+54 2281 41-7979,Azul,Provincia de Buenos Aires,-36.7879913,-59.857044,4.5,11,https://lh3.googleusercontent.com/p/AF1QipMad8VeKjumzoBEjZ0SIysuP_Oc2j9tDbuG80gi=w426-h240-k-no,21.0,32,2025-05-19T00:03:02.539Z,Comercio
Oroquieta Hector Marcelo,Comercio,,San Martín 1180,+54 2281 43-6060,Azul,Provincia de Buenos Aires,-36.7876551,-59.8505195,4.7,12,https://lh3.googleusercontent.com/gps-cs-s/AC9h4nrhOMnH2G0obE1ESCB7LCymTpfWd6jIB-ueYY9n3defQD8PaOeacVJw_wNZld7Q9oB5yz2aS7a_uB4Qo6A9VGeMrxNlsceHrZk8V-lf8fmOWnjLrvquYb96dkenWTGlwi1igRE7=w408-h725-k-no,5.0,36,2025-05-19T00:03:02.540Z,Comercio
Minimarket,Supermercado,,,,Azul,Provincia de Buenos Aires,-36.78575,-59.8582227,4.7,13,https://streetviewpixels-pa.googleapis.com/v1/thumbnail?panoid=N8Rn9jqHdgi3nT_1y_WEvQ&cb_client=search.gws-prod.gps&w=408&h=240&yaw=306.83374&pitch=0&thumbfov=100,1.0,7,2025-05-19T00:03:02.540Z,Comercio
Asociacion Civil Rinconcito del Carmen,Comercio,,Falucho 866,+54 2281 43-4509,Azul,Provincia de Buenos Aires,-36.790821,-59.8651444,4.4,14,https://lh3.googleusercontent.com/p/AF1QipPtBHKJOs7x_jatrGbivhb0ancme5bXwWDpw4mc=w426-h240-k-no,19.0,9,2025-05-19T00:03:02.540Z,Comercio
Venden y permutas,Tienda general,,Gral. Rivas 787,,Azul,Provincia de Buenos Aires,-36.7887673,-59.8650307,,15,https://streetviewpixels-pa.googleapis.com/v1/thumbnail?panoid=S1kTFpHnfYoL20C_61-NkA&cb_client=search.gws-prod.gps&w=408&h=240&yaw=198.58519&pitch=0&thumbfov=100,1.0,0,2025-05-19T00:03:02.540Z,Comercio
ALMÍBAR,Tienda de alimentación,,"Calle Gral. Paz y Comercio, B7300EVX",+54 2281 50-9728,Azul,Provincia de Buenos Aires,-36.7953135,-59.8574204,4.7,16,https://lh3.googleusercontent.com/gps-cs-s/AC9h4nqmE4cwSgACPyIJUUzgGFEeIYDay_Vgh4mQXBd9mAXQv6RUq4VpfottQqBuzBbyfAU0SoKCB3WQaN5o8aavz8iNVIaZbSN22FiXutSRoL9SGoBY6ZNXDjguozD80XTWv_ZmX3xT=w408-h544-k-no,16.0,6,2025-05-19T00:03:02.540Z,Comercio
Victor R Mori,Tienda de alimentación,,España 804,+54 2281 43-1939,Azul,Provincia de Buenos Aires,-36.7846071,-59.8601156,4.3,17,https://lh3.googleusercontent.com/gps-cs-s/AC9h4no71EzMtfvqnK2I4fEsGrUtXjqDgLIBMsMwfyjyiAkBwXVm5dL2SdDyiuEzue1uTq0DCBKeDR-Av-v94b88agJyVkjf8FtcOo0QHe9kco5KjGKCsk53yho91QnLpMpY9HbWgOLntw=w408-h724-k-no,3.0,36,2025-05-19T00:03:02.540Z,Comercio
Futuro,Comercio,,Av. Juan Domingo Perón,,Azul,Provincia de Buenos Aires,-36.7845055,-59.8621072,4.4,18,https://streetviewpixels-pa.googleapis.com/v1/thumbnail?panoid=w8DVRX1ct1LdqseTf5Harw&cb_client=search.gws-prod.gps&w=408&h=240&yaw=224.72028&pitch=0&thumbfov=100,1.0,105,2025-05-19T00:03:02.540Z,Comercio
Vidrieria 25 de Mayo de Jose Canalicchio,Comercio,,Guaminí 610,+54 2281 53-7036,Azul,Provincia de Buenos Aires,-36.7855521,-59.8671447,4.2,19,https://lh3.googleusercontent.com/p/AF1QipM1o-ulafI-mAMROrwDJeAv15XDqrWz-t4wzI86=w426-h240-k-no,5.0,9,2025-05-19T00:03:02.541Z,Comercio
Despensa El Vasco,Tienda de alimentación,,Av. Juan Domingo Perón 875,,Azul,Provincia de Buenos Aires,-36.7864003,-59.8596993,5.0,20,https://streetviewpixels-pa.googleapis.com/v1/thumbnail?panoid=jRsg4JsLR4Tl1OD_aCe0WQ&cb_client=search.gws-prod.gps&w=408&h=240&yaw=235.58086&pitch=0&thumbfov=100,1.0,2,2025-05-19T00:03:02.541Z,Comercio
Polirrubro yanilen,Comercio,,Av. 25 de Mayo 1651,,Azul,Provincia de Buenos Aires,-36.7936986,-59.8769294,4.8,21,https://lh3.googleusercontent.com/gps-cs-s/AC9h4nrTbF2mFmcLssPe2XUSLYirg0rQfnXiB_yCF2k1eQ1VRSdJ_sJ9rqgrqWPb8XJtTXvXm2mgEYATPSoBdLhV2wrC9FVsWw44my7PWcrIuMP-nj6fvbXDMhAF9Kv2nxi7PRZq3-Iv=w408-h306-k-no,5.0,18,2025-05-19T00:03:03.831Z,Comercio
Leñera las 3 Niñas,Comercio,,Belgrano 1239,,Azul,Provincia de Buenos Aires,-36.7870976,-59.8487956,5.0,33,https://streetviewpixels-pa.googleapis.com/v1/thumbnail?panoid=IXSPZ8ATL-yToLS7AVL-WA&cb_client=search.gws-prod.gps&w=408&h=240&yaw=241.53088&pitch=0&thumbfov=100,1.0,1,2025-05-19T00:03:03.832Z,Comercio
Verdu de conte,Tienda de alimentación,,Julio Argentino Roca 956,,Azul,Provincia de Buenos Aires,-36.786467,-59.8574116,,38,https://streetviewpixels-pa.googleapis.com/v1/thumbnail?panoid=xr7a720ei6n2aOEsQgmD9Q&cb_client=search.gws-prod.gps&w=408&h=240&yaw=54.905582&pitch=0&thumbfov=100,1.0,0,2025-05-19T00:03:03.832Z,Comercio
Distribuidora el galpón ( gaseosas secco y alimentos balanceados,Tienda de alimentación,,,,Azul,Provincia de Buenos Aires,-36.7921358,-59.8513336,,39,https://streetviewpixels-pa.googleapis.com/v1/thumbnail?panoid=hoKVnUIhT4pdPAUbjFhBrw&cb_client=search.gws-prod.gps&w=408&h=240&yaw=40.718334&pitch=0&thumbfov=100,1.0,0,2025-05-19T00:03:03.832Z,Comercio
Despensa del Barrio,Tienda de alimentación,,Avenida Juan B. Justo 1149,+54 221 592-7482,Buenos Aires,Provincia de Buenos Aires,-36.7900844,-59.8545663,3.8,41,https://lh3.googleusercontent.com/gps-cs-s/AC9h4nr5p4mXmlK1X5Jos4wlRxESe4AzVtzyebtq0Ne9ht4Sa2bOu3bEOv8oyWOY7VpxTzLfKYDxfLCfP-AHRc-9fcgiGf2DgLez2dl1FJE7njq8vnY7zaHVtikLYrskABTljW0OwIU-3Q=w408-h725-k-no,3.0,4,2025-05-19T00:03:04.970Z,Comercio
Lavadero de Ropa Bolivar Entrega A Domicilio,Comercio,,San Martín 976,+54 2281 42-4699,Azul,Provincia de Buenos Aires,-36.7847473,-59.8546154,5.0,42,https://streetviewpixels-pa.googleapis.com/v1/thumbnail?panoid=JbhKmuPK1tq1PwnFIxTM3A&cb_client=search.gws-prod.gps&w=408&h=240&yaw=59.64252&pitch=0&thumbfov=100,1.0,1,2025-05-19T00:03:04.970Z,Comercio
Autoservicio panchito,Supermercado,,Rauch 1005,,FRU,Provincia de Buenos Aires,-36.7868998,-59.863957,5.0,43,https://lh3.googleusercontent.com/gps-cs-s/AC9h4npVCmbN-EWe5LgdRDao2ck9V42E26DosuRbHzWPi-59fiuEVyC_0fzhfHrg5XsN13KcLixfXgF1T8GKfyJd7XJnmmFT2-fwBAgXITlurUJvq1N_8H3rv6RqkOHWSjrtqtj8zo0q=w408-h544-k-no,3.0,5,2025-05-19T00:03:04.970Z,Comercio
Vinos Galan,Comercio,,Bolívar 962,,Azul,Provincia de Buenos Aires,-36.7852906,-59.8556992,,45,https://streetviewpixels-pa.googleapis.com/v1/thumbnail?panoid=2-Fi7SjW5U6NBZA4VsokdQ&cb_client=search.gws-prod.gps&w=408&h=240&yaw=57.89134&pitch=0&thumbfov=100,1.0,0,2025-05-19T00:03:04.970Z,Comercio
Hecha Percha,Mercería,,Necochea 960,+54 2281 49-3057,Azul,Provincia de Buenos Aires,-36.7848229,-59.8651405,4.7,46,https://lh3.googleusercontent.com/p/AF1QipP7fA2WZBAzEUPUd__6A3ohCFmcHARfvBwsk2_i=w408-h725-k-no,107.0,15,2025-05-19T00:03:04.970Z,Comercio
Forrajería Y Todo Suelto El Amanecer,Tienda de alimentación,,Av. 25 de Mayo,,Azul,Provincia de Buenos Aires,-36.791199,-59.8744427,,47,https://streetviewpixels-pa.googleapis.com/v1/thumbnail?panoid=RdMQJruvh2YJna5qPj-mcg&cb_client=search.gws-prod.gps&w=408&h=240&yaw=292.01892&pitch=0&thumbfov=100,1.0,0,2025-05-19T00:03:04.970Z,Comercio
EL BOTÓN MERCERÍA,Mercería,,Av. Juan Domingo Perón 879,,Azul,Provincia de Buenos Aires,-36.7864444,-59.8595693,5.0,48,https://lh3.googleusercontent.com/gps-cs-s/AC9h4nrxpD0jySZefY7O3v3TZXCB-5F4qE_9iRDxn_vADNSylsZGZa0BUf0F97K65drSUIBBEP-GjCL3iGVW5_1zeFw4ZJS-8HBbRCC5ng71IjExcIDoD5UrhBQNdX_ftogddBnkXCxR=w408-h455-k-no,5.0,24,2025-05-19T00:03:04.970Z,Comercio
"""Me importa un comino""",Tienda de alimentos naturales,,Olavarría 1249,+54 2281 53-8734,Azul,Provincia de Buenos Aires,-36.7914376,-59.8544276,4.5,49,https://lh3.googleusercontent.com/p/AF1QipNBGnxs0CSdJS1a9YQ4hfuA5L6NJJTFGw7eXCXc=w408-h544-k-no,1.0,2,2025-05-19T00:03:04.970Z,Comercio
Cooperativa Obrera,Tienda de alimentación,http://www.cooperativaobrera.coop/,Av. 25 de Mayo 1272,+54 2281 43-2276,Azul,Provincia de Buenos Aires,-36.7884606,-59.8712545,4.2,50,https://lh3.googleusercontent.com/gps-cs-s/AC9h4no7XqRGFHXCeyU-RHyI5pcbd67jSj1bZ0Gw7H9uRZqPMlvSBG9GIhBWfiKcn79ysg5UTHB5EQYh3SZ8a8shSMtmLmPiT9rCYb1yTxFZtw3yEaXfdSWRZL8b7lHR_f7qRADEXPHTcg=w408-h306-k-no,22.0,267,2025-05-19T00:03:04.970Z,Comercio
Ferreterías E Ce Eme,Ferretería,https://www.facebook.com/Ferreteria-e-ce-eme,Av. 25 de Mayo 1018,+54 2281 60-1951,Azul,Provincia de Buenos Aires,-36.7848998,-59.8670346,4.4,51,https://lh3.googleusercontent.com/p/AF1QipNieTp10_yPPCjcnn9pjgpJ4iwep3EYPfdCHsJ0=w408-h306-k-no,49.0,94,2025-05-19T00:03:04.970Z,Comercio
Agencia de Loteria Y Quiniela San Cono,Tienda de lotería,,Av. 25 de Mayo 1309,+54 2281 43-5550,Azul,Provincia de Buenos Aires,-36.7893366,-59.8717268,3.8,52,https://streetviewpixels-pa.googleapis.com/v1/thumbnail?panoid=XBmLhTplXqRjztFJfWToNg&cb_client=search.gws-prod.gps&w=408&h=240&yaw=142.42805&pitch=0&thumbfov=100,1.0,12,2025-05-19T00:03:04.970Z,Comercio
Alimentos para perros,Tienda de alimentación,,Guaminí 789,,Azul,Provincia de Buenos Aires,-36.7879301,-59.8644563,4.8,53,https://streetviewpixels-pa.googleapis.com/v1/thumbnail?panoid=lYeBUjtaTxMQJGGoB_p1Yw&cb_client=search.gws-prod.gps&w=408&h=240&yaw=257.47995&pitch=0&thumbfov=100,1.0,50,2025-05-19T00:03:04.970Z,Comercio
Kiosco Full Time Azul,Kiosco,https://bit.ly/fulltimeinstagram,"Av Perón, España esquina",,Azul,Provincia de Buenos Aires,-36.7853558,-59.8606682,4.5,54,https://lh3.googleusercontent.com/p/AF1QipPM-zJEBRNOOMVZ7q3SQX0DwNlcvkg00BvTYB5S=w408-h305-k-no,5.0,2,2025-05-19T00:03:04.970Z,Comercio
"Loteria De La Provincia ""Piazza Sur""",Tienda de lotería,,Avenida Juan B. Justo 1126,,CJV,Provincia de Buenos Aires,-36.7898262,-59.8545457,5.0,55,https://streetviewpixels-pa.googleapis.com/v1/thumbnail?panoid=CVe7e7avh_WDXguc5eA0qQ&cb_client=search.gws-prod.gps&w=408&h=240&yaw=62.892315&pitch=0&thumbfov=100,1.0,1,2025-05-19T00:03:04.970Z,Comercio
Dept,Tienda de alimentación,,"B7300CNZ, Puán 1250 1202",+54 2281 41-7788,Azul,Provincia de Buenos Aires,-36.7917485,-59.8556664,4.1,56,,,9,2025-05-19T00:03:04.970Z,Comercio
Tarjetería Fina E Ideas,Comercio,https://www.tarjeteriaycraftsfiesta.com.ar/,Alberdi 986,+54 2281 56-4174,Azul,Provincia de Buenos Aires,-36.789971,-59.8590987,,57,https://lh3.googleusercontent.com/gps-cs-s/AC9h4nozYyU5VCuA-fK86Nz5lAnX4a9ixajcRoxDMsSRynpJL8Px4lciHiUWG_YLz-jn1LbX5Jr8e0JIfzOwJD0rZkpOy4jEpSyatW7iNcbxIpmAupC5ld5vR6eJADmGsKGLrRzMblpWjw=w408-h725-k-no,11.0,0,2025-05-19T00:03:04.970Z,Comercio
DESPENSA LA ESQUINA,Tienda de alimentación,,,,Azul,Provincia de Buenos Aires,-36.7867576,-59.8656969,,58,https://streetviewpixels-pa.googleapis.com/v1/thumbnail?panoid=oCidaJn-eX-1y8BnNYc1SQ&cb_client=search.gws-prod.gps&w=408&h=240&yaw=291.73502&pitch=0&thumbfov=100,1.0,0,2025-05-19T00:03:04.970Z,Comercio
Electrónica Ernesto-Portales,Establecimiento de reparación de artículos electrónicos,,Julio Argentino Roca 829,+54 9 2281 47-9581,Azul,Provincia de Buenos Aires,-36.7851021,-59.8596153,4.4,59,https://lh3.googleusercontent.com/gps-cs-s/AC9h4nq8_1PzavDlNGpINjLQBBEjN4aB-AV9h1CbXMN3etanYsJRlxT-ZSoTFRF3JbuBI8r81jkNWLyRtcavJPkmuoPYXvUS0htddmR_d8nAdGSJZTgoLi-WEJjWqWjItWArYs5PseB7fA=w408-h306-k-no,5.0,72,2025-05-19T00:03:04.971Z,Comercio
Pollería Granja Triny,Tienda de alimentación,,Av. 25 de Mayo 1402,+54 2281 52-6886,Azul,Provincia de Buenos Aires,-36.7903499,-59.8734193,4.8,60,https://streetviewpixels-pa.googleapis.com/v1/thumbnail?panoid=sSiGAkq1Rdgey_TLDJgXQQ&cb_client=search.gws-prod.gps&w=408&h=240&yaw=292.70502&pitch=0&thumbfov=100,1.0,46,2025-05-19T00:03:04.971Z,Comercio
Balanza Pública y Lavadero de Camiones,Parada para camiones,https://dardolopez.com.ar/,,+54 2281 42-2263,Azul,Provincia de Buenos Aires,-36.7882189,-59.8357017,4.4,1,https://lh3.googleusercontent.com/gps-cs-s/AC9h4np7zo0s8iu7bFe1cmbjea5Njt2rANdHwXnkqNQED_7aWK0ZJyxpkdNHqPk0CY5Mr99sMgBAeDmpAAsiWvrBQt675Q-QtgXnfTJVIl5LrgXXgfmQIy4YDWgD85EU5cuIyrb_1waP=w408-h544-k-no,5.0,31,2025-05-19T00:03:05.849Z,Comercio
Agrocentro,Comercio,,Av. Piazza 1450,+54 2281 42-8084,Azul,Provincia de Buenos Aires,-36.7891002,-59.8440184,5.0,2,https://streetviewpixels-pa.googleapis.com/v1/thumbnail?panoid=Ehh9HJHGn67tRBGR7Q6hIA&cb_client=search.gws-prod.gps&w=408&h=240&yaw=52.48624&pitch=0&thumbfov=100,1.0,1,2025-05-19T00:03:05.849Z,Comercio
Campos del Centro SRL,Comercio,https://www.instagram.com/camposdelcentrosrl/,C. 61 535,+54 9 2281 50-1288,Azul,Provincia de Buenos Aires,-36.7921744,-59.8413099,4.4,3,https://lh3.googleusercontent.com/p/AF1QipN00H7ZU7M72VrqrWe46YTWFDnjldiT-qYTtYNH=w426-h240-k-no,9.0,8,2025-05-19T00:03:05.849Z,Comercio
Mario bely,Tienda de alimentación,,Av. Piazza 1651-1699,,Azul,Provincia de Buenos Aires,-36.7911437,-59.8415874,5.0,4,https://streetviewpixels-pa.googleapis.com/v1/thumbnail?panoid=3tkgzkD1bayTKXWBU3NpgQ&cb_client=search.gws-prod.gps&w=408&h=240&yaw=292.74564&pitch=0&thumbfov=100,1.0,1,2025-05-19T00:03:05.849Z,Comercio
Tecno Agro del Centro - Agropecuaria,Mercado de productos agrícolas,,Av. Piazza 1424,+54 2281 43-0960,Azul,Provincia de Buenos Aires,-36.7887775,-59.8445501,4.5,6,https://lh3.googleusercontent.com/p/AF1QipNK2yu3LkQV-zwgldVTji8ovF_K5mJNlS3QzjBc=w426-h240-k-no,2.0,4,2025-05-19T00:03:05.849Z,Comercio
Lubricentro Lubricam,Comercio,,"B7300CKE, Avenida Juan B. Justo 1601-1649",+54 2281 58-3687,Azul,Provincia de Buenos Aires,-36.7952532,-59.8479318,4.6,7,https://lh3.googleusercontent.com/gps-cs-s/AC9h4npTLuXwNnSWjCZEm2Ua-5O1QaKBQPuT0dQbr917e_YfMxFkw0riFmHXbTSv0sRmB2z-mORo8x2fIURBYpEWZg47-z9V5pBnU1sp-JlIS85L2PkQlqP-PoOzeYcZ6Lu-XIfjxzHXIA=w408-h725-k-no,4.0,35,2025-05-19T00:03:05.849Z,Comercio
Osan Articulos Rurales,Comercio,,Av. Piazza 1215,,Azul,Provincia de Buenos Aires,-36.7864158,-59.8479628,4.4,9,https://streetviewpixels-pa.googleapis.com/v1/thumbnail?panoid=rNkJT69RxfU8fvWeTa9OkQ&cb_client=search.gws-prod.gps&w=408&h=240&yaw=242.82407&pitch=0&thumbfov=100,1.0,14,2025-05-19T00:03:05.849Z,Comercio
Maxiconsumo S.A.,Tienda de comestibles mayorista,http://www.maxiconsumo.com/,RN3 km 298,+54 2281 42-9892,Azul,Provincia de Buenos Aires,-36.7857632,-59.8314354,4.6,10,https://lh3.googleusercontent.com/gps-cs-s/AC9h4nrLsJVRWLj9WW3M65r-VP9vRMALJim9BcBL3GdU5MWniH_KiR9nhJLpPNQxaabDo12V9SDhqfC9HJpDArzScezJsRWftNylpFmdAOxRvkFE6YBgNUNncQovd5Hd0M4b0czDBP_k=w408-h408-k-no,34.0,287,2025-05-19T00:03:05.849Z,Comercio
Despensa El Obrero,Tienda de alimentación,,,,Azul,Provincia de Buenos Aires,-36.7892557,-59.8437871,4.6,12,https://lh3.googleusercontent.com/gps-cs-s/AC9h4nqvKtQyPMEtOCcBbVBo2HQ67SNzlzKLwaHUy_m-gSlgmZmg8j27tnmi5pCV5Qnh9umJ2V2ELAyxIIsGyS61RbJjWTyaVICEmZxTN0Ha6APhaWsYIFC0egEGyj_GzOkuvuDFVsENNQ=w408-h260-k-no,2.0,20,2025-05-19T00:03:05.850Z,Comercio
Cerealera de Arzave,Tienda de productos agrícolas,,Av. Piazza 1632,+54 2281 43-2764,Azul,Provincia de Buenos Aires,-36.7910432,-59.84136,4.6,13,https://streetviewpixels-pa.googleapis.com/v1/thumbnail?panoid=3tkgzkD1bayTKXWBU3NpgQ&cb_client=search.gws-prod.gps&w=408&h=240&yaw=53.254375&pitch=0&thumbfov=100,1.0,5,2025-05-19T00:03:05.850Z,Comercio
Salon De Fiestas Don...,Comercio,,C. 62 560,,Azul,Provincia de Buenos Aires,-36.7917175,-59.8427933,4.6,14,https://lh3.googleusercontent.com/gps-cs-s/AC9h4npwUcoo9VGXl8e8QqYNk6kTKyKQNgDXLIgtq0OA4nUyfECu11pIrgChzciTh-k_QwvpvRTLaNN8-klxrcxba5PdP3tNGNDH4u3AOjvxtm-r1NGwbGhPKsGrOJSg6Zjw4ZQptkhXZA=w408-h306-k-no,6.0,17,2025-05-19T00:03:05.850Z,Comercio
Consumas azul s.a.,Tienda de alimentación,,Islas Malvinas 455,,Azul,Provincia de Buenos Aires,-36.7844352,-59.8489329,3.6,15,https://lh3.googleusercontent.com/gps-cs-s/AC9h4nqDIyRsKqGvSwq3QXEDPHBCP9XrBK02U1QP1GwsPpM4yW1oW0H3qyWWWKmShygsLpL4zChOO7LVbRyzhiP7m-1WrS83yXCTLkFwV8vL8LlLw7o3Ev9Cvsmro69aAyLX5cvq_AUkHg=w426-h240-k-no,2.0,7,2025-05-19T00:03:05.850Z,Comercio
Supermercado Apícola,Tienda de alimentación,,,,Azul,Provincia de Buenos Aires,-36.7849399,-59.8483067,3.5,16,https://streetviewpixels-pa.googleapis.com/v1/thumbnail?panoid=Snp1v-AGQB2RQ5jXGigkWA&cb_client=search.gws-prod.gps&w=408&h=240&yaw=272.70828&pitch=0&thumbfov=100,1.0,6,2025-05-19T00:03:05.850Z,Comercio
Marquesto,Supermercado,,C. de las Carretas 772,,Azul,Provincia de Buenos Aires,-36.7928314,-59.848436,4.0,17,https://streetviewpixels-pa.googleapis.com/v1/thumbnail?panoid=UJmr5Tv-3MIfrNNgZzowKA&cb_client=search.gws-prod.gps&w=408&h=240&yaw=325.75876&pitch=0&thumbfov=100,1.0,4,2025-05-19T00:03:05.850Z,Comercio
Cooperativa Obrera,Tienda de alimentación,http://www.cooperativaobrera.coop/,Av. Piazza 1101,+54 2281 43-3933,Azul,Provincia de Buenos Aires,-36.785482,-59.849406,4.3,18,https://lh3.googleusercontent.com/gps-cs-s/AC9h4npljsSU283juYtl4SIXJ3uTWoxcZnIqgV2Sgo_M9ZOCOvrVav2mgcZT_XJ7C1U_bS_7aWmAWzUKk6qCx6d0cn7Nk7eCyn4jlWv97DWnGV_VitJInClsR0-KKdBn3sLbZFTKSud0=w408-h306-k-no,335.0,1642,2025-05-19T00:03:05.850Z,Comercio
Frutería VERDULERIA DM,Frutería,,C. Industria 248,,Azul,Provincia de Buenos Aires,-36.783993,-59.8425578,5.0,19,https://lh3.googleusercontent.com/gps-cs-s/AC9h4noRRM5WXZgwzoUnqS0Efq_W8L2bE56plaQ7PT2X2jjkV3mfk-iAQQo0qlrZKo_x4S3dSq5D0a95OoFQBBMjkj68BQNiivWWmEtaqV1TYP7rQfAcXesLwPXGDXFZG3vFA4rWOnnCTA=w408-h725-k-no,2.0,2,2025-05-19T00:03:05.850Z,Comercio
N.A Ruedas,Comercio,,,,Azul,Provincia de Buenos Aires,-36.7816052,-59.853376,4.0,20,https://streetviewpixels-pa.googleapis.com/v1/thumbnail?panoid=FecxFoCRYxRmucNNC0rV1g&cb_client=search.gws-prod.gps&w=408&h=240&yaw=328.67673&pitch=0&thumbfov=100,1.0,5,2025-05-19T00:03:05.850Z,Comercio
LA GRAN BARATA DE AZUL,Tienda de ropa,,Av. Piazza 1537,,Azul,Provincia de Buenos Aires,-36.7897481,-59.8436697,,25,https://streetviewpixels-pa.googleapis.com/v1/thumbnail?panoid=dEEyFr0vJuWMUDq2ZpgbdQ&cb_client=search.gws-prod.gps&w=408&h=240&yaw=210.46144&pitch=0&thumbfov=100,1.0,0,2025-05-19T00:03:06.653Z,Comercio
Dash Deportes,Tienda de ropa,https://www.tiendadash.com.ar/,RUTA NACIONAL 3 N° 590,+54 11 5942-5984,Azul,Provincia de Buenos Aires,-36.7932096,-59.8423677,4.5,28,https://lh3.googleusercontent.com/gps-cs-s/AC9h4noaVKZkJ_LuapH4CvcgLguVkhXE-tc9PoSShHUifkaHUletPZBA5R3j-9nqQSlWCMmKvX1O1KxfZbHThYyRo69XyyHEQ-KZ3ydT0gN7AlzklYFCRIRJqsfS_XkXr7Yk3vBjQ0SE=w426-h240-k-no,4.0,190,2025-05-19T00:03:06.653Z,Comercio
Rotondo y Peyré,Tienda de materiales para la construcción,,Ruta 3 y Pringles Km 298,+54 2281 40-7962,Azul,Provincia de Buenos Aires,-36.7860398,-59.8340942,4.6,29,https://lh3.googleusercontent.com/gps-cs-s/AC9h4no8d8I7uL23YHGjPmrSpjtS-lTO0CmttHC0uMzIJdAK_9Ue7LyXBdRytkvNIrOWJ8_jy8s4lUaLfsBHA39i3ycWg-wBmrQYEfV6X69WXm9xoeLz4zgoKBe7exGYLe93RvEVMY6z-g=w408-h306-k-no,37.0,220,2025-05-19T00:03:06.654Z,Comercio
NIDE SEMILLAS,Tienda de ropa,,U. Illia,,Azul,Provincia de Buenos Aires,-36.7930838,-59.8423762,,30,https://streetviewpixels-pa.googleapis.com/v1/thumbnail?panoid=N_MiaTwr-672_B7HlWOuvQ&cb_client=search.gws-prod.gps&w=408&h=240&yaw=317.29968&pitch=0&thumbfov=100,1.0,0,2025-05-19T00:03:06.654Z,Comercio
Maderera Verónica,Establecimiento de venta de madera,,Av. Piazza 1575,+54 2281 52-7878,Azul,Provincia de Buenos Aires,-36.7906923,-59.8423949,5.0,31,https://lh3.googleusercontent.com/gps-cs-s/AC9h4no-5dqn3i-ESVsLDr-D1jCSIO3Bk_tGoedAu8bi7Y2oz2zyALXJeFuHixn7PXSkvCs3kSB10AB2xelQmRYhV6YF8Tjw310kwXvnEHHldPHegcAdPCWDrnQ2dpWPBnfYxo06wKZMvA=w408-h306-k-no,5.0,11,2025-05-19T00:03:06.654Z,Comercio
Full,Cafetería,,6545+42,,Azul,Provincia de Buenos Aires,-36.7946263,-59.8424887,4.5,32,https://lh3.googleusercontent.com/gps-cs-s/AC9h4nokRHjySPz1VtVYdTnRAT-1p1Spe5eePHHEZyYezr9E-mmS_sruMljKxGDUAeaEPg2C9RUVITGIV0T7IivtBcI4SrGsyI-JRMdLk9VKA-GRu7vmwTt9yxSy4lBwyh9wZk5fsU2N=w513-h240-k-no,63.0,383,2025-05-19T00:03:06.654Z,Comercio
La casa de la bomba de agua,Tienda de repuestos de automóviles usados,,,+54 2281 65-4618,Azul,Provincia de Buenos Aires,-36.789404,-59.8436226,4.5,33,https://lh3.googleusercontent.com/gps-cs-s/AC9h4noPC0m-7V5bNRrwU7yKp8f3LCBPKzMnlJnswy69dnLIfoTXyrAiIZcHw18pbgaN41MqQPaJCeqwjb1HSXHZSNBtQAUFl5PnX6F82O61GzV_LY0t4CdkmZr85ryqxJh9wSjM6ejjgQ=w426-h240-k-no,5.0,4,2025-05-19T00:03:06.654Z,Comercio
Tapicería Néstor,Tapicería,,C. 61 618,+54 2281 50-6179,Azul,Provincia de Buenos Aires,-36.7929855,-59.8431594,4.9,34,https://lh3.googleusercontent.com/gps-cs-s/AC9h4noryBqiphTisvIxKqDKI4mWr0wl8stGw-zWjn788KqtB0GN1kpjqpJSJviVCkBd0jpC4sU7C-WLdHd_YIiaEje38Z7wVuc1LuPOGl_ROzeIaZNi8phKo_ZtoFrhDgDf1K40fYf0dQ=w426-h240-k-no,13.0,8,2025-05-19T00:03:06.654Z,Comercio
Autopartes Ruta 3,Tienda de accesorios para camiones,,P. Bogliano 42836,+54 2281 55-2534,Azul,Provincia de Buenos Aires,-36.7902976,-59.8375472,5.0,35,https://lh3.googleusercontent.com/gps-cs-s/AC9h4nr_EHFQMYpljZULTktnun8zfV_Wm7xdWoXmUNr6C0uLwi6SdyIp-BYrQLadrhqDfwHJkTO0uWFi0SDkxQLIHSF9CG8urGATARzNSY0zaQt2kg0RWD1dESFoU-69SV-Y8_tm0JgP=w408-h263-k-no,2.0,5,2025-05-19T00:03:06.654Z,Comercio
Gomeria 298,Tienda de neumáticos,,"7300, RN3 km298",,Azul,Provincia de Buenos Aires,-36.7881433,-59.833773,2.0,36,https://lh3.googleusercontent.com/gps-cs-s/AC9h4nrTpAl1m9QTecA4EDyY7tbE4bhpd6MknhiHKq-OFi_nKFU8KIX-8FNLZi2yggOu0BD6XhFaO-BnFu-EPQEVrWMIPMvXi_6TcQEws-Th90dCYTeHTam7rAMiNzL2Ndg1mmcWuUFa5A=w426-h240-k-no,2.0,2,2025-05-19T00:03:06.654Z,Comercio
Felor SRL,Tienda de materiales para la construcción,http://www.felorsrl.com.ar/,RN3 600 km 298,+54 2281 55-4802,Azul,Provincia de Buenos Aires,-36.7890831,-59.8372846,5.0,37,https://streetviewpixels-pa.googleapis.com/v1/thumbnail?panoid=wXFNilakiG1i0bZmxPWo0A&cb_client=search.gws-prod.gps&w=408&h=240&yaw=317.04324&pitch=0&thumbfov=100,1.0,1,2025-05-19T00:03:06.654Z,Comercio
"Gomería ""El José""",Tienda de neumáticos,,RN3 kilómetros 301,+54 2281 35-1015,Azul,Provincia de Buenos Aires,-36.793324,-59.8420161,3.7,38,https://lh3.googleusercontent.com/p/AF1QipNmbYhsk6UzVIUYyfa3Y4kJpLlZ5_QnUFfPSbjF=w408-h544-k-no,29.0,3,2025-05-19T00:03:06.655Z,Comercio
Lonuevo.azul,Tienda de ropa,,Av. 25 de Mayo 1299,+54 9 2281 56-4986,Azul,Provincia de Buenos Aires,-36.7891131,-59.8714264,4.3,61,https://lh3.googleusercontent.com/p/AF1QipMTvhhzdyQ8dIVaAfT5Y8gwrPvngiWZGuuTseIA=w408-h408-k-no,2.0,3,2025-05-19T00:03:07.001Z,Comercio
LISBOA Indumentaria,Tienda de ropa,,Av. Juan Domingo Perón 823,+54 2281 55-0723,Azul,Provincia de Buenos Aires,-36.7857423,-59.8605109,5.0,62,https://lh3.googleusercontent.com/gps-cs-s/AC9h4npLPPamdWc1sWP5SDpqhi_aPgbKfss3PCKoxYowyprerxdb0qqh3OhNM8tWxSisqXSfKg6v2W0C6T4s0hUcJfO7dyzjM9NY7ZgCYdFB44fPi94_XUEliOdgRPMHnL7KwjOi8ezk=w408-h408-k-no,16.0,3,2025-05-19T00:03:07.001Z,Comercio
Cintia Burgos Ventas,Tienda de ropa,,Manuel Castellar 1412,,Azul,Provincia de Buenos Aires,-36.7945176,-59.8686338,5.0,63,https://streetviewpixels-pa.googleapis.com/v1/thumbnail?panoid=TW199NenPVtFLIlTXD-eNA&cb_client=search.gws-prod.gps&w=408&h=240&yaw=298.2043&pitch=0&thumbfov=100,1.0,2,2025-05-19T00:03:07.001Z,Comercio
M3ntes_1mparables,Tienda de belleza y salud,,Leyria 1411,+54 9 2281 35-6313,Azul,Provincia de Buenos Aires,-36.7939012,-59.8689534,,64,https://streetviewpixels-pa.googleapis.com/v1/thumbnail?panoid=DdC7GyK13ho-RkVjwvGxyQ&cb_client=search.gws-prod.gps&w=408&h=240&yaw=135.87042&pitch=0&thumbfov=100,2.0,0,2025-05-19T00:03:07.001Z,Comercio
Distribuidora FERRE-COR-,Tienda de herramientas,http://distriuidoraferrecor.com/,Miñana 763,+54 3543 51-0978,Azul,Provincia de Buenos Aires,-36.7904859,-59.8678205,5.0,65,https://lh3.googleusercontent.com/p/AF1QipN30q2Pp6-2xXd7Uy0aKMrkTGZ4P-5MEOs_8tPU=w408-h306-k-no,13.0,1,2025-05-19T00:03:07.002Z,Comercio
Al Sur Del Atardecer,Frutería,,Av. 25 de Mayo 1579,,Azul,Provincia de Buenos Aires,-36.7927802,-59.8757745,4.3,66,https://lh3.googleusercontent.com/gps-cs-s/AC9h4npAX5lB7uRmQMgl8q4eywXi6jZ_wPk3ZRCCkKXqpfhr6dUtsUuW06Vfr5git2C5uhcNbrxJSqRSZoYnV5tPxuoNTkuDwBxY5-SeBxtpbewdsyOeitsdGB6keZxK2weX-lIbpSP4=w408-h354-k-no,18.0,44,2025-05-19T00:03:07.002Z,Comercio
Kolman,Tienda de materiales para la construcción,,"nuevo telefono 02281 42-4971, Av. Piazza 1142",+54 2281 42-4971,Azul,Provincia de Buenos Aires,-36.7853586,-59.84893,4.4,67,https://lh3.googleusercontent.com/gps-cs-s/AC9h4noPFoEiPWp-Jtcw3NbL5-gGp2brt1ZM1Z_6J2WgrtorzUfQrXMQT8eD3kHNUVzK6I0tj3jImfxuOexYVrtSeRb_YbBKMtypEMcNNP2CN4riBLf9nJ7wSb4zj7cRn5uMb-wduio=w408-h306-k-no,3.0,16,2025-05-19T00:03:07.002Z,Comercio
Tienda boliviana Meyli,Tienda de ropa,,San Martín 990,+54 2281 47-4537,Azul,Provincia de Buenos Aires,-36.7849633,-59.8543656,,68,https://lh3.googleusercontent.com/gps-cs-s/AC9h4npNVRWRIC5lERbfF5-UAz_JWPmMJzontXGUQp7QRd60jx1H5vR4EgE77GdG7Meu01EAkeVGx6GRik3dkcAUp_XBi5B9-_VZ9hHxjgp3xnr4-VH8vl3NlzuNuHhZT1HRO6B8xUkU=w426-h240-k-no,5.0,0,2025-05-19T00:03:07.002Z,Comercio
Ferretería Ramallo,Comercio,,Islas Malvinas 1041,+54 2281 52-8183,Azul,Provincia de Buenos Aires,-36.791899,-59.8577516,,69,https://lh3.googleusercontent.com/p/AF1QipNgHIuRIZkHBUnmG3cm5LtHq8WWK0F3crah7G7s=w408-h544-k-no,6.0,0,2025-05-19T00:03:07.002Z,Comercio
Despensa 18 De Abril,Tienda de alimentación,,Monseñor Caneva 776,,Azul,Provincia de Buenos Aires,-36.7868624,-59.8561794,,70,https://streetviewpixels-pa.googleapis.com/v1/thumbnail?panoid=Wa--WoeAVk4Y8GBO3tLaoA&cb_client=search.gws-prod.gps&w=408&h=240&yaw=321.30966&pitch=0&thumbfov=100,1.0,0,2025-05-19T00:03:07.002Z,Comercio
Amor Intenso Lencería,Tienda de lencería,,"Misiones entre España, Leyria y",,Azul,Provincia de Buenos Aires,-36.7953777,-59.8718357,4.9,71,https://lh3.googleusercontent.com/p/AF1QipOSpVK-R21nJBc6RS2yHTb4z5m1YEypWCh5LuPd=w408-h410-k-no,39.0,25,2025-05-19T00:03:07.002Z,Comercio
Pollería Alitas,Comercio,,Monseñor Caneva 776,,Azul,Provincia de Buenos Aires,-36.7868214,-59.8562264,,72,https://streetviewpixels-pa.googleapis.com/v1/thumbnail?panoid=Wa--WoeAVk4Y8GBO3tLaoA&cb_client=search.gws-prod.gps&w=408&h=240&yaw=319.92548&pitch=0&thumbfov=100,1.0,0,2025-05-19T00:03:07.002Z,Comercio
Libreria Lápices,Librería,,,,Azul,Provincia de Buenos Aires,-36.7854197,-59.8625749,5.0,73,https://streetviewpixels-pa.googleapis.com/v1/thumbnail?panoid=Il68_sLhcfiQay12Y3rZ8g&cb_client=search.gws-prod.gps&w=408&h=240&yaw=348.01227&pitch=0&thumbfov=100,1.0,1,2025-05-19T00:03:07.002Z,Comercio
Arrouzet Motors,Comercio,,España 861,+54 2281 42-3209,Azul,Provincia de Buenos Aires,-36.7856474,-59.8609101,4.6,74,https://lh3.googleusercontent.com/gps-cs-s/AC9h4npp5JNU7enmG8-NIuYGz5z6GHfa-rLy0vz7bWcbx58V49ue8iGJ0MVD8RYNHTWvRUG3zbd2tvvlwYh1Opz_675lnnBtqIxyQCBI5R9_l1x65TAtd1I828wQKC80zkd1mACEcZgL=w408-h725-k-no,3.0,28,2025-05-19T00:03:07.002Z,Comercio
"Frutería Y Verdulería ""La 25""",Tienda de alimentación,,,,Azul,Provincia de Buenos Aires,-36.7876258,-59.8696962,,75,https://lh3.googleusercontent.com/gps-cs-s/AC9h4nrDUh1BrA1QTutpW9Nm1OeC03t7qvwpAe2OuhswkRfx4hcBwUJXyZMcJfND2UQt7qrdmGE3EBOo-mtMXpPTjFj9zXyHVnFgVulM-3Ou1TV6jYBz4p0DgM5PF6AbitpuZzU76YL0=w408-h725-k-no,,0,2025-05-19T00:03:07.002Z,Comercio
Vivero de Azul,Centro de jardinería,,Av. 25 de Mayo 1196,+54 2281 57-5151,Azul,Provincia de Buenos Aires,-36.7873175,-59.8697707,4.5,76,https://lh3.googleusercontent.com/gps-cs-s/AC9h4npcBZEJWVhgkIDZrupnDuinulJTy2wmMKAj9joKxpj---amfH1yI1iX6-uOeBAWuXZey3tcDNU7GdqTrylKdhYWV-TXb3JxuVg_a0PrgcWMqd2ELo_T_Z2yx8WtYgyiU0FUudSgqw=w408-h306-k-no,43.0,20,2025-05-19T00:03:07.002Z,Comercio
Los Naranjos,Tienda de alimentación,,,,Azul,Provincia de Buenos Aires,-36.7860544,-59.8601134,,77,https://streetviewpixels-pa.googleapis.com/v1/thumbnail?panoid=7oF6nFSiPunxWsiAudAzbQ&cb_client=search.gws-prod.gps&w=408&h=240&yaw=287.7599&pitch=0&thumbfov=100,1.0,0,2025-05-19T00:03:07.002Z,Comercio
Vivero Punto Verde,Centro de jardinería,,Av. 25 de Mayo,,Azul,Provincia de Buenos Aires,-36.7876495,-59.8704357,4.8,78,https://lh3.googleusercontent.com/gps-cs-s/AC9h4nqT-Y-TvQxeW7pJYxX1qTR_DD6ulpO5MPkEft-6LyOCcf9xr4JJYVGAAQQefTSdok1hH3HT4RvcNXBsXj5ht-6XGJSm2VvFBeFyoqHuLU5zas6eFtV_IWspQU6xxQb4PliHC020=w408-h306-k-no,94.0,29,2025-05-19T00:03:07.002Z,Comercio
Autoservicio MARQUESTAU,Tienda de alimentación,,"Arenales 1152-1200, B7300FTX",+54 2281 42-6270,Azul,Provincia de Buenos Aires,-36.7882433,-59.8672784,4.5,79,https://lh3.googleusercontent.com/gps-cs-s/AC9h4noPQlMAzFFOFakAvZDVu-XgmcXghx4jU2m-KjxRb7OX8iSylSpekOkpzTDNTvFJWSNz_YcPof34hsnqCVKMLV_iOO2MI6r7R-VGzR4nNtWMT7XfpcfCtt4JtR6pxGX8qG1aAAKw=w408-h306-k-no,3.0,221,2025-05-19T00:03:07.002Z,Comercio
Supermercado del vino,Tienda de bebidas alcohólicas,,Av. Juan Domingo Perón 901,,Azul,Provincia de Buenos Aires,-36.7868121,-59.8591254,4.9,80,https://lh3.googleusercontent.com/gps-cs-s/AC9h4npQq2dTlOa9WKf6c9bUFptEh8NlXctqiex1Ax99B26BCe5JBF49x1-QMw8P9zOeMbKj_7_nYQPLsEO3x0pwwgsw4HArK6m3_6xyGlYT7ih-VKAmUD1UPn6glJ1nGuLLVDK1JEAhrA=w408-h725-k-no,4.0,9,2025-05-19T00:03:07.003Z,Comercio
Aquellarre,Joyería,,Constitución 991,,Azul,Provincia de Buenos Aires,-36.7921219,-59.8564011,,81,,,0,2025-05-19T00:03:08.328Z,Comercio
Supermercado Luna,Supermercado chino,,Miñana 670,,Azul,Provincia de Buenos Aires,-36.7889883,-59.8693408,4.0,82,https://streetviewpixels-pa.googleapis.com/v1/thumbnail?panoid=ho46k0nU6BJqQpMTQbDnxQ&cb_client=search.gws-prod.gps&w=408&h=240&yaw=52.569065&pitch=0&thumbfov=100,1.0,47,2025-05-19T00:03:08.328Z,Comercio
Despensa Raices,Tienda de alimentación,,Julio Argentino Roca 898,,Azul,Provincia de Buenos Aires,-36.7858053,-59.8582611,,83,https://streetviewpixels-pa.googleapis.com/v1/thumbnail?panoid=efy2rcvviPy62-NIsKU86Q&cb_client=search.gws-prod.gps&w=408&h=240&yaw=39.65677&pitch=0&thumbfov=100,1.0,0,2025-05-19T00:03:08.328Z,Comercio
Super chino Jb Justo,Supermercado,,Avenida Juan B. Justo 1381,,CKA,Provincia de Buenos Aires,-36.7930597,-59.8509095,4.1,84,https://lh3.googleusercontent.com/gps-cs-s/AC9h4np5W_abdMQ3ByJVUVBn0RK3S-mkHgWjHt-QnowqjeZTPUxmDNg18oof4uwVJxi8hP8m3Lr_6omWDu5ThugJot-mJPItAtVVR61CPOv6ihnMbPBjUrEDvrCrkT-2ULwtWbZWKCFx=w408-h380-k-no,2.0,56,2025-05-19T00:03:08.328Z,Comercio
Categoria Siete,Comercio,http://www.categoriasiete.com.ar/,Lavalle 785,+54 2281 40-4931,Azul,Provincia de Buenos Aires,-36.7861193,-59.8569912,4.3,85,https://lh3.googleusercontent.com/gps-cs-s/AC9h4nqxCuOoMK0RF2siTCkSBaIC87YlkGKk52UsRKj5c5tjRB3eqLnxTaLkcGs375uaX9O-bD91TjJ8WcE5HJlyc6e408ccrjY12afN1PhglDB-AmdULpi911x2Z2kqqnYHtPyz03ym=w408-h313-k-no,6.0,11,2025-05-19T00:03:08.328Z,Comercio
La casa de las telas,Tienda de telas,,Av. 25 de Mayo 1631,,Azul,Provincia de Buenos Aires,-36.7936097,-59.8766341,4.6,86,https://streetviewpixels-pa.googleapis.com/v1/thumbnail?panoid=y85SmyS1XFHwExXSYpzxwQ&cb_client=search.gws-prod.gps&w=408&h=240&yaw=130.94821&pitch=0&thumbfov=100,1.0,51,2025-05-19T00:03:08.328Z,Comercio
El Amigo Mesura Azul Buenos Aires,Supermercado,,Mesura 881,,Azul,Provincia de Buenos Aires,-36.7976058,-59.8728368,4.3,87,https://streetviewpixels-pa.googleapis.com/v1/thumbnail?panoid=nYyrTZZeLZnysPJ9gjsdUQ&cb_client=search.gws-prod.gps&w=408&h=240&yaw=232.47546&pitch=0&thumbfov=100,1.0,3,2025-05-19T00:03:08.328Z,Comercio
Herencia Real - Tienda de carnes,Carnicería,,Falucho 749,+54 2281 32-3680,Azul,Provincia de Buenos Aires,-36.789468,-59.8673459,4.3,88,https://lh3.googleusercontent.com/p/AF1QipMgBLWTQzv_lCwdLzA-Re9g0BzySrdO_SYWGz73=w493-h240-k-no,4.0,3,2025-05-19T00:03:08.328Z,Comercio
Indumentaria Osqui,Tienda de ropa,https://www.facebook.com/Indumentaria-Osqui-428721824602144/,Monseñor Caneva 750,,Azul,Provincia de Buenos Aires,-36.7865833,-59.8558507,,89,https://streetviewpixels-pa.googleapis.com/v1/thumbnail?panoid=OrnjsKHPdumqe58lGWnVMg&cb_client=search.gws-prod.gps&w=408&h=240&yaw=329.07828&pitch=0&thumbfov=100,1.0,0,2025-05-19T00:03:08.329Z,Comercio
Onlyus,Tienda de ropa,,Burgos 1166,,Azul,Provincia de Buenos Aires,-36.7851539,-59.8717892,,90,https://streetviewpixels-pa.googleapis.com/v1/thumbnail?panoid=u3fIMYjy4tvdKw4QyLKcbg&cb_client=search.gws-prod.gps&w=408&h=240&yaw=299.43787&pitch=0&thumbfov=100,1.0,0,2025-05-19T00:03:08.329Z,Comercio
Corralon Palopoli,Tienda de materiales para la construcción,,España 1089,+54 2281 42-6259,Buenos Aires,Provincia de Buenos Aires,-36.7886224,-59.8644273,3.6,91,https://lh3.googleusercontent.com/gps-cs-s/AC9h4nrcgcLD_2rJycq1lH2MGUm4Bw8KdrDmRWzuCPCT-posQSBz09Y9bmMHy2eteaXqnHLiJfY-g_uFwDMcICF4V0NtsuvfOAzDJqvD_KTUWPoFRtP3ZSzjLH_MQw7mfK4IegPAe2d0PQ=w408-h544-k-no,2.0,15,2025-05-19T00:03:08.329Z,Comercio
Pensado Para Vos Indumentaria & Calzado,Tienda de ropa,,Monseñor Caneva 682,,Azul,Provincia de Buenos Aires,-36.7856617,-59.8547245,,92,https://streetviewpixels-pa.googleapis.com/v1/thumbnail?panoid=hY_b283DQIMqDQoCnDhgkg&cb_client=search.gws-prod.gps&w=408&h=240&yaw=296.1872&pitch=0&thumbfov=100,1.0,0,2025-05-19T00:03:08.329Z,Comercio
Ferreteria Calá,Ferretería,,Av. 25 de Mayo 1258,,Azul,Provincia de Buenos Aires,-36.7882098,-59.870946,4.5,93,https://streetviewpixels-pa.googleapis.com/v1/thumbnail?panoid=GpiZmf6MZglpP3GigRHDlg&cb_client=search.gws-prod.gps&w=408&h=240&yaw=332.76053&pitch=0&thumbfov=100,1.0,17,2025-05-19T00:03:08.329Z,Comercio
Pedro Carnadas,Tienda de artículos de pesca,,Av. 25 de Mayo 1174,+54 2281 53-5819,Azul,Provincia de Buenos Aires,-36.7870268,-59.8695468,4.5,94,https://lh3.googleusercontent.com/gps-cs-s/AC9h4nr0gWgieoaQzkQLwYPkGvjnXzpVdI9CEu4lmUNwkibcxyXZZL08pC_7hH79q7tuzGUCh6_UUv14LG59Hq73ecoqEcFZtdVLBsZtvD_bzco-lqefyEgHFfuGMKG4Wudpv8duat2Z=w408-h725-k-no,3.0,23,2025-05-19T00:03:08.329Z,Comercio
Hiper Blanco,Tienda de ropa de hogar,http://www.hiperblanco.com/,Av. 25 de Mayo 1012,+54 9 2281 59-1392,Azul,Provincia de Buenos Aires,-36.7848103,-59.8669476,5.0,95,https://lh3.googleusercontent.com/p/AF1QipMfYvp6S9z85xGFlPI7Z1c9VKZ9BQ-Nk40GEnv6=w408-h306-k-no,105.0,8,2025-05-19T00:03:08.329Z,Comercio
Alma Verde,Centro de jardinería,https://www.facebook.com/alma.verde.9235,Necochea 1636,+54 2281 30-6734,Azul,Provincia de Buenos Aires,-36.7938739,-59.8760565,5.0,96,https://lh3.googleusercontent.com/p/AF1QipPUoBMNpepJmFIkF5-eqP67zthr_09ZHWUa7ke8=w408-h544-k-no,17.0,1,2025-05-19T00:03:08.329Z,Comercio
Maderera patricia,Tienda de materiales para la construcción,,Avenida Juan B. Justo,,Azul,Provincia de Buenos Aires,-36.792,-59.8519384,,97,https://streetviewpixels-pa.googleapis.com/v1/thumbnail?panoid=PBsVkiQQn4qPExxg7mX6Kg&cb_client=search.gws-prod.gps&w=408&h=240&yaw=134.90979&pitch=0&thumbfov=100,1.0,0,2025-05-19T00:03:08.329Z,Comercio
Electricidad Rovill Iluminacion,Tienda de bricolaje,,,,Azul,Provincia de Buenos Aires,-36.7868582,-59.8655616,,98,https://streetviewpixels-pa.googleapis.com/v1/thumbnail?panoid=fTW6sG_td7lS_P77Ar1ZPw&cb_client=search.gws-prod.gps&w=408&h=240&yaw=55.30195&pitch=0&thumbfov=100,1.0,0,2025-05-19T00:03:08.329Z,Comercio
JIREH~MyP,Tienda de belleza y salud,,De los Fortines 921,+54 2281 49-9804,Azul,Provincia de Buenos Aires,-36.7943169,-59.8512411,5.0,99,https://streetviewpixels-pa.googleapis.com/v1/thumbnail?panoid=4pmk_SI7xWBPBauvKVl6wQ&cb_client=search.gws-prod.gps&w=408&h=240&yaw=205.74976&pitch=0&thumbfov=100,1.0,2,2025-05-19T00:03:08.329Z,Comercio
LUBRICENTRO LUBRIBOUTIQUE 25,Tienda de repuestos para automóviles,https://www.facebook.com/LubriBoutique25-164831817197166/,Neuquén 624,+54 2281 30-1562,Azul,Provincia de Buenos Aires,-36.7906061,-59.8727402,5.0,100,https://lh3.googleusercontent.com/gps-cs-s/AC9h4npkaBiW3hJG96eotQJm2BG5FWPFNfyL4Y4l6n7TE5cX9-j1Ky78eCae1AGJZOUJB8eUIiaCduLEL6lZdk7N7QcqOP4iBQfBPEokUEa9JjsB4NXhk_-n-fjlp_drcYN8w5Wav-5p=w533-h240-k-no,57.0,14,2025-05-19T00:03:08.329Z,Comercio
Mimo Revestimientos Baños y Cocinas,Tienda de materiales para la construcción,https://m.facebook.com/mimobanosycocinas/?ref=bookmarks,Av. Juan Domingo Perón,+54 2281 65-1284,Azul,Provincia de Buenos Aires,-36.7884281,-59.8569147,4.5,101,https://lh3.googleusercontent.com/gps-cs-s/AC9h4noEm41dh2_Ye0jMhy0szuqJvmfB-D2dLF8Oj-Aslmk1-NhBx6AMUUdcf-CH7vtxC7Oe2n9nBgRjqYF2Pth3Mo9B80mje2EO2ifKUWVD2O6DhgDnkbNP9jwdjl7G2y68emYU1_73IQ=w419-h240-k-no,41.0,159,2025-05-19T00:03:09.772Z,Comercio
Reparación de parabrisas. Mario Luis Ferrari,Comercio,,Julio Argentino Roca 860,+54 2281 52-5036,Azul,Provincia de Buenos Aires,-36.7852762,-59.8588501,5.0,102,https://streetviewpixels-pa.googleapis.com/v1/thumbnail?panoid=zHo5A-IibkoZMWnRYEiDAw&cb_client=search.gws-prod.gps&w=408&h=240&yaw=50.82008&pitch=0&thumbfov=100,2.0,1,2025-05-19T00:03:09.772Z,Comercio
Corazón de Tiza,Tienda de uniformes,https://www.facebook.com/corazondetizaazul,"0, España 815",,Azul,Provincia de Buenos Aires,-36.784856,-59.8599937,5.0,103,https://lh3.googleusercontent.com/p/AF1QipMDz3MVbEqHZmxnE_Y529qvHhJHlMRvcUrP8E0p=w408-h408-k-no,9.0,1,2025-05-19T00:03:09.772Z,Comercio
Despensa San Juan,Tienda general,,Maipú Nte. 150,,Azul,Provincia de Buenos Aires,-36.7648425,-59.8538503,5.0,16,https://lh3.googleusercontent.com/gps-cs-s/AC9h4noWCSmOvUB5jE9_LnO21kO6hh3iTjp3K29C7vJoCWLkSDQh_egLTQtVRSE6L5G7y1SGRT10ukRi_0i9SsdrNwWWzRcIIjY_ooglOt0dcswI42ZWUVR91AMHO4IPEpJ3UCZkhYTBBA=w408-h725-k-no,3.0,1,2025-05-19T00:03:11.145Z,Comercio
El Ombú,Tienda de alimentación,,Laprida 209,+54 2281 58-3401,Azul,Provincia de Buenos Aires,-36.767089,-59.8627622,5.0,19,https://streetviewpixels-pa.googleapis.com/v1/thumbnail?panoid=xOSYwhC-5wFLm1r3ZjiBjA&cb_client=search.gws-prod.gps&w=408&h=240&yaw=299.252&pitch=0&thumbfov=100,1.0,1,2025-05-19T00:03:11.145Z,Comercio
Puente Azul,Tienda de ropa,,San Martín,,Azul,Provincia de Buenos Aires,-36.7741977,-59.8683686,4.7,20,https://lh3.googleusercontent.com/gps-cs-s/AC9h4noKlDLTzN6jZjnYJdDLynBqPvn3sCcmTVCYMQ_3abxuUhyZz9iCB7_K4KesXr2-9YwF6Rw--9hWtY_1k6R1fBkC3QAe1mAGVbn4cU1VlOo4MN_rmZ3_2Bt1AWggw8F2_fgkfrft=w408-h720-k-no,6.0,12,2025-05-19T00:03:11.145Z,Comercio
Polirubro 24/7,Comercio,,,,Azul,Provincia de Buenos Aires,-36.7975236,-59.8536291,5.0,1,,,4,2025-05-19T00:03:13.643Z,Comercio
La esquina,Kiosco,,"7300, Gral. Paz 1500",+54 2281 36-0736,Azul,Provincia de Buenos Aires,-36.7980904,-59.8535248,3.7,2,https://lh3.googleusercontent.com/p/AF1QipP1o8LwpKf0khxVBfihAWLOI4K4X00X3SCtGAg=w408-h544-k-no,1.0,3,2025-05-19T00:03:13.643Z,Comercio
Despensa Ruta 3,Tienda de alimentación,,"KM 301, RN3",,Azul,Provincia de Buenos Aires,-36.804569,-59.8553635,5.0,10,https://streetviewpixels-pa.googleapis.com/v1/thumbnail?panoid=ThXrzYtTTRhJWvCghBOEFw&cb_client=search.gws-prod.gps&w=408&h=240&yaw=241.89412&pitch=0&thumbfov=100,1.0,1,2025-05-19T00:03:13.653Z,Comercio
Minimercado TITAN,Tienda de alimentación,,,,Azul,Provincia de Buenos Aires,-36.7604215,-59.8481541,,8,https://streetviewpixels-pa.googleapis.com/v1/thumbnail?panoid=zaBYKfkBUG4WDlLRr6ouQA&cb_client=search.gws-prod.gps&w=408&h=240&yaw=113.659996&pitch=0&thumbfov=100,1.0,0,2025-05-19T00:03:14.436Z,Comercio
AUTOSERVICIO EL ENCUENTRO,Tienda de alimentación,,Colón Nte. 320,,Azul,Provincia de Buenos Aires,-36.7644665,-59.8487302,,13,https://streetviewpixels-pa.googleapis.com/v1/thumbnail?panoid=GZIFnwEkGUs_EnWSolRmCA&cb_client=search.gws-prod.gps&w=408&h=240&yaw=340.96942&pitch=0&thumbfov=100,1.0,0,2025-05-19T00:03:14.436Z,Comercio
Verduleria y Fruteria,Comercio,,Av. 25 de Mayo Nte. 359,,Azul,Provincia de Buenos Aires,-36.7661966,-59.8445089,,14,https://streetviewpixels-pa.googleapis.com/v1/thumbnail?panoid=AmEpWhPC0l51aCnnQXf_Ug&cb_client=search.gws-prod.gps&w=408&h=240&yaw=318.84302&pitch=0&thumbfov=100,1.0,0,2025-05-19T00:03:14.436Z,Comercio
B&M Autoservicio,Tienda de alimentación,,,,Azul,Provincia de Buenos Aires,-36.764096,-59.8467251,,17,https://streetviewpixels-pa.googleapis.com/v1/thumbnail?panoid=lVfoNuvtWNrBMYXSk139KQ&cb_client=search.gws-prod.gps&w=408&h=240&yaw=326.0976&pitch=0&thumbfov=100,1.0,0,2025-05-19T00:03:14.437Z,Comercio
Composse Blanqueria,Tienda de artículos para el hogar,https://instagram.com/composseblanqueria?igshid=YmMyMTA2M2Y=,Av. 25 de Mayo Nte. 291,+54 2281 41-6115,Azul,Provincia de Buenos Aires,-36.7672888,-59.8458866,4.9,18,https://lh3.googleusercontent.com/p/AF1QipM-f5zFwcdsPzjoUVu-Lu_voz-DQofeto6HTyiD=w408-h370-k-no,9.0,54,2025-05-19T00:03:14.437Z,Comercio
Super chino aldaz,Supermercado,,Aldaz 541,,Azul,Provincia de Buenos Aires,-36.76542,-59.8451763,3.7,19,https://streetviewpixels-pa.googleapis.com/v1/thumbnail?panoid=nNMwTdEhEAPCvy3rsNxQMg&cb_client=search.gws-prod.gps&w=408&h=240&yaw=239.03694&pitch=0&thumbfov=100,1.0,55,2025-05-19T00:03:14.437Z,Comercio
MINIMERCADO REAL,Tienda de alimentación,,Av. 25 de Mayo Nte.,,Azul,Provincia de Buenos Aires,-36.7691531,-59.8479986,4.0,20,https://streetviewpixels-pa.googleapis.com/v1/thumbnail?panoid=VSG6EYj33ya3MywuzpcquA&cb_client=search.gws-prod.gps&w=408&h=240&yaw=305.1798&pitch=0&thumbfov=100,1.0,1,2025-05-19T00:03:14.437Z,Comercio
Maderas Don Facundo,Establecimiento de venta de madera,,,,Azul,Provincia de Buenos Aires,-36.8045872,-59.8555544,4.9,22,https://lh3.googleusercontent.com/gps-cs-s/AC9h4npoQAsCbK3_V2pVAtWvzGSlx2QGMl1tVkkfUaWyrxfewm-rr9DjAIsiuwz5V6zkmYj_jurx4-Bere2I789LWgi5a7m2Cl23FYRafeTfyWfpSf4MAI3upX8AhgsFXmbj0cBJ3qnfmA=w519-h240-k-no,3.0,7,2025-05-19T00:03:14.963Z,Comercio
AXION,Tienda de ropa,,RN3,,Azul,Provincia de Buenos Aires,-36.7768458,-59.8235442,,8,https://streetviewpixels-pa.googleapis.com/v1/thumbnail?panoid=xcExXG0ygy9JrzMZKetUeQ&cb_client=search.gws-prod.gps&w=408&h=240&yaw=313.9052&pitch=0&thumbfov=100,1.0,0,2025-05-19T00:03:17.165Z,Comercio
Alaimo Hector R - Talabarteria El Pingo,Tienda de ropa,,Lavalle 71,+54 2281 42-8534,Azul,Provincia de Buenos Aires,-36.7767352,-59.8463493,1.8,15,https://streetviewpixels-pa.googleapis.com/v1/thumbnail?panoid=41_EM3Wl7EIPT8w8yBs3IQ&cb_client=search.gws-prod.gps&w=408&h=240&yaw=327.0398&pitch=0&thumbfov=100,1.0,4,2025-05-19T00:03:17.166Z,Comercio
Arcade remeras,Tienda de ropa,https://www.instagram.com/arcade_remeras/,,,Azul,Provincia de Buenos Aires,-36.7678478,-59.8384293,,18,https://lh3.googleusercontent.com/p/AF1QipMMByHGrLNexOFNu3vve6mQHH3iC4t5ajJOWyLm=w408-h544-k-no,97.0,0,2025-05-19T00:03:17.166Z,Comercio
"Distribuidora ""El Milagro""",Panadería,,Lavalle Nte. 0187,+54 2281 54-9787,Azul,Provincia de Buenos Aires,-36.773543,-59.8421025,4.9,24,https://lh3.googleusercontent.com/p/AF1QipOd8ukfqlmf_U9a8S6HFeMegnblx84kdm7847oV=w429-h240-k-no,23.0,46,2025-05-19T00:03:18.209Z,Comercio
Azul techos azul,Tienda de materiales para la construcción,,Lavalle Nte. 0187,+54 2281 32-1825,Azul,Provincia de Buenos Aires,-36.7729114,-59.8428683,5.0,25,,,1,2025-05-19T00:03:18.209Z,Comercio
Fruterías En Azul,Comercio,,Hipólito Yrigoyen Oeste 43 39,,Azul,Provincia de Buenos Aires,-36.7709192,-59.8709554,5.0,5,,,1,2025-05-19T00:03:20.060Z,Comercio
Centro De Carniceros Y Matarifes De Azul Sa,Carnicería,,Av. Mujica Oeste 292,,Azul,Provincia de Buenos Aires,-36.751736,-59.8550898,5.0,15,https://lh3.googleusercontent.com/gps-cs-s/AC9h4nqRW7SV4kIcvS12zCaBS7eOo0hbdvCEinSAIMaXgyJhoS_spwaAOdarLslssVf-s-FIDYJ3nJsq1WLwPA744Jk2MJRM5bDTFLsTJ50tMZ2o-9yzx1k_DX4x2UsL6qf2F1TtT25p=w408-h408-k-no,1.0,1,2025-05-19T00:03:20.061Z,Comercio
"Despensa ""Lo de Lu""",Tienda general,,Lamadrid 26,+54 2281 32-2203,Azul,Provincia de Buenos Aires,-36.7655062,-59.8612735,4.7,19,https://streetviewpixels-pa.googleapis.com/v1/thumbnail?panoid=w14JgbL1zfymlKx7RgCBvA&cb_client=search.gws-prod.gps&w=408&h=240&yaw=42.885746&pitch=0&thumbfov=100,1.0,6,2025-05-19T00:03:20.062Z,Comercio
Regaleria dc,Comercio,,0445,+54 2281 32-9996,Azul,Provincia de Buenos Aires,-36.7680925,-59.8690452,,20,https://lh3.googleusercontent.com/p/AF1QipNZ26I9wh13_ssG8i3Gq_fA08sM1OAZ9J631aXf=w408-h544-k-no,26.0,0,2025-05-19T00:03:20.062Z,Comercio
Mix,Tienda de alimentación,,Sgto. Cabral 1235,+54 2281 53-4797,Azul,Provincia de Buenos Aires,-36.7756103,-59.8843568,4.3,4,,,7,2025-05-19T00:03:20.849Z,Comercio
Señor De La Esquina,Tienda de alimentación,,Jujuy 752-800,,Azul,Provincia de Buenos Aires,-36.7755184,-59.8716283,4.6,5,https://lh3.googleusercontent.com/gps-cs-s/AC9h4npJnglI4JOC4PqnLmQTYMbY3sk3slEHS0y3Ypdm_22PmzDTR0G21sXse_aNKBbPBRFxWUptfXJjdNHGu4_l2KpDIrue6IScvleDUv2oHCew_HLEOUkpY2OgKY2uk-M4Ef3doYnm_Q=w408-h725-k-no,7.0,18,2025-05-19T00:03:20.849Z,Comercio
Kiosco Kober,Kiosco,,Burgos 1099,+54 2281 56-7613,B7300GEU,Provincia de Buenos Aires,-36.7842601,-59.8704749,4.7,6,https://lh3.googleusercontent.com/gps-cs-s/AC9h4noo14Izz_oVJ67QjIZyg7S4v7gVBTy5Y1mksU6A_jiMEXsZTW4-AOzLmaCAEx6VKk_6xS72lxMdG5Ez3Diknx6laRLjP3iX2Who928hkyTIKur7nEqV2dJPi5GIi2LviywR7lM5=w408-h306-k-no,2.0,55,2025-05-19T00:03:20.849Z,Comercio
Autoservicio Agustina,Tienda de alimentación,https://www.facebook.com/Autoservicio-Agustina-105807607022320/?ref=py_c,Av. Manuel Chaves,,Azul,Provincia de Buenos Aires,-36.7716266,-59.8721415,4.5,7,https://lh3.googleusercontent.com/gps-cs-s/AC9h4no4OFwSXq9Wvsx8cjv_8uSGE3L0ZvucoD4QHimjAMCgsYHFUcyFsiMzl28IBJP2jjbpjAhv8oZogXvM7RwMsBiMnrKfibfih5iLA_ODO1QdADRoMIQwJXrBeT39Oz_DPB8qhwd6WA=w408-h725-k-no,5.0,100,2025-05-19T00:03:20.849Z,Comercio
Incontro,Tienda de alimentación,,Burgos 812,+54 2281 57-1159,Azul,Provincia de Buenos Aires,-36.7801903,-59.8659857,4.6,9,https://lh3.googleusercontent.com/gps-cs-s/AC9h4nodYcw2h1SMJrvUFCpMaN9fYAXLXUdO0w4F7swp2JwzvCpeJVGZjMrabYAtdBHytbRZlQ8WaLCnG-z8n3BGzNYDRigQjfilEmXpOIwnR8qAmSXHIf1d7qd-FSgzcVrA1QUUJzKb=w408-h544-k-no,3.0,20,2025-05-19T00:03:20.849Z,Comercio
LA ECONOMIA,Tienda general,,,,Azul,Provincia de Buenos Aires,-36.7712874,-59.872611,5.0,10,https://streetviewpixels-pa.googleapis.com/v1/thumbnail?panoid=P94eFYLu207fTOCwIFkVtw&cb_client=search.gws-prod.gps&w=408&h=240&yaw=228.95523&pitch=0&thumbfov=100,1.0,7,2025-05-19T00:03:20.849Z,Comercio
Mkadito El Amigo,Tienda general,https://www.instagram.com/elamigo.minimercado?igsh=MXJlczVsMHRlNHU1Mw==,Av. Juan Domingo Perón,,Azul,Provincia de Buenos Aires,-36.7795388,-59.8685004,5.0,12,https://lh3.googleusercontent.com/gps-cs-s/AC9h4nooSa70XqYMVcbiQDzkKZeW1T3W5rTp7q92M9zlfzhcHHBWMMMj725Ozcpqyvv0QjfWEQzxVASXFZrHUU7cdcEnG37851IoIC9-ivI6ynvLnAaC2Squ7gZBIJ2zqMPW6VCUh-Sk=w408-h306-k-no,2.0,1,2025-05-19T00:03:20.849Z,Comercio
Real Distribuidora,Mayorista,,Jujuy 572,+54 2281 42-5968,Azul,Provincia de Buenos Aires,-36.7727863,-59.8678686,4.4,13,https://lh3.googleusercontent.com/gps-cs-s/AC9h4nrYJP9RWXXRwm7sc0PivW59hSSElW-REZbhtdOdcLxulcNF3lnAlmptH_IVZHaUD5RSlkMam6x-IZqEcUgBwOlJbJNJFViWo7rjh8Kr5ACebLkcTC4LDTC-8YUCA4Rs9rp8sLDaGg=w408-h244-k-no,22.0,37,2025-05-19T00:03:20.850Z,Comercio
Lo De Jose Minimercado,Tienda de alimentación,,,,Azul,Provincia de Buenos Aires,-36.773121,-59.8760697,,14,https://streetviewpixels-pa.googleapis.com/v1/thumbnail?panoid=XClFCNSP0y5jsYdKeC3YsQ&cb_client=search.gws-prod.gps&w=408&h=240&yaw=124.84597&pitch=0&thumbfov=100,1.0,0,2025-05-19T00:03:20.850Z,Comercio
MINIMERCADO CENTRO,Tienda de alimentación,,San Martín 389,,Azul,Provincia de Buenos Aires,-36.7774001,-59.8645378,5.0,15,https://streetviewpixels-pa.googleapis.com/v1/thumbnail?panoid=vztnRMh5eYLUH_B6qDvPYQ&cb_client=search.gws-prod.gps&w=408&h=240&yaw=183.22472&pitch=0&thumbfov=100,1.0,1,2025-05-19T00:03:20.850Z,Comercio
Giacoboni Hnos,Tienda de alimentación,,Gral. Rivas Oeste 145,+54 2281 42-2699,Azul,Provincia de Buenos Aires,-36.7766292,-59.8804386,4.1,17,https://lh3.googleusercontent.com/gps-cs-s/AC9h4nod6Z8tSjIkLHdfZ0ZaiHAxBs6N91oh4-ATm8TxaW0ANf-jFbkv4s3UpXNUGtc_mZhQZguOwyCUE0fAWZTBNokfzTEbDBr37wL4SsC7ew3aYZtI5O9ENfr9PTQW__H943WimX4=w408-h680-k-no,3.0,11,2025-05-19T00:03:20.850Z,Comercio
Kiosco bartolito,Kiosco,,Cabo Daniel A. González 891,,Azul,Provincia de Buenos Aires,-36.7723957,-59.8791519,,19,,,0,2025-05-19T00:03:20.850Z,Comercio
Alfaro Hector Raul,Comercio,,Av. Pellegrini 1835,+54 2281 43-2697,Azul,Provincia de Buenos Aires,-36.7932066,-59.882675,5.0,5,https://streetviewpixels-pa.googleapis.com/v1/thumbnail?panoid=zGbpbJ1xhIdKwYhgQHK0eQ&cb_client=search.gws-prod.gps&w=408&h=240&yaw=135.42&pitch=0&thumbfov=100,1.0,3,2025-05-19T00:03:22.446Z,Comercio
Distribuidora Miguel Marconi,Tienda de aves de corral,,España 210,+54 2281 43-0298,Azul,Provincia de Buenos Aires,-36.7768221,-59.8506507,4.4,17,https://streetviewpixels-pa.googleapis.com/v1/thumbnail?panoid=qLdmTh1LIgpVQAsaXwLz9g&cb_client=search.gws-prod.gps&w=408&h=240&yaw=313.5874&pitch=0&thumbfov=100,1.0,38,2025-05-19T00:03:23.952Z,Comercio
La saladita La Terminal,Tienda de ropa,,"Avenida 25 de Mayo Norte, Catamarca &",,Azul,Provincia de Buenos Aires,-36.7685978,-59.847185,5.0,20,,,1,2025-05-19T00:03:23.952Z,Comercio
Bacano Productos Regionales,Tienda de fiambres,,Colón 840,,Azul,Provincia de Buenos Aires,-36.7798013,-59.8672588,,22,https://streetviewpixels-pa.googleapis.com/v1/thumbnail?panoid=Hma8RRTFbgH2avej-likcA&cb_client=search.gws-prod.gps&w=408&h=240&yaw=331.30423&pitch=0&thumbfov=100,1.0,0,2025-05-19T00:03:24.954Z,Comercio
Tienda de Rock Pueblo Chico Infierno Grande,Comercio,,Burgos 872,+54 9 2281 41-2350,Azul,Provincia de Buenos Aires,-36.7810793,-59.8672105,,25,https://lh3.googleusercontent.com/p/AF1QipPSLrzHwTWeRs-mhhCexVOBZLWHpq_aM03yWuRj=w408-h725-k-no,5.0,0,2025-05-19T00:03:24.954Z,Comercio
MERCADITO AVENIDA,Tienda de alimentación,,,,Azul,Provincia de Buenos Aires,-36.7787245,-59.8691503,,29,https://streetviewpixels-pa.googleapis.com/v1/thumbnail?panoid=Ro8P1u1c-_Neqf7cAueMoQ&cb_client=search.gws-prod.gps&w=408&h=240&yaw=294.21707&pitch=0&thumbfov=100,1.0,0,2025-05-19T00:03:24.954Z,Comercio
Autoservicio Av. Perón,Tienda de alimentación,,,,Azul,Provincia de Buenos Aires,-36.7808049,-59.8664364,,33,https://streetviewpixels-pa.googleapis.com/v1/thumbnail?panoid=TXxlUHZjBMy2eBLtw26JRw&cb_client=search.gws-prod.gps&w=408&h=240&yaw=149.67525&pitch=0&thumbfov=100,1.0,0,2025-05-19T00:03:24.954Z,Comercio
Autoservicio Oriental,Supermercado,,Av. Juan Domingo Perón 433,+54 2281 43-5366,Azul,Provincia de Buenos Aires,-36.7807372,-59.8669731,4.0,34,https://lh3.googleusercontent.com/gps-cs-s/AC9h4nqYxiM_IfB7UwSSVnPlhXT-IeYEgHQTloJo7x8dCrNXH1LRp76491lztp-vWNJ00vhjCnGnGLMbcUcPFWRiXeQuCLnlW6Vo4OhS9T2iy291mYn_SCmFXoiWrkZnZpdp1KOPe_Ei=w408-h725-k-no,11.0,346,2025-05-19T00:03:24.954Z,Comercio
Autoservicio Centro - Envios A Domicilio,Tienda de alimentación,,Burgos 833,+54 2281 42-9229,Azul,Provincia de Buenos Aires,-36.7805986,-59.8661129,4.0,36,https://streetviewpixels-pa.googleapis.com/v1/thumbnail?panoid=_lhKmgH7ilK6axjUvl9vBA&cb_client=search.gws-prod.gps&w=408&h=240&yaw=121.701&pitch=0&thumbfov=100,1.0,1,2025-05-19T00:03:24.954Z,Comercio
Jazmín²,Tienda de cubertería,,Av. Juan Domingo Perón 441,,Azul,Provincia de Buenos Aires,-36.7806677,-59.8670114,,37,https://lh3.googleusercontent.com/p/AF1QipO2OFjQIBjzWEG4L4W6ZTOpQhMp-EBaj9Qi_xJn=w408-h510-k-no,6.0,0,2025-05-19T00:03:24.955Z,Comercio
Almacen y Carniceria la Familia,Comercio,,Maipú 999,,Azul,Provincia de Buenos Aires,-36.780328,-59.8725441,4.7,38,https://lh3.googleusercontent.com/gps-cs-s/AC9h4npdQJRbs_JsY3OoGlJ_aeOSnPve2FaaTGWhGpNlmbX8PRvBmOPN8YUvZoDzL60VaItH3ZuFlFtR31Kkt27cPP1vIrG6wAfP6h-Snl_9W5krErI5Qf-ms0spSe8JnRuhh7C_jWUEeA=w408-h306-k-no,8.0,6,2025-05-19T00:03:24.955Z,Comercio
Despensa Filipo's,Tienda general,,San Martín 149,,Azul,Provincia de Buenos Aires,-36.774484,-59.8684286,5.0,39,https://lh3.googleusercontent.com/p/AF1QipOHZTk8hsS_welcWqsHyFRNm91-K-i68ElwVDmn=w426-h240-k-no,7.0,1,2025-05-19T00:03:24.955Z,Comercio
HIPATIA MINIMERCADO,Tienda de alimentación,,,,Azul,Provincia de Buenos Aires,-36.7749805,-59.8674149,,40,https://streetviewpixels-pa.googleapis.com/v1/thumbnail?panoid=Iajfh2kMFFC5AlbQ6t92RQ&cb_client=search.gws-prod.gps&w=408&h=240&yaw=114.28187&pitch=0&thumbfov=100,1.0,0,2025-05-19T00:03:24.955Z,Comercio
Minimercado Mr. Kalabaza,Tienda de alimentación,,,,Azul,Provincia de Buenos Aires,-36.7781481,-59.8698674,,41,https://streetviewpixels-pa.googleapis.com/v1/thumbnail?panoid=VLTGKTF3G-l-gKQjQqtbmA&cb_client=search.gws-prod.gps&w=408&h=240&yaw=321.91574&pitch=0&thumbfov=100,1.0,0,2025-05-19T00:03:28.129Z,Comercio
Frase cuadro,Tienda de regalos,,Coronel Santiago Avendaño 948,,Azul,Provincia de Buenos Aires,-36.7733142,-59.8791358,5.0,42,,,1,2025-05-19T00:03:28.129Z,Comercio
Minimercado Enri,Tienda de alimentación,,Alvear 796,+54 2281 42-5121,Azul,Provincia de Buenos Aires,-36.7779816,-59.8681527,4.0,43,https://streetviewpixels-pa.googleapis.com/v1/thumbnail?panoid=3Ve852hMrpexj7b6b-SmSA&cb_client=search.gws-prod.gps&w=408&h=240&yaw=342.97427&pitch=0&thumbfov=100,1.0,2,2025-05-19T00:03:28.148Z,Comercio
Mercerie Azul,Mercería,,Burgos 892,+54 2281 42-8016,Azul,Provincia de Buenos Aires,-36.7813117,-59.8673382,4.9,44,https://streetviewpixels-pa.googleapis.com/v1/thumbnail?panoid=yXP_tIeejpTGhmhatopn-w&cb_client=search.gws-prod.gps&w=408&h=240&yaw=319.8947&pitch=0&thumbfov=100,1.0,7,2025-05-19T00:03:28.149Z,Comercio
Locutorio Mix - Fotocopias - Kiosko Regaleria - Fax - Libreria,Librería,,Hipólito Yrigoyen 163,+54 2281 56-0422,Azul,Provincia de Buenos Aires,-36.7740017,-59.8673416,4.7,45,https://lh3.googleusercontent.com/gps-cs-s/AC9h4nqh-57TemmxrVUXKV6I5jKSCglAzOiO9eGgBepoMeVEtEpS3rX6ddOBoModdXsls-xSPvDrS6Wc_CPYAyCyYTLapSCYI0Zn2JVaAVJdVsvIgVKmn98KMqcXexWZO9LXCoZqcJlb=w408-h544-k-no,27.0,24,2025-05-19T00:03:28.149Z,Comercio
MERCADITO Muñoz,Tienda de alimentación,,Av. Juan Domingo Perón 349,,Azul,Provincia de Buenos Aires,-36.7794836,-59.8685886,4.6,46,https://lh3.googleusercontent.com/gps-cs-s/AC9h4nqcBhV5CvmtNxnvoCx9c0RRzsLmxbkpuQW7t3r-S99Iwyb7aXFuy5eRsEXgwAVQQ7Er-vLS0feekSO-K3j_SbYFIgSAcFhG_LyqBhi8tIQzifySySo0bEKBeAkHIOAKhbzw8ymHiw=w426-h240-k-no,2.0,19,2025-05-19T00:03:28.149Z,Comercio
Cuento Con Vos,Tienda de ropa,,Costanera Cacique Catriel 811,+54 2284 21-5747,Azul,Provincia de Buenos Aires,-36.7775205,-59.8695835,5.0,47,https://lh3.googleusercontent.com/gps-cs-s/AC9h4nrYkbEVUE8CYinQr2ROz4lrGhQfJ7hnCRP9p163PCdMo2FDWeSB7OTkYbOxTKCWkEFWjsdAAg4rHi5QQ87zpO2kOX4KFWXOJCAH1cOtR_mcyRFTnae67k8AV1I2ILIaCOcLgs9KuA=w408-h725-k-no,11.0,1,2025-05-19T00:03:28.149Z,Comercio
Ferreteria Cumpa,Ferretería,,"IQA, Av. Pellegrini 1051",+54 2281 43-5757,Azul,Provincia de Buenos Aires,-36.7829439,-59.8707801,4.4,48,https://streetviewpixels-pa.googleapis.com/v1/thumbnail?panoid=lElRuOOPEwE-I5C1sjmHQw&cb_client=search.gws-prod.gps&w=408&h=240&yaw=45.34245&pitch=0&thumbfov=100,1.0,18,2025-05-19T00:03:28.149Z,Comercio
Vestite De 10,Tienda de ropa,,Av. Manuel Chaves 31,,Azul,Provincia de Buenos Aires,-36.7727297,-59.8706453,,49,https://streetviewpixels-pa.googleapis.com/v1/thumbnail?panoid=NUH05Flb98XTUDgQDC57mw&cb_client=search.gws-prod.gps&w=408&h=240&yaw=221.1252&pitch=0&thumbfov=100,1.0,0,2025-05-19T00:03:28.149Z,Comercio
FERRETERIA,Ferretería,,,,Azul,Provincia de Buenos Aires,-36.7712307,-59.8726367,,50,https://streetviewpixels-pa.googleapis.com/v1/thumbnail?panoid=r4UDMxfOIvIjY_RIJfNBzw&cb_client=search.gws-prod.gps&w=408&h=240&yaw=205.54816&pitch=0&thumbfov=100,1.0,0,2025-05-19T00:03:28.149Z,Comercio
Casa Martinez,Frutería,,San Martín 200,+54 2281 42-5386,Azul,Provincia de Buenos Aires,-36.7748466,-59.8675687,4.8,51,https://lh3.googleusercontent.com/gps-cs-s/AC9h4nres2ae9yKAiwgoR6Ebvve0RHBXKLhj7IPY4Unw-TrgOJxHY4bwokAYmNsgi_bGLg_ecovR0AHR3qyLxat-ZR6tVEzjBlc2V1I3u47AEm1X1eyxn830oXj1Chny7Dk3TcoICLqA=w426-h240-k-no,28.0,29,2025-05-19T00:03:28.149Z,Comercio
DESPENSA TWEETY,Tienda de alimentación,,Av. Mitre 113,,Azul,Provincia de Buenos Aires,-36.7721667,-59.8664061,,52,https://streetviewpixels-pa.googleapis.com/v1/thumbnail?panoid=Jen_YrMfDGme_ZXGvOKxTw&cb_client=search.gws-prod.gps&w=408&h=240&yaw=242.89674&pitch=0&thumbfov=100,1.0,0,2025-05-19T00:03:28.149Z,Comercio
LIVIA,Tienda de ropa,,,,Azul,Provincia de Buenos Aires,-36.7808731,-59.8668116,,53,https://streetviewpixels-pa.googleapis.com/v1/thumbnail?panoid=B8X_cVshHFtEnmgn2TTR0g&cb_client=search.gws-prod.gps&w=408&h=240&yaw=238.58348&pitch=0&thumbfov=100,1.0,0,2025-05-19T00:03:28.149Z,Comercio
Em Perfumería,Perfumería,,Burgos 1040 B7300GEV,,Azul,Provincia de Buenos Aires,-36.783329,-59.8697132,5.0,54,https://lh3.googleusercontent.com/gps-cs-s/AC9h4no97gLkhYWgbKQEgcsGjEg6SOQAIwkHaPm5uNhmohC84eJ4Cc4_zZPI_yZhhamb4a6ZX3G0roxmm06SxoWMO0Bc69wQwUpt9AarG-rB1SXujZQe8ttzjCgpi6QnxBIjrMD7SCAZ=w408-h306-k-no,8.0,2,2025-05-19T00:03:28.149Z,Comercio
Ru-Ma-Fer,Ferretería,,,,Azul,Provincia de Buenos Aires,-36.7743357,-59.868187,3.0,55,https://streetviewpixels-pa.googleapis.com/v1/thumbnail?panoid=LKpRSuTWR_s309EAP9GlwQ&cb_client=search.gws-prod.gps&w=408&h=240&yaw=333.8878&pitch=0&thumbfov=100,1.0,1,2025-05-19T00:03:28.150Z,Comercio
CHUQUINA'S,Tienda de ropa,,Colón 990,,Azul,Provincia de Buenos Aires,-36.7820309,-59.8697748,,56,https://streetviewpixels-pa.googleapis.com/v1/thumbnail?panoid=OYz0Hem3G9DbFnhJESO7iA&cb_client=search.gws-prod.gps&w=408&h=240&yaw=289.7991&pitch=0&thumbfov=100,1.0,0,2025-05-19T00:03:28.150Z,Comercio
La esquinita,Frutería,,,,Azul,Provincia de Buenos Aires,-36.7794879,-59.8667537,5.0,57,https://streetviewpixels-pa.googleapis.com/v1/thumbnail?panoid=siBAfNnaUU9LOtei-Y7EDA&cb_client=search.gws-prod.gps&w=408&h=240&yaw=204.7825&pitch=0&thumbfov=100,1.0,1,2025-05-19T00:03:28.150Z,Comercio
Malala,Tienda de regalos,,Colón 921,,Azul,Provincia de Buenos Aires,-36.7811633,-59.8683722,5.0,58,https://streetviewpixels-pa.googleapis.com/v1/thumbnail?panoid=vkORnbBiMz85YSZbHXfelg&cb_client=search.gws-prod.gps&w=408&h=240&yaw=146.28175&pitch=0&thumbfov=100,1.0,1,2025-05-19T00:03:28.150Z,Comercio
LP,Carnicería,,,,Azul,Provincia de Buenos Aires,-36.783411,-59.8697794,,59,https://streetviewpixels-pa.googleapis.com/v1/thumbnail?panoid=a6p49q_TfLp-9n2ENr97kg&cb_client=search.gws-prod.gps&w=408&h=240&yaw=314.1526&pitch=0&thumbfov=100,1.0,0,2025-05-19T00:03:28.150Z,Comercio
La Princesa,Tienda de ropa,,Hipólito Yrigoyen 236,,Azul,Provincia de Buenos Aires,-36.7747002,-59.8661273,,60,https://streetviewpixels-pa.googleapis.com/v1/thumbnail?panoid=k9r8YeZgz-fu9m8g4lNApw&cb_client=search.gws-prod.gps&w=408&h=240&yaw=28.689623&pitch=0&thumbfov=100,1.0,0,2025-05-19T00:03:28.150Z,Comercio
ODISEA DEPORTES,Tienda de deportes,,Av. Juan Domingo Perón 449,,Azul,Provincia de Buenos Aires,-36.7808535,-59.8668272,,61,https://streetviewpixels-pa.googleapis.com/v1/thumbnail?panoid=75S-pyOjA_o0DzUaMvKgHg&cb_client=search.gws-prod.gps&w=408&h=240&yaw=197.49803&pitch=0&thumbfov=100,1.0,0,2025-05-19T00:03:29.847Z,Comercio
Pintureria Acuarela,Tienda de pinturas,,Colón 844,+54 2281 43-0512,Azul,Provincia de Buenos Aires,-36.7800249,-59.8674113,4.6,62,https://lh3.googleusercontent.com/gps-cs-s/AC9h4nrdXs7DG9CZvhYGVMnAaKX693gHm4bVirxTLqwnhzM7CbObvTskdt9JXzd4xZvosZB3_KEfHTZsM0nHFA7wkXSM6oMIeIM5eWkdZxZkepBsRLRR9HVIPZX0AskO2hbErU4dmw4JgQ=w426-h240-k-no,2.0,34,2025-05-19T00:03:29.848Z,Comercio
Descarriadas,Tienda de ropa de mujer,,Alvear 977,+54 2281 49-2025,Azul,Provincia de Buenos Aires,-36.780763,-59.8711535,,63,https://streetviewpixels-pa.googleapis.com/v1/thumbnail?panoid=sQ80Tlt6ioQN5TFoU71BHw&cb_client=search.gws-prod.gps&w=408&h=240&yaw=142.59477&pitch=0&thumbfov=100,1.0,0,2025-05-19T00:03:29.848Z,Comercio
Serendipia,Librería,https://www.facebook.com/serendipia.libros.1,Maipú 712,,Azul,Provincia de Buenos Aires,-36.7763812,-59.8678389,4.8,64,https://lh3.googleusercontent.com/p/AF1QipMt5kFtoYOzmNYAecGsLy2DLqLAPqD3JXe005NS=w408-h326-k-no,12.0,68,2025-05-19T00:03:29.848Z,Comercio
Despensa Colón,Tienda de alimentación,,Burgos 870,,Azul,Provincia de Buenos Aires,-36.7810544,-59.8670864,,65,https://streetviewpixels-pa.googleapis.com/v1/thumbnail?panoid=hpRvFqTfNgzhBjmRxXMUAg&cb_client=search.gws-prod.gps&w=408&h=240&yaw=302.25037&pitch=0&thumbfov=100,1.0,0,2025-05-19T00:03:29.848Z,Comercio
BORRA ELECTRICIDAD,Tienda de materiales para la construcción,,Av. Juan Domingo Perón,,Azul,Provincia de Buenos Aires,-36.7801012,-59.8677871,4.5,66,https://lh3.googleusercontent.com/gps-cs-s/AC9h4nqdr2Dmjc7SAEa0KDBSapFpYoS08SZK7sulM78E2b46HVPLuGKo9vyTyrODCOyAOOhMmZG-HAm8UpvNzo8_pQBidjg5OZojSUUcWckr3HD_G2Y4sNeRJjvUN_pNOB00G6KTqRwk=w408-h650-k-no,7.0,2,2025-05-19T00:03:29.848Z,Comercio
La Granja de Pepe,Tienda de aves de corral,https://instagram.com/la_granjadepepe?utm_medium=copy_link,Av. Güemes 140,+54 2281 66-0593,Azul,Provincia de Buenos Aires,-36.7732102,-59.8757719,4.5,67,https://lh3.googleusercontent.com/gps-cs-s/AC9h4nqjjEJaVmpQVdYYWh4ngXQcrTWZJszAFn8nVXcfpE4Kd1hrP6hbEy4TNovn_nlPuvPjtdTJ1SjvYyQ2mzDXQdWpRAbyRPc49qaWG9rnEDULHBvL16_d-u1aUiNeL1LxfJAE9Guc=w408-h408-k-no,4.0,19,2025-05-19T00:03:29.848Z,Comercio
"Frutas Verduras ""Lalo""",Tienda de alimentación,http://fruterialalo.com.ar/,,+54 2281 58-1319,Azul,Provincia de Buenos Aires,-36.7817544,-59.8691142,4.7,68,https://streetviewpixels-pa.googleapis.com/v1/thumbnail?panoid=29sID-iny6V5ps3AASJOAQ&cb_client=search.gws-prod.gps&w=408&h=240&yaw=142.29152&pitch=0&thumbfov=100,1.0,11,2025-05-19T00:03:29.848Z,Comercio
Pequeño Panda & Towi.Arg,Tienda de artículos para bebés,https://www.pequepanda.com.ar/,Burgos 894,+54 2281 59-2809,Azul,Provincia de Buenos Aires,-36.7813053,-59.8673463,5.0,69,https://lh3.googleusercontent.com/p/AF1QipNcxvEW7cLhcCn9SpXiXakmNyooe-40ChSRZAlf=w408-h544-k-no,30.0,115,2025-05-19T00:03:29.848Z,Comercio
Comercial Arenas Azul,Tienda de neumáticos,http://www.comercialarenas.com.ar/,7300,,Azul,Provincia de Buenos Aires,-36.7805002,-59.8674414,5.0,70,https://lh3.googleusercontent.com/gps-cs-s/AC9h4nqwZyggo1FzLu4okleJ0mOiZ9F00m2t9i5i-ZhNBr-iWs9vjI_b2r-v5o_6Asnztebfrs4ROEk8eni7iIC3HiRYPnPEaUsxu3maB43hBHy00DiD-wiqpaveUFX9BCmdt0F6tSo=w426-h240-k-no,11.0,16,2025-05-19T00:03:29.848Z,Comercio
Bon O Bon Ananda,Tienda de alimentación,,,,Azul,Provincia de Buenos Aires,-36.782735,-59.8708188,,71,https://streetviewpixels-pa.googleapis.com/v1/thumbnail?panoid=NFGqiW2pmxhFuxYZN_RTTg&cb_client=search.gws-prod.gps&w=408&h=240&yaw=33.300396&pitch=0&thumbfov=100,1.0,0,2025-05-19T00:03:29.848Z,Comercio
Estudiocgrabaciones,Estudio de grabación,,Camilo A. Gay,+54 2281 57-7334,Azul,Provincia de Buenos Aires,-36.7734486,-59.8772876,4.1,72,https://lh3.googleusercontent.com/gps-cs-s/AC9h4nppCo80ZvGXAGqRh9iybS-UHRnhy6XrHQ1nJQXOAVAqASj1TzHgS45-ntIOuqutx1S0glNLqht2jDRi5yzsKmMv7eW3hJvFFHPMpcpwrbPy8MC8v58BGJrF1VCDsGL64XoJEqNq=w408-h306-k-no,10.0,35,2025-05-19T00:03:29.848Z,Comercio
El Galpón Bebidas Azul,Tienda de bebidas alcohólicas,,De las Cautivas 802,+54 2281 66-2315,Azul,Provincia de Buenos Aires,-36.7731162,-59.8749876,5.0,73,https://lh3.googleusercontent.com/p/AF1QipN9qSAnCxp00zItjrVbXLB73fJGT_GVO7kH1_80=w408-h306-k-no,15.0,17,2025-05-19T00:03:29.848Z,Comercio
OLIVIA Clothing STORE,Tienda de ropa,,Burgos 850,+54 2281 30-7040,Azul,Provincia de Buenos Aires,-36.7809117,-59.8668079,5.0,74,https://lh3.googleusercontent.com/gps-cs-s/AC9h4npN_GDfSTgF2aYr0Gl5ug5rdMU1uZbfBf1R1pL-MGNgy1jAlPvWRefi4Z_rVKPLUj9Q7M7WDN1b_CGzQ1fNoYMVs5Jp476cCZ_ZfBVG50AuJ6BZ6YTW0UQmFDaCozl0sdnwfPIbEmWHSkbn=w426-h240-k-no,10.0,1,2025-05-19T00:03:29.848Z,Comercio
Nos Vemos Luego,Tienda de ropa,,Rivadavia 904,+54 2281 30-7828,Azul,Provincia de Buenos Aires,-36.7803549,-59.8691411,,75,https://streetviewpixels-pa.googleapis.com/v1/thumbnail?panoid=QpVeARGKCfXpy-60ji4FQQ&cb_client=search.gws-prod.gps&w=408&h=240&yaw=149.00276&pitch=0&thumbfov=100,1.0,0,2025-05-19T00:03:29.848Z,Comercio
Happy kids,Tienda de ropa,,Av. República de Italia 1671,+54 2281 50-4238,Azul,Provincia de Buenos Aires,-36.7803874,-59.8937044,,76,https://streetviewpixels-pa.googleapis.com/v1/thumbnail?panoid=2KQ9hntm5mD3N7Pf-QuRPw&cb_client=search.gws-prod.gps&w=408&h=240&yaw=9.867972&pitch=0&thumbfov=100,1.0,0,2025-05-19T00:03:29.848Z,Comercio
Uniformes Goa,Tienda de ropa,,Av. Juan Domingo Perón 300,,Azul,Provincia de Buenos Aires,-36.7789332,-59.8693067,,77,https://streetviewpixels-pa.googleapis.com/v1/thumbnail?panoid=FHWfaeNeQVI4x9_WoTGRVw&cb_client=search.gws-prod.gps&w=408&h=240&yaw=207.2027&pitch=0&thumbfov=100,1.0,0,2025-05-19T00:03:29.848Z,Comercio
Vivero San Martin,Centro de jardinería,,San Martín 182,+54 9 2281 40-1240,Azul,Provincia de Buenos Aires,-36.7746769,-59.8677426,4.6,78,https://lh3.googleusercontent.com/p/AF1QipNl75-jOuCJo5NpTrrufyL8Y-yU_RxBMiKOgVRK=w408-h544-k-no,7.0,27,2025-05-19T00:03:29.848Z,Comercio
El Desván,Tienda de antigüedades,https://goo.gl/mLhmxN,Burgos 899,+54 2281 43-3936,Azul,Provincia de Buenos Aires,-36.781551,-59.867263,4.1,79,https://lh3.googleusercontent.com/p/AF1QipPewN-V5sWlAMLMfxlyU23G-nF4GuvNEGa64Xuz=w408-h334-k-no,2.0,9,2025-05-19T00:03:29.848Z,Comercio
Higgins store,Tienda de ropa,,Julio Argentino Roca Norte 0234,+54 9 2281 57-6649,Azul,Provincia de Buenos Aires,-36.7720278,-59.8781739,,80,https://streetviewpixels-pa.googleapis.com/v1/thumbnail?panoid=caeZnSR9y1CusdG0jBpViw&cb_client=search.gws-prod.gps&w=408&h=240&yaw=206.68687&pitch=0&thumbfov=100,1.0,0,2025-05-19T00:03:29.848Z,Comercio
Distribuidora Centro,Tienda de productos para mascotas,,Guaminí 778,+54 2281 40-7808,Azul,Provincia de Buenos Aires,-36.7877597,-59.8642094,4.9,17,https://lh3.googleusercontent.com/gps-cs-s/AC9h4npPkVLjDRF7ujqNPflhhM-GEuPnkHcxsCPcWBlF48p7FGxg_hEoV1Zcw0Z6eh1mYw2na1StrQKUDttvp2i6FZrN5N8C37hnJZ8G5it-xaGvoaioKTLXfkM5hvPlR-Z6MT21EWQ8=w426-h240-k-no,3.0,160,2025-05-19T00:03:30.745Z,Comercio
El tornillo que te falta,Tienda de herramientas,,Av. Juan Domingo Perón 296,+54 2281 35-6048,Azul,Provincia de Buenos Aires,-36.7786895,-59.8690105,4.6,81,https://lh3.googleusercontent.com/p/AF1QipOd0KJnBalLYgmyJdZqFfof3nGKnlaYRoJaeYvj=w408-h884-k-no,7.0,15,2025-05-19T00:03:31.938Z,Comercio
Wacho,Tienda de ropa,https://www.welcomewacho.com/,Belgrano 88,,Azul,Provincia de Buenos Aires,-36.7722429,-59.8677347,5.0,82,https://lh3.googleusercontent.com/p/AF1QipOWA_R2--bnNn8YPg0gtRZxjloZedhFHzKluWwK=w408-h528-k-no,13.0,4,2025-05-19T00:03:31.938Z,Comercio
"Carniceria ""El cardo""",Carnicería,,Colón 995,+54 2281 55-4519,Azul,Provincia de Buenos Aires,-36.7821938,-59.8696868,4.9,83,https://lh3.googleusercontent.com/gps-cs-s/AC9h4nr4h3ZvfNU_KnhfphgSz27DrCdDWjsBq9glv27P2KCfL_MNxcTmd5FUMhvKsGvgBYwIfD34zdRGh_-JxTd_gNs4JDCq8c6sWV4BtUBN08elMCkue536iM1WHeCbjTL_E1PzmpLkyA=w408-h482-k-no,3.0,30,2025-05-19T00:03:31.938Z,Comercio
D'licias Ale,Pastelería,,Gral. Rivas Oeste 0112,+54 2281 31-0197,Azul,Provincia de Buenos Aires,-36.7779815,-59.8802158,,84,https://lh3.googleusercontent.com/p/AF1QipMagrLuPdWEKLGvVeGopK-YR39qlpibD1X2upyG=w408-h336-k-no,113.0,0,2025-05-19T00:03:31.938Z,Comercio
POWER PHONE AZUL,Tienda de móviles,,Las Flores 647,+54 2281 36-7879,Azul,Provincia de Buenos Aires,-36.7743483,-59.8678195,4.5,85,https://lh3.googleusercontent.com/gps-cs-s/AC9h4nobslqTco4KzuC9iwcxRWhOs5DsClYLoxsBfco1l3krx2mbf1cX2p2OI9PtNY81hxsud2JhK11TtBAr6uYc3yk2ik8XWjU9RXjeUYc2ialzCxuL4sk0Jkr8EQnPsfqREzF607kW=w408-h725-k-no,19.0,2,2025-05-19T00:03:31.938Z,Comercio
Barbaco Mercado de Carnes,Carnicería,,Colón 942,+54 2281 52-1428,Azul,Provincia de Buenos Aires,-36.781254,-59.8689444,5.0,86,https://lh3.googleusercontent.com/p/AF1QipMpQff5AiHydGqbJmbXNlBa-chTJrHFDbv7uvGG=w408-h272-k-no,8.0,3,2025-05-19T00:03:31.938Z,Comercio
Filomena,Tienda de regalos,,Burgos 922,,Azul,Provincia de Buenos Aires,-36.7816917,-59.8677685,,87,https://streetviewpixels-pa.googleapis.com/v1/thumbnail?panoid=Es6Yzq3vebg0wUZjSw-iiQ&cb_client=search.gws-prod.gps&w=408&h=240&yaw=292.43942&pitch=0&thumbfov=100,1.0,0,2025-05-19T00:03:31.939Z,Comercio
Callvu-Leovu,Empresa de fabricación de plástico,http://www.callvuleovu.com.ar/,Av. Juan Domingo Perón 412,+54 2281 51-2303,Azul,Provincia de Buenos Aires,-36.7802055,-59.8671489,5.0,88,https://lh3.googleusercontent.com/p/AF1QipPlVNyovro6npJM-UFfDPCo_Yl5aKmJNBan5txL=w408-h306-k-no,53.0,7,2025-05-19T00:03:31.939Z,Comercio
Librería Kraft,Librería,,Burgos,,Azul,Provincia de Buenos Aires,-36.7806332,-59.8662181,4.7,89,https://streetviewpixels-pa.googleapis.com/v1/thumbnail?panoid=qE3U_KghZQ0X5V48RMBgWw&cb_client=search.gws-prod.gps&w=408&h=240&yaw=111.190956&pitch=0&thumbfov=100,1.0,82,2025-05-19T00:03:31.939Z,Comercio
Postres Beliciosos,Tienda de postres,,7300,+54 2281 40-0103,Azul,Provincia de Buenos Aires,-36.7806549,-59.871352,,90,https://lh3.googleusercontent.com/p/AF1QipMjM-c9Y1XPtB5f4JpQPhvaJK-AqRx8uJWxqM_0=w408-h544-k-no,32.0,0,2025-05-19T00:03:31.939Z,Comercio
