title,categoryName,website,street,phone,city,state,location/lat,location/lng,totalScore,rank,imageUrl,imagesCount,reviewsCount,scrapedAt,searchString
DTI - Azul,Soporte y servicios informáticos,,Av. Juan Domingo Perón 525,+54 2281 42-7066,Azul,Provincia de Buenos Aires,-36.7820062,-59.8654974,,22,https://streetviewpixels-pa.googleapis.com/v1/thumbnail?panoid=zL2SLXDLlIyLOOkG7pxFlg&cb_client=search.gws-prod.gps&w=408&h=240&yaw=231.62384&pitch=0&thumbfov=100,1.0,0,2025-06-15T22:56:55.477Z,tecnologia
TECNO COMPUTACION,Tienda de móviles,http://www.tecnocomputacionazul.com/,Lamadrid 33,+54 2281 65-7938,Azul,Provincia de Buenos Aires,-36.7649137,-59.8624039,4.6,3,https://lh3.googleusercontent.com/p/AF1QipP9GgrGu9iOG5xNOUsuEUj6fdq4j3xvaLptITLH=w408-h408-k-no,12.0,7,2025-06-15T22:56:54.474Z,tecnologia
Ingeniero Marcelo Edgardo Cornec,Ingeniero,,Av. Juan Domingo Perón 622,+54 2281 42-6984,Azul,Provincia de Buenos Aires,-36.7832779,-59.8635941,5.0,20,https://lh3.googleusercontent.com/p/AF1QipN3mw2facF8IFrTvwJ_gdFhsNWQrFQi4pazN5RN=w426-h240-k-no,13.0,3,2025-06-15T22:56:57.478Z,comercio
La esquina,Kiosco,,"7300, Gral. Paz 1500",+54 2281 36-0736,Azul,Provincia de Buenos Aires,-36.7980904,-59.8535248,3.7,19,https://lh3.googleusercontent.com/p/AF1QipP1o8LwpKf0khxVBfihAWLOI4K4X00X3SCtGAg=w408-h544-k-no,1.0,3,2025-06-15T22:56:57.478Z,comercio
Vidrieria 25 de Mayo de Jose Canalicchio,Comercio,,Guaminí 610,+54 2281 53-7036,Azul,Provincia de Buenos Aires,-36.7855521,-59.8671447,4.2,40,https://lh3.googleusercontent.com/p/AF1QipM1o-ulafI-mAMROrwDJeAv15XDqrWz-t4wzI86=w426-h240-k-no,5.0,9,2025-06-15T22:56:58.824Z,comercio
El Almacén,Tienda de ropa,,Av. Mitre 901,+54 2281 43-6001,Azul,Provincia de Buenos Aires,-36.7820645,-59.8535276,4.1,37,https://lh3.googleusercontent.com/gps-cs-s/AC9h4nqJ1zIBol2hSMqViHOfQ4nImOXxIbkIgBdKGU_mDledq073-DS2ESZ6a9J8zJbFBVcYlP_NC7ylDTrU9a76gRU5qeBFyq79Kl8GzNNI_mskXAlESWWmTl8R-huNvIgRMaK2F812zQ=w408-h306-k-no,2.0,15,2025-06-15T22:56:58.824Z,comercio
Tus sorrentinos,Comercio,,España 418,+54 2281 56-4122,Azul,Provincia de Buenos Aires,-36.7793544,-59.853713,,36,https://lh3.googleusercontent.com/p/AF1QipPp_by7_7ex8dl9zbGenhIxYdoDgTEiYRtP-AWu=w408-h906-k-no,22.0,0,2025-06-15T22:56:58.824Z,comercio
Venden y permutas,Tienda general,,Gral. Rivas 787,,Azul,Provincia de Buenos Aires,-36.7887673,-59.8650307,,34,https://streetviewpixels-pa.googleapis.com/v1/thumbnail?panoid=S1kTFpHnfYoL20C_61-NkA&cb_client=search.gws-prod.gps&w=408&h=240&yaw=198.58519&pitch=0&thumbfov=100,1.0,0,2025-06-15T22:56:58.824Z,comercio
MiniMercado La Esquina de Alejandro y Silvina,Comercio,,España 1699,,Azul,Provincia de Buenos Aires,-36.7964878,-59.8737896,4.3,29,https://lh3.googleusercontent.com/gps-cs-s/AC9h4nqf9tsq_AytWExGgJrpTk-L5SI1FmirJVvwRjC9ojTeSPOq6No9fkPU0XwnPnweLQIPGS1cYMnUkXjZSSbWHXJM-5agZX8IO8O6YdfxK7B9pWqmEzDTfcSIynJmCjEkKcpC9s8Hz9Ucyb5x=w408-h306-k-no,20.0,22,2025-06-15T22:56:58.824Z,comercio
"Kiosco ""Pasaje del parque""",Comercio,,Pje. 25 de Abril,+54 2281 52-6194,Azul,Provincia de Buenos Aires,-36.7818313,-59.8750316,5.0,23,https://lh3.googleusercontent.com/gps-cs-s/AC9h4nrTY3uDxVEBPRv2VqYKJaV-GoWN44PK80cq9eCCZxf0BdsC3IIWztwGi8v8yX136XorfRDmD_52j0ECvAdutl4_BLUUwCM-JpnySErvCbimv3ztqqXm4Km6u_xq8IvG-_Yx57VYEWNB1ZdW=w408-h725-k-no,6.0,1,2025-06-15T22:56:58.823Z,comercio
Martinez Juan J M Hijos de,Comercio,,Av. Mitre 750,+54 2281 42-4153,Azul,Provincia de Buenos Aires,-36.7798616,-59.8556704,,18,https://streetviewpixels-pa.googleapis.com/v1/thumbnail?panoid=zfM16tc1yHKo1iYZxwfsuQ&cb_client=search.gws-prod.gps&w=408&h=240&yaw=35.628044&pitch=0&thumbfov=100,1.0,0,2025-06-15T22:56:57.478Z,comercio
Tateti,Kiosco,,Av. 25 de Mayo 551,,Azul,Provincia de Buenos Aires,-36.7789718,-59.859324,4.9,60,https://streetviewpixels-pa.googleapis.com/v1/thumbnail?panoid=sG2QlkoAJfu279css1VKZQ&cb_client=search.gws-prod.gps&w=408&h=240&yaw=136.49309&pitch=0&thumbfov=100,1.0,15,2025-06-15T22:57:00.083Z,comercio
Ferreteca,Ferretería,,San Martín 805,+54 2281 42-5648,Azul,Provincia de Buenos Aires,-36.7827675,-59.8575499,4.6,59,https://streetviewpixels-pa.googleapis.com/v1/thumbnail?panoid=gBDyRgEhxtm70NWiF6VGXA&cb_client=search.gws-prod.gps&w=408&h=240&yaw=187.02905&pitch=0&thumbfov=100,1.0,23,2025-06-15T22:57:00.083Z,comercio
"Loteria De La Provincia ""Piazza Sur""",Tienda de lotería,,Avenida Juan B. Justo 1126,,CJV,Provincia de Buenos Aires,-36.7898262,-59.8545457,5.0,58,https://streetviewpixels-pa.googleapis.com/v1/thumbnail?panoid=CVe7e7avh_WDXguc5eA0qQ&cb_client=search.gws-prod.gps&w=408&h=240&yaw=62.892315&pitch=0&thumbfov=100,1.0,1,2025-06-15T22:57:00.083Z,comercio
Brillos,Tienda de artículos para el hogar,,Hipólito Yrigoyen 683,+54 2281 52-6868,Azul,Provincia de Buenos Aires,-36.7805454,-59.8588356,4.7,57,https://lh3.googleusercontent.com/gps-cs-s/AC9h4npCnsbOANSV0zA8RqBEYn9LZf10ENZgTs1Xy_0g0bXYeFjCijjsLKiDm8-4BySAt7g5oVMFjFJsKj5maEE61o0vvFRlZNBpoK4MMbmZpC8hg0jirICb2iIi6xiZDeeQnETSU3Pyvg=w408-h725-k-no,11.0,484,2025-06-15T22:57:00.083Z,comercio
El Tiempo,Librería,,,,Azul,Provincia de Buenos Aires,-36.7843096,-59.8553016,,56,https://streetviewpixels-pa.googleapis.com/v1/thumbnail?panoid=eqgsTGxHw16m_NXsUKKsIA&cb_client=search.gws-prod.gps&w=408&h=240&yaw=17.071589&pitch=0&thumbfov=100,1.0,0,2025-06-15T22:57:00.082Z,comercio
Dietética estilo natural,Tienda de alimentación,,,+54 2901 48-2993,Azul,Provincia de Buenos Aires,-36.7818364,-59.8587905,4.9,55,https://lh3.googleusercontent.com/gps-cs-s/AC9h4np20gRJadMD7tBQ77t0U1ME7HEjz0FC_b1IpGlkSLHSeYmpVPUOc0KkeMujWRjW2iG9ynAzdBYlqK4plEEFBlLCktbHP7REmoB1Xcf7YtWl9JpuVxSRL7ATez48fQ5jxjgoAyOH=w408-h306-k-no,2.0,19,2025-06-15T22:57:00.082Z,comercio
STILTON almacén,Tienda de alimentación,http://instagram.com/stiltonalmacen,Moreno 850,+54 2281 66-6262,Azul,Provincia de Buenos Aires,-36.7818689,-59.8649548,4.5,54,https://lh3.googleusercontent.com/p/AF1QipOsq_B4qfSE_a1vZPEXCp-DZRoobdy6fYkofOsC=w427-h240-k-no,18.0,23,2025-06-15T22:57:00.082Z,comercio
DESPENSA LA ESQUINA,Tienda de alimentación,,,,Azul,Provincia de Buenos Aires,-36.7867576,-59.8656969,,69,https://streetviewpixels-pa.googleapis.com/v1/thumbnail?panoid=oCidaJn-eX-1y8BnNYc1SQ&cb_client=search.gws-prod.gps&w=408&h=240&yaw=291.73502&pitch=0&thumbfov=100,1.0,0,2025-06-15T22:57:01.287Z,comercio
La Coqueta Frutas Y Verdura's,Tienda de alimentación,,,,Azul,Provincia de Buenos Aires,-36.7819461,-59.8600119,,68,https://streetviewpixels-pa.googleapis.com/v1/thumbnail?panoid=b2oBzAfgWAcGfDozj5YeuQ&cb_client=search.gws-prod.gps&w=408&h=240&yaw=339.94806&pitch=0&thumbfov=100,1.0,0,2025-06-15T22:57:01.287Z,comercio
Enlanadas,Tienda general,,Av. 25 de Mayo 710,,Azul,Provincia de Buenos Aires,-36.780747,-59.8619676,5.0,67,https://streetviewpixels-pa.googleapis.com/v1/thumbnail?panoid=bcJ03MuaTkee9ClyMB49BQ&cb_client=search.gws-prod.gps&w=408&h=240&yaw=301.2784&pitch=0&thumbfov=100,1.0,1,2025-06-15T22:57:01.287Z,comercio
Cintia Burgos Ventas,Tienda de ropa,,Manuel Castellar 1412,,Azul,Provincia de Buenos Aires,-36.7945176,-59.8686338,5.0,66,https://streetviewpixels-pa.googleapis.com/v1/thumbnail?panoid=TW199NenPVtFLIlTXD-eNA&cb_client=search.gws-prod.gps&w=408&h=240&yaw=298.2043&pitch=0&thumbfov=100,1.0,2,2025-06-15T22:57:01.287Z,comercio
LISBOA Indumentaria,Tienda de ropa,,Av. Juan Domingo Perón 823,+54 2281 55-0723,Azul,Provincia de Buenos Aires,-36.7857423,-59.8605109,5.0,65,https://lh3.googleusercontent.com/gps-cs-s/AC9h4nqIxpqEFooXwSDy9zgx1Wo1hcVwJP7999uZWBpSx8eZiZV0m9FZcLh_BzCRroq8Ib9I9OXWsRKn6sxC_iltoGLjJfJJDCZrCpGVW7XAYucW56lJqt2f959-kK9l5wIPumZNwwal=w408-h408-k-no,16.0,3,2025-06-15T22:57:01.287Z,comercio
IndumentariaAhorrounixes,Tienda de ropa,,Av. Piazza 1198,,Azul,Provincia de Buenos Aires,-36.7861686,-59.8481073,,64,https://lh3.googleusercontent.com/gps-cs-s/AC9h4nqJf5oO0Bhpc7rZLs_cVgTy1swdLDHDpnHjALeyf9xs2yiFyb_Gi5yr0A-XbAfQMH6snBKuob_ef9F_AQXGmdIeX0Jb5GvdAKEHsR6CJLElPG0yy7p8lH-X9l-Sy7g5ZRxCrEY-iY58W0AC=w408-h308-k-no,1.0,0,2025-06-15T22:57:01.286Z,comercio
Maxikioscos Gonzalez,Librería,,San Martín 532,+54 2281 42-4066,Azul,Provincia de Buenos Aires,-36.7789353,-59.8621498,4.5,63,https://lh3.googleusercontent.com/p/AF1QipN9FhUNoR8ghfNdiTq1TADUbe-mSX6BdMgVplAI=w408-h544-k-no,4.0,4,2025-06-15T22:57:01.286Z,comercio
AUTOSERVICIO El Valle,Tienda de alimentación,,,,Azul,Provincia de Buenos Aires,-36.7795551,-59.8584761,,62,https://streetviewpixels-pa.googleapis.com/v1/thumbnail?panoid=I6ybY18Cu1omOi2qwwUKIQ&cb_client=search.gws-prod.gps&w=408&h=240&yaw=203.76253&pitch=0&thumbfov=100,1.0,0,2025-06-15T22:57:01.286Z,comercio
La Serranita,Tienda de bebidas alcohólicas,,Av. 25 de Mayo 642,,Azul,Provincia de Buenos Aires,-36.7800172,-59.8606319,4.7,61,https://streetviewpixels-pa.googleapis.com/v1/thumbnail?panoid=9Z74exboWo-Hxpo8K7mCbA&cb_client=search.gws-prod.gps&w=408&h=240&yaw=111.48357&pitch=0&thumbfov=100,1.0,3,2025-06-15T22:57:01.286Z,comercio
Forrajería Y Todo Suelto El Amanecer,Tienda de alimentación,,Av. 25 de Mayo,,Azul,Provincia de Buenos Aires,-36.791199,-59.8744427,,53,https://streetviewpixels-pa.googleapis.com/v1/thumbnail?panoid=RdMQJruvh2YJna5qPj-mcg&cb_client=search.gws-prod.gps&w=408&h=240&yaw=292.01892&pitch=0&thumbfov=100,1.0,0,2025-06-15T22:57:00.082Z,comercio
Circulo de Analistas Clinicos de Azul,Comercio,,San Martín 665,+54 2281 42-6234,Azul,Provincia de Buenos Aires,-36.7809394,-59.8599221,5.0,50,https://streetviewpixels-pa.googleapis.com/v1/thumbnail?panoid=CuQ5BwWnbNhGaGxLNMTyhw&cb_client=search.gws-prod.gps&w=408&h=240&yaw=229.6821&pitch=0&thumbfov=100,1.0,1,2025-06-15T22:57:00.082Z,comercio
MEGACOMPRAS Azul,Tienda de artículos para el hogar,https://www.instagram.com/megacompras_oficial/?hl=es-la,San Martín 586,,Azul,Provincia de Buenos Aires,-36.779753,-59.8611079,4.4,45,https://lh3.googleusercontent.com/gps-cs-s/AC9h4noS9s-SilRq2pc0CojuIj47UMLLfzHTjNzKaSWuLqDzmkr-U6PC0KyXo9qVGJFkFX5x3E9M05XoiCh-uKuihNMwf4pON2LYEOonUmNOEIVsqDBpngOdVLBb1OKpWiLgBtfFg5c=w426-h240-k-no,3.0,23,2025-06-15T22:57:00.081Z,comercio
Color Codice - Imprenta - Grafica - Centro de Copiado,Comercio,,Moreno 613,+54 2281 31-0205,Azul,Provincia de Buenos Aires,-36.7789825,-59.8610699,,44,https://streetviewpixels-pa.googleapis.com/v1/thumbnail?panoid=W4YHfuclC1SUG09fE8u1-A&cb_client=search.gws-prod.gps&w=408&h=240&yaw=137.76169&pitch=0&thumbfov=100,2.0,0,2025-06-15T22:57:00.081Z,comercio
Verdu de conte,Tienda de alimentación,,Julio Argentino Roca 956,,Azul,Provincia de Buenos Aires,-36.786467,-59.8574116,,42,https://streetviewpixels-pa.googleapis.com/v1/thumbnail?panoid=xr7a720ei6n2aOEsQgmD9Q&cb_client=search.gws-prod.gps&w=408&h=240&yaw=54.905582&pitch=0&thumbfov=100,1.0,0,2025-06-15T22:57:00.081Z,comercio
Maxikiosco OHANA,Kiosco,https://www.facebook.com/maxikiosco.ohana.12,Hipólito Yrigoyen 655,,Azul,Provincia de Buenos Aires,-36.7802723,-59.859209,4.7,41,https://lh3.googleusercontent.com/gps-cs-s/AC9h4npTA7SGr6YdszReoCAUmVpvqw430FTvriYGP-SDvYcZjo1xzsv3GzYJKsksTZivq1pw3mmk8NagtEzTd4tUcbOL8BB9K1EQSGe2IKhlVFFHSVRBOVlhmNJvuwE6iAdbnIGGGDAO=w408-h343-k-no,3.0,26,2025-06-15T22:57:00.080Z,comercio
Bacano Productos Regionales,Tienda de fiambres,,Colón 840,,Azul,Provincia de Buenos Aires,-36.7798013,-59.8672588,,17,https://streetviewpixels-pa.googleapis.com/v1/thumbnail?panoid=Hma8RRTFbgH2avej-likcA&cb_client=search.gws-prod.gps&w=408&h=240&yaw=331.30423&pitch=0&thumbfov=100,1.0,0,2025-06-15T22:56:57.478Z,comercio
Maxikiosco Lo De Max,Kiosco,,Av. 25 de Mayo 850,,Azul,Provincia de Buenos Aires,-36.7824422,-59.8640447,5.0,16,https://streetviewpixels-pa.googleapis.com/v1/thumbnail?panoid=wxs_NvrcWus6Ef1IzvLfsg&cb_client=search.gws-prod.gps&w=408&h=240&yaw=311.1793&pitch=0&thumbfov=100,2.0,6,2025-06-15T22:56:57.477Z,comercio
DIETETICA RINCON NATURAL,Tienda de alimentación,https://www.facebook.com/Dietetica-Rincon-Natural-198257967017807/?ref=page_internal,Av. Mitre 629,,Azul,Provincia de Buenos Aires,-36.778707,-59.8580535,4.6,15,https://lh3.googleusercontent.com/gps-cs-s/AC9h4noJxf7xkjmTXAqYJ01qs2iSfRDoPKDGF72i0imKrbWcDcUVzjC9hQpETGOE8qXoTwWMJJVWscEt5AB8_zcWQG_Coemur4c3BKbF6jxww3uCbecXDh2_Ew_9vLJWL1dQ06nM8Row=w408-h725-k-no,2.0,44,2025-06-15T22:56:57.477Z,comercio
Minimarket,Supermercado,,,,Azul,Provincia de Buenos Aires,-36.78575,-59.8582227,4.7,14,https://streetviewpixels-pa.googleapis.com/v1/thumbnail?panoid=N8Rn9jqHdgi3nT_1y_WEvQ&cb_client=search.gws-prod.gps&w=408&h=240&yaw=306.83374&pitch=0&thumbfov=100,1.0,7,2025-06-15T22:56:57.477Z,comercio
Campos del Centro SRL,Comercio,https://www.instagram.com/camposdelcentrosrl/,C. 61 535,+54 9 2281 50-1288,Azul,Provincia de Buenos Aires,-36.7921744,-59.8413099,4.4,13,https://lh3.googleusercontent.com/p/AF1QipN00H7ZU7M72VrqrWe46YTWFDnjldiT-qYTtYNH=w426-h240-k-no,9.0,8,2025-06-15T22:56:57.477Z,comercio
Kiosco Kober,Kiosco,,Burgos 1099,+54 2281 56-7613,B7300GEU,Provincia de Buenos Aires,-36.7842601,-59.8704749,4.7,12,https://lh3.googleusercontent.com/gps-cs-s/AC9h4nooR_dopNZqhrt8Z4Nt__8e9IFzMcqGmTndRboRjNjxsJpEyjE6P_jwQeKRS0kluXC8VLdYdtSwcpmHt9M_c3cDkHMJWk_PyIO_K9O3q8XYSigB8cxwzLC_CwYPZllVHojbx7GE=w408-h306-k-no,2.0,55,2025-06-15T22:56:57.477Z,comercio
Leñera las 3 Niñas,Comercio,,Belgrano 1239,,Azul,Provincia de Buenos Aires,-36.7870976,-59.8487956,5.0,11,https://streetviewpixels-pa.googleapis.com/v1/thumbnail?panoid=IXSPZ8ATL-yToLS7AVL-WA&cb_client=search.gws-prod.gps&w=408&h=240&yaw=241.53088&pitch=0&thumbfov=100,1.0,1,2025-06-15T22:56:57.477Z,comercio
Moccero Adolfo M,Comercio,,Moreno 720,+54 2281 42-2388,Azul,Provincia de Buenos Aires,-36.7802655,-59.862986,,10,https://streetviewpixels-pa.googleapis.com/v1/thumbnail?panoid=LNzhkJM1sn-x7HWf1b9NeA&cb_client=search.gws-prod.gps&w=408&h=240&yaw=325.46536&pitch=0&thumbfov=100,1.0,0,2025-06-15T22:56:57.477Z,comercio
Sederia Marion,Comercio,,San Martín 572,+54 2281 43-4710,Azul,Provincia de Buenos Aires,-36.7796,-59.8613771,4.3,9,https://streetviewpixels-pa.googleapis.com/v1/thumbnail?panoid=azVhOqgo57d_QAuMWpLE-g&cb_client=search.gws-prod.gps&w=408&h=240&yaw=43.330822&pitch=0&thumbfov=100,1.0,14,2025-06-15T22:56:57.477Z,comercio
Tancredi Olga,Comercio,,San Martín 733,+54 2281 43-3066,Azul,Provincia de Buenos Aires,-36.7818991,-59.8587245,4.5,8,https://streetviewpixels-pa.googleapis.com/v1/thumbnail?panoid=kN0dsn_dasoiaOctcHNCCA&cb_client=search.gws-prod.gps&w=408&h=240&yaw=207.83424&pitch=0&thumbfov=100,1.0,4,2025-06-15T22:56:57.477Z,comercio
Drugstore Center Azul,Kiosco,https://instagram.com/drugstore_center_azul?igshid=h8b7x73qzzsw,"Av.Mitre 401 Av 25 de Mayo esq Tandil Av Caneva 534 H.Irigoyen esq Moreno, Av. 25 de Mayo 1326",+54 2281 51-1652,Azul,Provincia de Buenos Aires,-36.7788745,-59.8610032,4.7,7,https://lh3.googleusercontent.com/p/AF1QipOFa3z10f5yZqEu_c6gX1UJ_gKt5M6fBLU3Od_r=w408-h271-k-no,3.0,42,2025-06-15T22:56:57.477Z,comercio
Despensa del Barrio,Tienda de alimentación,,Avenida Juan B. Justo 1149,+54 221 592-7482,Buenos Aires,Provincia de Buenos Aires,-36.7900844,-59.8545663,3.8,6,https://lh3.googleusercontent.com/gps-cs-s/AC9h4noLoWkD2x-0tTQVUcK0JQKzxdCedUeLANms88rXx7gh_iXAmt15EnXEjarkHTtRNHDSecKhnB2uFurZL6U2bVuf3cJWAfu9LfJaSVDnCwo8pd_m_SE_lKxjh0aZ7Ob2vepI3hgvTg=w408-h725-k-no,3.0,4,2025-06-15T22:56:57.477Z,comercio
Suttò piedras y aromas,Comercio,https://instagram.com/sutto.artesanias?igshid=MzRlODBiNWFlZA==,Rauch 959,+54 2281 56-7256,Azul,Provincia de Buenos Aires,-36.7863139,-59.8632744,5.0,5,https://lh3.googleusercontent.com/p/AF1QipO03jpDH7tmFyg0VeiPalAF1OhMM5FKLrmAMn4O=w408-h324-k-no,14.0,94,2025-06-15T22:56:57.477Z,comercio
Agrocentro,Comercio,,Av. Piazza 1450,+54 2281 42-8084,Azul,Provincia de Buenos Aires,-36.7891002,-59.8440184,5.0,4,https://streetviewpixels-pa.googleapis.com/v1/thumbnail?panoid=Ehh9HJHGn67tRBGR7Q6hIA&cb_client=search.gws-prod.gps&w=408&h=240&yaw=52.48624&pitch=0&thumbfov=100,1.0,1,2025-06-15T22:56:57.476Z,comercio
ALMÍBAR,Tienda de alimentación,,"Calle Gral. Paz y Comercio, B7300EVX",+54 2281 50-9728,Azul,Provincia de Buenos Aires,-36.7953135,-59.8574204,4.7,3,https://lh3.googleusercontent.com/gps-cs-s/AC9h4nr8iJMbZiK8g-XlpWRKHLKUNmQ9eALgQSYGKThh-TrmhGZ2pP5t1cU_Dl0-hKsOARcUFg8YGVGqQ25l0f4wfTgbN2p6-svUhrGnKMyNMESQFOdooiYTqz80HAfqhPVreQGfPNLw=w408-h544-k-no,16.0,6,2025-06-15T22:56:57.476Z,comercio
Quiricocho- Indumentaria deportiva,Comercio,,San Martín 569,,Azul,Provincia de Buenos Aires,-36.7797298,-59.861516,4.0,2,https://streetviewpixels-pa.googleapis.com/v1/thumbnail?panoid=azVhOqgo57d_QAuMWpLE-g&cb_client=search.gws-prod.gps&w=408&h=240&yaw=219.79402&pitch=0&thumbfov=100,1.0,1,2025-06-15T22:56:57.476Z,comercio
Asociacion Latina de Exportacion SA,Comercio,,Julio Argentino Roca 846,+54 2281 43-0338,Azul,Provincia de Buenos Aires,-36.7850672,-59.8592544,3.3,1,https://streetviewpixels-pa.googleapis.com/v1/thumbnail?panoid=WQnGTmaSbHhcH7RNl-Hcog&cb_client=search.gws-prod.gps&w=408&h=240&yaw=50.672348&pitch=0&thumbfov=100,1.0,4,2025-06-15T22:56:57.476Z,comercio
SIS tecnología,Proveedor de servicios de Internet,,Alvear 717,+54 2281 50-6895,Azul,Provincia de Buenos Aires,-36.7772058,-59.8667481,,2,https://lh3.googleusercontent.com/p/AF1QipPZstEZplW3nnJGITq6jkjD_KfubwHOiUyMS4Iq=w408-h541-k-no,9.0,0,2025-06-15T22:56:54.473Z,tecnologia
Menfis,Tienda de electrónica,,Av. 25 de Mayo 644,,Azul,Provincia de Buenos Aires,-36.7797891,-59.8608839,4.0,1,https://streetviewpixels-pa.googleapis.com/v1/thumbnail?panoid=YkBKLJ0m55raDML4guzovQ&cb_client=search.gws-prod.gps&w=408&h=240&yaw=305.42017&pitch=0&thumbfov=100,1.0,5,2025-06-15T22:56:54.472Z,tecnologia
Cooperativa Obrera,Tienda de alimentación,http://www.cooperativaobrera.coop/,Av. 25 de Mayo 1272,+54 2281 43-2276,Azul,Provincia de Buenos Aires,-36.7884606,-59.8712545,4.3,52,https://lh3.googleusercontent.com/gps-cs-s/AC9h4npKODjy4wxXida9apzYAu7l0SZ5wLONOAIZjRzQvBjA1PlbZbgXgeGGXBo0b7dCb8rXvf6NAV4GABARcINARXaC_g8pmVuLUj6pmKsWoTTnUdFDNOR3qd6-3JBiIDqapcy3BiHD4Q=w408-h306-k-no,22.0,267,2025-06-15T22:57:00.082Z,comercio
donadio motos,Tienda de repuestos para motos,,Av. Juan Domingo Perón 382,+54 9 2281 30-8510,Azul,Provincia de Buenos Aires,-36.7797726,-59.8676286,4.7,20,https://lh3.googleusercontent.com/p/AF1QipOb4U4xhI-RHFogC3pq39ClVclZqNTr9lR9GejS=w408-h342-k-no,3.0,49,2025-06-15T22:57:06.683Z,repuestos
Jc Motos Padilla,Tienda de repuestos para motos,https://www.facebook.com/profile.php?id=1442782733,Leyria 419,+54 2281 52-6097,Azul,Provincia de Buenos Aires,-36.7801442,-59.8526734,,61,https://lh3.googleusercontent.com/p/AF1QipNjSHR2525IN3v8fP_ExaMnrUsAJlgDl5GPERKy=w426-h240-k-no,3.0,0,2025-06-15T22:57:08.499Z,repuestos
Concesionario Interamerica,,,RN3 Km. 300.5,,Azul,Provincia de Buenos Aires,-36.7842216,-59.8320884,4.5,60,https://streetviewpixels-pa.googleapis.com/v1/thumbnail?panoid=4JfNQY_85Okc-rE3ylm96g&cb_client=search.gws-prod.gps&w=408&h=240&yaw=314.00073&pitch=0&thumbfov=100,1.0,10,2025-06-15T22:57:08.022Z,repuestos
Barberi Diesel,Tienda de artículos de fontanería,,Av. Piazza 1371,+54 2281 42-6135,Azul,Provincia de Buenos Aires,-36.7885256,-59.8454598,4.3,59,https://streetviewpixels-pa.googleapis.com/v1/thumbnail?panoid=VtoU26IsQV6DFEIP6wMctw&cb_client=search.gws-prod.gps&w=408&h=240&yaw=232.15256&pitch=0&thumbfov=100,4.0,13,2025-06-15T22:57:08.021Z,repuestos
Radiadores Coz,Tienda de repuestos para automóviles,http://www.radiadorescos.com/,"A Prat, Alberdi Esq",+54 2281 66-5027,Azul,Provincia de Buenos Aires,-36.7826844,-59.850314,4.8,19,https://lh3.googleusercontent.com/p/AF1QipPQZ6zeCbIOPSeOrWzCUeCJVOYyaWmQvYqDnYxj=w426-h240-k-no,8.0,14,2025-06-15T22:57:06.683Z,repuestos
MecanicaDavico,Taller mecánico,,Leyria 370,+54 2281 35-0126,Azul,Provincia de Buenos Aires,-36.7792521,-59.85229,5.0,57,https://lh3.googleusercontent.com/p/AF1QipO0HBOYJ23C142DQ1U2xZAGV85vUprgsn0_rG7k=w408-h725-k-no,14.0,7,2025-06-15T22:57:08.021Z,repuestos
"Gomería ""El José""",Tienda de neumáticos,,RN3 kilómetros 301,+54 2281 35-1015,Azul,Provincia de Buenos Aires,-36.793324,-59.8420161,3.7,56,https://lh3.googleusercontent.com/p/AF1QipNmbYhsk6UzVIUYyfa3Y4kJpLlZ5_QnUFfPSbjF=w408-h544-k-no,29.0,3,2025-06-15T22:57:08.021Z,repuestos
AGROREPUESTOS AZUL,Servicio agrícola,,RN3 km 301,+54 2281 65-4471,Azul,Provincia de Buenos Aires,-36.8044471,-59.8556408,4.6,55,https://lh3.googleusercontent.com/p/AF1QipMz4VSkP66OJij1COfIhSdBQCW-OtWIjFGsqucg=w408-h839-k-no,16.0,5,2025-06-15T22:57:08.021Z,repuestos
Arrouzet Motors,Comercio,,España 861,+54 2281 42-3209,Azul,Provincia de Buenos Aires,-36.7856474,-59.8609101,4.6,54,https://lh3.googleusercontent.com/gps-cs-s/AC9h4nob538YnVF8CMgNSqEMLmyJ-vaGRV4h5ONb0K5zphrdMLwAzQciJLmfIRJzYU8jmGE2xyZTznzSTsh7UL8hu4pOYiQ5PLZM8NF7MYbXizM3xWixEQJBhf7-_q0zqUvU2ljaXBqF=w408-h725-k-no,3.0,28,2025-06-15T22:57:08.021Z,repuestos
Messina Ruben,Taller de automóviles,,Burgos 1074,+54 2281 42-6474,GEV,Provincia de Buenos Aires,-36.783877,-59.8702963,4.4,53,https://lh3.googleusercontent.com/gps-cs-s/AC9h4np6CbnkI8dJ0zr6lUn4HA8JEmSv_RCbMsIew58wBWyNaM4vrhMV3AvR5PKPvjcvj0jFUpb6loEYEpgWvfhtjfCZzJQY0wjtZjHGMZqLypZawyp3kXXWuF4SBOeh19fjBC4FXeqc3g=w408-h544-k-no,3.0,14,2025-06-15T22:57:08.021Z,repuestos
Cotobat,Mayorista,,Gral. Paz 699,+54 2281 49-0441,Azul,Provincia de Buenos Aires,-36.7881619,-59.8673438,,52,https://lh3.googleusercontent.com/p/AF1QipM0bCpsYI6aNOXSLWTw1aWtYUhOZXuQGz_zTiI0=w408-h544-k-no,9.0,0,2025-06-15T22:57:08.021Z,repuestos
Diesel Pennella,Taller de automóviles,,Monseñor Caneva 720,,Azul,Provincia de Buenos Aires,-36.7861532,-59.855315,4.4,51,https://streetviewpixels-pa.googleapis.com/v1/thumbnail?panoid=vYO2uBs9kUlGLd0CFy0C2g&cb_client=search.gws-prod.gps&w=408&h=240&yaw=317.66608&pitch=0&thumbfov=100,1.0,5,2025-06-15T22:57:08.021Z,repuestos
Bossa,Tienda de accesorios de moda,https://bossanova.com.ar/,Moreno 628,,Azul,Provincia de Buenos Aires,-36.7789908,-59.8615259,5.0,48,https://lh3.googleusercontent.com/p/AF1QipPBv8tMxjRbeK9ukciM1KFjgjFMh1hPT5TJYEAW=w408-h582-k-no,4.0,69,2025-06-15T22:57:00.081Z,comercio
DRX + Fucci Automotive,Taller de reparación de automóviles,,Necochea 913,+54 2281 53-7198,Azul,Provincia de Buenos Aires,-36.7843739,-59.8642885,4.8,49,https://lh3.googleusercontent.com/p/AF1QipPoU-3oQzpYU7OTS-CHDhJwvk_LpUAcgM3Z0e2S=w408-h306-k-no,49.0,22,2025-06-15T22:57:08.021Z,repuestos
La Casa del Tren Delantero,Taller de reparación de automóviles,,Olavarría 575,+54 435620,Azul,Provincia de Buenos Aires,-36.7831939,-59.8655864,4.6,48,https://streetviewpixels-pa.googleapis.com/v1/thumbnail?panoid=gP_fadQuShs8vMjBmpj6aA&cb_client=search.gws-prod.gps&w=408&h=240&yaw=221.52373&pitch=0&thumbfov=100,1.0,9,2025-06-15T22:57:08.021Z,repuestos
La casa de la bomba de agua,Tienda de repuestos de automóviles usados,,,+54 2281 65-4618,Azul,Provincia de Buenos Aires,-36.789404,-59.8436226,4.5,47,https://lh3.googleusercontent.com/gps-cs-s/AC9h4nq87QYkfEQxJjogvtBb44p4m1pszatShkaNejTjjtg41T1twiGWdSmoFJOhqfRv8GUZ6xoT5j3yYUsEzhWd2v5L7V4cVCw-gyGPFvByh6N3GfO7P2krFj7Dd3G5MjOjgsOyecCcMg=w426-h240-k-no,5.0,4,2025-06-15T22:57:08.021Z,repuestos
Radiadores Cos,Tienda de repuestos para automóviles,,Av. Piazza 1395,+54 2281 55-4252,Azul,Provincia de Buenos Aires,-36.7885921,-59.8451599,4.7,46,https://lh3.googleusercontent.com/p/AF1QipMxqWDhd2QuBp-s2z9MMDV4C42N3KiEQR3LlAxi=w408-h306-k-no,10.0,3,2025-06-15T22:57:08.021Z,repuestos
Automóvil Club Argentino,Taller de reparación de automóviles,,,+54 2281 42-5284,Azul,Provincia de Buenos Aires,-36.7948184,-59.8426969,4.5,44,https://lh3.googleusercontent.com/gps-cs-s/AC9h4nouz7Hbd8-S5IO611w_6pFxpci3tcTsbjIaOj0bsAIPIbiahxjKtcAqomNPoFRjthOUVaBVA4sqCDHBQ8vHLWEojSNUo1OZfDM5RnkOHo-l1SX58v6X6X1y0fBx5LhWntPEGlCBAA=w408-h306-k-no,4.0,15,2025-06-15T22:57:08.020Z,repuestos
Ag Equipamientos 4x4,Tienda de repuestos para automóviles,https://www.facebook.com/ag.equipamientos?mibextid=ZbWKwL,Av. Piazza 1216,+54 2281 66-6616,Azul,Provincia de Buenos Aires,-36.7862406,-59.8477448,4.4,43,https://lh3.googleusercontent.com/p/AF1QipPVaHphWTHPe9M61tiDvPthJ5XEIdDZQI-ebAY9=w408-h240-k-no,13.0,14,2025-06-15T22:57:08.020Z,repuestos
Torchia y Torchia Repuestos Electrodomesticos-todas Las Marcas,,,España 655,+54 2281 42-5906,Azul,Provincia de Buenos Aires,-36.7828521,-59.8577173,5.0,42,https://streetviewpixels-pa.googleapis.com/v1/thumbnail?panoid=kRkkcnnZ_z-c0MS9RBVhNA&cb_client=search.gws-prod.gps&w=408&h=240&yaw=177.48479&pitch=0&thumbfov=100,1.0,4,2025-06-15T22:57:08.020Z,repuestos
Lubricentro y Baterías Miglino,Servicio de cambio de aceite,https://www.facebook.com/Lubricentroybaterias/,Avenida Juan B. Justo 1213,+54 2281 52-5403,Azul,Provincia de Buenos Aires,-36.7911088,-59.8533275,4.8,41,https://lh3.googleusercontent.com/gps-cs-s/AC9h4npyrx91o4wfy-1TBfta7e-3DsOQK4hfEtrfRAd4tjn7gWvZgVWkw20V-vyXoGzkDo9uXpLQuuBV1_ZpPDanjafQB-ID_YCKcICtgKj96e2I2wYBl305UER3HF00yK_YmpeYsGx9=w408-h306-k-no,74.0,127,2025-06-15T22:57:08.020Z,repuestos
Azul Motos By Di Palma,Concesionario de motos,http://www.azulmoto.com/,Bolívar 875,+54 2281 43-6237,Azul,Provincia de Buenos Aires,-36.7842831,-59.8571499,4.6,45,https://lh3.googleusercontent.com/gps-cs-s/AC9h4nrS77tvQZVlkWpAJVX20mY3rT-1zfvH_yacjRk9FgxIiDQjfLLXG4O83sDagojxhhyppAFeY729cy5s-LGS7NJ_xD141LDAhCRXFafFDWMPyUDn0PTIrFrcykzE-EHmxDZIIAuz2Q=w408-h306-k-no,23.0,126,2025-06-15T22:57:08.020Z,repuestos
Alfa Accesorios Autopartes En General,Tienda de repuestos para automóviles,,Av. Mitre 836,+54 9 2281 46-9379,Azul,Provincia de Buenos Aires,-36.7808434,-59.8542642,,36,https://streetviewpixels-pa.googleapis.com/v1/thumbnail?panoid=2ro0xGqvz4bASpVqgtisjw&cb_client=search.gws-prod.gps&w=408&h=240&yaw=50.079212&pitch=0&thumbfov=100,1.0,0,2025-06-15T22:57:07.432Z,repuestos
Blue Electro Repuestos,Tienda de repuestos para automóviles,,Av. Mitre 962,,Azul,Provincia de Buenos Aires,-36.7823873,-59.8524922,,18,https://streetviewpixels-pa.googleapis.com/v1/thumbnail?panoid=jcYSr7NpyovlRanghr9wMw&cb_client=search.gws-prod.gps&w=408&h=240&yaw=60.564514&pitch=0&thumbfov=100,1.0,0,2025-06-15T22:57:06.683Z,repuestos
LUBRICENTRO LUBRIBOUTIQUE 25,Tienda de repuestos para automóviles,https://www.facebook.com/LubriBoutique25-164831817197166/,Neuquén 624,+54 2281 30-1562,Azul,Provincia de Buenos Aires,-36.7906061,-59.8727402,5.0,17,https://lh3.googleusercontent.com/gps-cs-s/AC9h4np_m8gZlKkybyJ9mLfaaeq1FE8uV0eBQn9ulO4_6j2YF90lxivoh_fGKblYy3aXSyssPJqyOThjXunYL-F_xWYz3fhfJR6UiIuuOcOtjG03AtkresRqbGyA3BiJKEeVlEGeekEj=w533-h240-k-no,57.0,14,2025-06-15T22:57:06.682Z,repuestos
Frenos y Embragues El Mono Fashion,Taller de frenos,https://www.gurugo.com.ar/fichas/frenos-y-embragues-el-mono-fashion_14234643,Av. Piazza 1102,+54 2281 42-3100,Azul,Provincia de Buenos Aires,-36.7848963,-59.8495152,4.5,50,https://lh3.googleusercontent.com/p/AF1QipPvMofclxgxCFXIfrj6zRSS-YKHpWsYKwADhEsy=w426-h240-k-no,44.0,26,2025-06-15T22:57:08.021Z,repuestos
Autopartes Ruta 3,Tienda de accesorios para camiones,,P. Bogliano 42836,+54 2281 55-2534,Azul,Provincia de Buenos Aires,-36.7902976,-59.8375472,5.0,15,https://lh3.googleusercontent.com/gps-cs-s/AC9h4nr0Jy8BYei2y_dQ0X27ktRaZlo-DM8jimyWsi1pQlQV5M01Zpga2IPL6_Szb3tXVxD3Gxp6OqdyHyJ9ds-v-RlZwGGj2p0RIKJL6_Pu02LVZAYQ0KCp8zPQbKiUnTRW3MnMAcY0=w408-h263-k-no,2.0,5,2025-06-15T22:57:06.682Z,repuestos
Bruswagen,Tienda de repuestos para automóviles,,San Martín 899,+54 2281 47-6176,Azul,Provincia de Buenos Aires,-36.783911,-59.8561004,4.7,14,https://lh3.googleusercontent.com/gps-cs-s/AC9h4nrB5VDWZNQ4k3PU8GE23t1myU4aiqM1yJJ81AdnUC_6Ms944CgVDxv9dmEElZvkAoK_GcrSlvnuA0W1ZS0bV4zJEnnMw_-JlOECgpaayiKPclNz5GowHhCznxcUT_dsOrfVel0=w408-h408-k-no,4.0,15,2025-06-15T22:57:06.682Z,repuestos
Rodamientos Alitta,Tienda de repuestos para automóviles,,Av. Juan Domingo Perón 687,+54 2281 43-1892,Azul,Provincia de Buenos Aires,-36.7839143,-59.86287,4.6,13,https://lh3.googleusercontent.com/p/AF1QipOi2VhjNnWJe-ZpZAL1xnGFkxTCkKkcpZMnhzbD=w426-h240-k-no,5.0,82,2025-06-15T22:57:06.682Z,repuestos
Todo Goma Suspensión Y Dirección,Tienda de repuestos para automóviles,,San Martín 778,+54 2281 56-9441,Azul,Provincia de Buenos Aires,-36.7822573,-59.8578133,4.3,12,https://lh3.googleusercontent.com/gps-cs-s/AC9h4noSoWGUg6YtFzy6CfVHom_O16KnDsSkTc7uHQ7mt1cxHKDaOMAsVsRDos34foME5L_5aro2PfQAyxNSfPaRXcIC3rb3w3o1ZRa7Ie-ve63-j37orWUbk_QnheshKI3whRdWsfCm=w408-h408-k-no,2.0,146,2025-06-15T22:57:06.682Z,repuestos
Gomez Repuestos,Tienda de repuestos para automóviles,,Colón 830,+54 2281 42-7353,Azul,Provincia de Buenos Aires,-36.7797719,-59.8671996,4.3,11,https://streetviewpixels-pa.googleapis.com/v1/thumbnail?panoid=E07PrdPti0RokuThk6QCgg&cb_client=search.gws-prod.gps&w=408&h=240&yaw=308.29187&pitch=0&thumbfov=100,1.0,15,2025-06-15T22:57:06.682Z,repuestos
ROAS REPUESTOS Y SERVICIOS,Fabricante de repuestos para automóviles,http://www.roas.com.ar/,Malere 623,+54 2281 42-3135,Azul,Provincia de Buenos Aires,-36.777128,-59.8562934,5.0,16,https://streetviewpixels-pa.googleapis.com/v1/thumbnail?panoid=jcc9Du82woztQt60cOI-KQ&cb_client=search.gws-prod.gps&w=408&h=240&yaw=191.11208&pitch=0&thumbfov=100,1.0,2,2025-06-15T22:57:06.682Z,repuestos
Tartara Repuestos,Tienda de repuestos para automóviles,,Julio Argentino Roca 377,+54 2281 42-4503,Azul,Provincia de Buenos Aires,-36.7792994,-59.8670689,4.8,9,https://streetviewpixels-pa.googleapis.com/v1/thumbnail?panoid=RWjcHp0Cj-WuiVfT9J-y0g&cb_client=search.gws-prod.gps&w=408&h=240&yaw=236.34248&pitch=0&thumbfov=100,3.0,6,2025-06-15T22:57:06.682Z,repuestos
Casa Piafil Repuestos Automotores,Comercio,,San Martín 805,+54 2281 42-2990,Azul,Provincia de Buenos Aires,-36.7828026,-59.8575921,5.0,8,https://lh3.googleusercontent.com/gps-cs-s/AC9h4noGDX88M3jNMp1OkxV5OjX4p5ahdyEECiQ5vutpRtdYKEIQngGCcvxFL7x9p_jJ0gs-x2f4Ior6ld7-5r_LPflXvVGtA1ZAOFPPRSj-JUMA4xp2RwcnjQiMJFcWpJ59gE0hu4oo=w408-h907-k-no,3.0,4,2025-06-15T22:57:06.682Z,repuestos
federico olle repuestos,Tienda de repuestos para automóviles,,Bolívar 678,+54 2281 51-0792,Azul,Provincia de Buenos Aires,-36.7816409,-59.8603466,4.6,7,https://lh3.googleusercontent.com/p/AF1QipPGdK-pjgXYjBqbaWR_rQIlIcz5kX21kZT5aXWs=w408-h294-k-no,7.0,8,2025-06-15T22:57:06.682Z,repuestos
AyB Repuestos,Tienda de repuestos de automóviles usados,https://www.facebook.com/aybrepuestos/,Monseñor Caneva 690,+54 2281 40-9965,Azul,Provincia de Buenos Aires,-36.7858282,-59.8549046,4.8,6,https://lh3.googleusercontent.com/p/AF1QipMafOQBJxIKbY0rrzGsu8ww5DFwmhRKX83ZlqaF=w408-h306-k-no,35.0,36,2025-06-15T22:57:06.682Z,repuestos
Repuestos Todo,Tienda de repuestos para automóviles,,Necochea 810,+54 3878 31-9308,Azul,Provincia de Buenos Aires,-36.7827989,-59.8627021,4.6,5,https://streetviewpixels-pa.googleapis.com/v1/thumbnail?panoid=GIrhReYY1AWVsHRG06xukw&cb_client=search.gws-prod.gps&w=408&h=240&yaw=328.47678&pitch=0&thumbfov=100,1.0,32,2025-06-15T22:57:06.682Z,repuestos
Repuestos Librandi,Tienda de repuestos para automóviles,,9 de Julio 835,+54 2281 42-9934,Azul,Provincia de Buenos Aires,-36.7845161,-59.8586252,4.2,4,https://streetviewpixels-pa.googleapis.com/v1/thumbnail?panoid=6Eq4Tp5cIK2LtYo40gUkTw&cb_client=search.gws-prod.gps&w=408&h=240&yaw=244.82872&pitch=0&thumbfov=100,2.0,79,2025-06-15T22:57:06.682Z,repuestos
Callvu Repuestos - Embragues Frenos,Tienda de repuestos para automóviles,https://www.guia-dorada.com.ar/guia/aviso-repuestos-callvu-embragues-en-azul-22011.html,San Martín 957,+54 2281 42-7306,Azul,Provincia de Buenos Aires,-36.7844669,-59.8550127,4.8,10,https://lh3.googleusercontent.com/gps-cs-s/AC9h4npXtFBLcx6ZaxDs8La1x4x2VP0rmKMW8NW8RlLTN8d83-JsjP0Xs_O7wdKGXfTl4hWxR1xe1pd3g4FRHLm4DRqRmy8Hel3WuMMUwocMo1xxttd96oBIiPVb6F4Oo5HiGmGWy3RMjg=w408-h306-k-no,29.0,31,2025-06-15T22:57:06.682Z,repuestos
Electropartes Detroit,Tienda de repuestos para automóviles,,Sarmiento 984,+54 2281 56-8419,Azul,Provincia de Buenos Aires,-36.7783495,-59.8464389,4.7,2,https://lh3.googleusercontent.com/gps-cs-s/AC9h4nrsL07qN86yG7u3JxMeylb1scAB7i8RJsIY8b9LYs1TLSTmHIcaDMPjHYG_xvYFO6RVEzetX0feQ0WfBvuwyl39eomFi1soOytO-ZizY0Ad8omzrUF1e5EDKq7L93DZyYLEh-Q=w408-h306-k-no,15.0,112,2025-06-15T22:57:06.682Z,repuestos
Balanza Pública y Lavadero de Camiones,Parada para camiones,https://dardolopez.com.ar/,,+54 2281 42-2263,Azul,Provincia de Buenos Aires,-36.7882189,-59.8357017,4.4,58,https://lh3.googleusercontent.com/gps-cs-s/AC9h4noIMW03SN9cjLL63jTmnu5L0XQusDGQOhNihJVSkQ48Rq62PUZqN4a9G4cYmCbeqFxHEYd22YWi_HXTCH0N_ADO46R5Te5IzQFym41rxctgZGbxEN70cdnPskYBIvYHpWC9Bm6r=w408-h544-k-no,5.0,31,2025-06-15T22:57:08.021Z,repuestos
Blue Electro Repuestos,Tienda de repuestos para automóviles,,Av. Mitre 960,+54 223 546-4893,Azul,Provincia de Buenos Aires,-36.7823082,-59.8524134,4.6,1,https://lh3.googleusercontent.com/p/AF1QipOcr6xLwOTkPRwxF-jbaaujxvf4GUWlFoa7mhLS=w408-h348-k-no,2.0,174,2025-06-15T22:57:06.681Z,repuestos
Taller Nicolas Vizzolini,Persona de mantenimiento,,celle 1 569,+54 2281 41-5634,Azul,Provincia de Buenos Aires,-36.7621178,-59.8400553,4.8,17,https://lh3.googleusercontent.com/p/AF1QipOrUc3kVNNh5L2w-Vyj9bQ-urAuuVf6lkqIiCuq=w408-h545-k-no,20.0,28,2025-06-15T22:57:22.428Z,maquinaria
Taller Pirola,Tienda de herramientas,,"Avenida 25 de Mayo Norte, Av. Mujica &",+54 2281 40-9097,Azul,Provincia de Buenos Aires,-36.7617295,-59.8407891,4.8,16,https://lh3.googleusercontent.com/gps-cs-s/AC9h4npXbVk32XocunegmZEEahVAZBT7gxAJpd3_JBAYs0CVUEy7FY4D1bQLk_uNSF-6s5wtd_IYo2vM3yJqdXwDXO1YYjUxu6r5zEkpwSn_kOtTCipOF-8IWElvXrGEWmA2VuzAl1Ec=w408-h544-k-no,17.0,154,2025-06-15T22:57:22.428Z,maquinaria
Repuestos Andrés,Tienda de repuestos para automóviles,https://www.paginasamarillas.com.ar/fichas/repuestos-andres_14231309,San Martín 974,+54 2281 50-0483,Azul,Provincia de Buenos Aires,-36.784695,-59.8546885,4.6,3,https://lh3.googleusercontent.com/p/AF1QipOOP1i0cZAUi_TMnkHDXIjSxhUPpHIa_yUQWDhx=w426-h240-k-no,10.0,42,2025-06-15T22:57:06.682Z,repuestos
Inmobiliaria Macaluso - Propiedades,Agencia inmobiliaria,,9 de Julio 832,+54 2281 66-4559,Azul,Provincia de Buenos Aires,-36.7842951,-59.8584625,5.0,40,https://streetviewpixels-pa.googleapis.com/v1/thumbnail?panoid=6a3_TtenxmGB5STdHcg2AA&cb_client=search.gws-prod.gps&w=408&h=240&yaw=43.266804&pitch=0&thumbfov=100,1.0,7,2025-06-15T22:57:23.973Z,venta
Angelini Negocios Inmobiliarios,Agencia inmobiliaria,,"Av. Mitre 713 Entre Arenales, Rauch y",+54 2281 30-1464,Azul,Provincia de Buenos Aires,-36.7796313,-59.8567699,4.9,39,https://lh3.googleusercontent.com/p/AF1QipNaYqTej8NJmJAPYGlNjd4EyNJ-uKmXY4UYp3c_=w408-h271-k-no,71.0,20,2025-06-15T22:57:23.973Z,venta
Buena pinta cervezas y comidas,Bar,,Av. 25 de Mayo 2030,,Azul,Provincia de Buenos Aires,-36.7979409,-59.8837155,1.9,31,https://lh3.googleusercontent.com/gps-cs-s/AC9h4noDNkf55FwFhI18Q-0LsjFIZ9Bs3vdFyX8Y4htF-3nrRQnyu7LeZ6-YeVswxvh2__Bxh8j7ERyNfXpzBRVtwCwMSJ6N4uQMdB-rGPJsSifNdGA1hn7r0bB9CgrXXACFFM_8Q0DeGg=w408-h377-k-no,5.0,17,2025-06-15T22:57:23.973Z,venta
El Trueque Azul,Comercio,,,,Azul,Provincia de Buenos Aires,-36.7586679,-59.8739276,4.0,18,https://streetviewpixels-pa.googleapis.com/v1/thumbnail?panoid=rclGYuv_nGbWkHFrbcaQ7g&cb_client=search.gws-prod.gps&w=408&h=240&yaw=207.10751&pitch=0&thumbfov=100,1.0,10,2025-06-15T22:57:22.830Z,venta
CASA TOMES(REPARACIÓN Y VENTA DE RESPUESTOS VIGIAS),Taller de automóviles,,"IFL, Alfredo Prat 1818",+54 2281 65-3781,Azul,Provincia de Buenos Aires,-36.7922431,-59.8385258,,17,https://streetviewpixels-pa.googleapis.com/v1/thumbnail?panoid=iHzwgSFFonHbrqL00tsW5w&cb_client=search.gws-prod.gps&w=408&h=240&yaw=27.620214&pitch=0&thumbfov=100,1.0,0,2025-06-15T22:57:22.830Z,venta
Venta de maquillajes,Centro de negocios,,,+54 2281 53-4271,,,-36.772316,-59.8510875,5.0,60,,,1,2025-06-15T22:57:24.931Z,venta
Automotores Piazza Centro,Concesionario de automóviles,https://instagram.com/automotorespiazzacentro?igshid=OGQ5ZDc2ODk2ZA==,Av. Piazza 1175,+54 2281 42-9601,Azul,Provincia de Buenos Aires,-36.7859621,-59.8485452,4.1,59,https://lh3.googleusercontent.com/p/AF1QipMHDJ5KbfI0nZ74YH7c6g8EFCcMb3nARvH2Rkma=w426-h240-k-no,14.0,7,2025-06-15T22:57:24.931Z,venta
Direccion de Regularización Dominial,Departamento de obras públicas,,Av. 25 de Mayo 647,,Azul,Provincia de Buenos Aires,-36.7802016,-59.8605938,,58,https://streetviewpixels-pa.googleapis.com/v1/thumbnail?panoid=lRzhTQ0LMqcg3Q0Jt9NjKw&cb_client=search.gws-prod.gps&w=408&h=240&yaw=130.6616&pitch=0&thumbfov=100,1.0,0,2025-06-15T22:57:24.931Z,venta
Central Motos,Taller de automóviles,,Alberdi 471,+54 2281 43-8961,Azul,Provincia de Buenos Aires,-36.78318,-59.8505575,5.0,57,https://streetviewpixels-pa.googleapis.com/v1/thumbnail?panoid=3vgKr6OvzB7dOoa0e4XZTA&cb_client=search.gws-prod.gps&w=408&h=240&yaw=138.80392&pitch=0&thumbfov=100,1.0,1,2025-06-15T22:57:24.931Z,venta
Pizza Palas,Pizzería,https://www.facebook.com/pizzapalasalapiedra,Hipólito Yrigoyen 593,+54 2281 42-2809,Azul,Provincia de Buenos Aires,-36.7792517,-59.8605043,4.5,55,https://lh3.googleusercontent.com/p/AF1QipM8hveJWfiWVSgN3U9O9rkJsn-M-BNZyI7FHCQy=w426-h240-k-no,105.0,436,2025-06-15T22:57:24.931Z,venta
Falconaro Servicios Inmobiliarios,Agencia inmobiliaria,http://www.falconaro.com.ar/,Rauch 547,+54 2281 43-1346,Azul,Provincia de Buenos Aires,-36.7805726,-59.856539,4.4,19,https://lh3.googleusercontent.com/p/AF1QipOweeII6pc_tOFjQrlL31G7RlaVvNEbvl9C-mdL=w408-h306-k-no,37.0,14,2025-06-15T22:57:22.830Z,venta
Motomel,Concesionario de automóviles,,Av. Juan Domingo Perón 880,,Azul,Provincia de Buenos Aires,-36.7861975,-59.8593989,,52,https://streetviewpixels-pa.googleapis.com/v1/thumbnail?panoid=jRsg4JsLR4Tl1OD_aCe0WQ&cb_client=search.gws-prod.gps&w=408&h=240&yaw=44.372208&pitch=0&thumbfov=100,1.0,0,2025-06-15T22:57:24.930Z,venta
Neumaticos Corral - Azul,Tienda de neumáticos,https://www.neumaticoscorral.com.ar/,Av. Mitre 879,+54 2281 43-4575,Azul,Provincia de Buenos Aires,-36.7817724,-59.8538909,4.6,54,https://lh3.googleusercontent.com/p/AF1QipMdG4D_M47dyvwjBq6hidlMaBw84_f0ydD9hliE=w408-h479-k-no,66.0,109,2025-06-15T22:57:24.930Z,venta
Elisa Serradell Servicios Inmobiliarios,Agentes inmobiliarios,,Rauch 1127 Departamento A,+54 2281 55-8626,Azul,Provincia de Buenos Aires,-36.7880729,-59.8653858,,50,https://streetviewpixels-pa.googleapis.com/v1/thumbnail?panoid=VNDCn0dh9KndzfeSPyCdUA&cb_client=search.gws-prod.gps&w=408&h=240&yaw=150.46509&pitch=0&thumbfov=100,2.0,0,2025-06-15T22:57:24.930Z,venta
Inmobiliaria Prezioso,Agencia inmobiliaria,,San Martín 670,+54 2281 47-2833,Azul,Provincia de Buenos Aires,-36.7808856,-59.8596533,3.7,49,https://lh3.googleusercontent.com/p/AF1QipMXMoVB8CDwK-aaj8LbBUzT6lviqXJ_OOxxqBAw=w408-h273-k-no,7.0,7,2025-06-15T22:57:24.930Z,venta
Perseo Muebles,Tienda de muebles,,Hipólito Yrigoyen 880,+54 2281 52-2149,Azul,Provincia de Buenos Aires,-36.7829991,-59.8553727,4.5,48,https://lh3.googleusercontent.com/p/AF1QipOCh51aLy_t0h7zmU6NUKBCun4vnvBPSg8Yq_UZ=w408-h306-k-no,20.0,50,2025-06-15T22:57:24.930Z,venta
Vivero Parque Chico,Vivero,,7300,+54 2281 52-9154,Azul,Provincia de Buenos Aires,-36.813018,-59.8838768,4.6,47,https://lh3.googleusercontent.com/gps-cs-s/AC9h4nr1jsqLYqiTVmSx8PxdDYySTwfWlt4Xur85LR48k1Q8iKTDpxWipqucFFf3Z2c6L_E2ZSbqPBipvdCvH-dZPeDL7ezTVjK69dlXb6HIoA7TTpul_erXyIfeih06ViU3Lw_3KfCjUg=w408-h306-k-no,2.0,12,2025-06-15T22:57:24.930Z,venta
Inmobiliaria Leiva,Agencia inmobiliaria,,Julio Argentino Roca 473,+54 2281 42-7676,Azul,Provincia de Buenos Aires,-36.7805077,-59.8654364,4.3,45,https://streetviewpixels-pa.googleapis.com/v1/thumbnail?panoid=j3PFayG5rAcAKUmha0vJyw&cb_client=search.gws-prod.gps&w=408&h=240&yaw=231.58855&pitch=0&thumbfov=100,1.0,16,2025-06-15T22:57:24.930Z,venta
Inmobiliaria Moretti,Agencia inmobiliaria,https://www.instagram.com/inmobiliariamoretti?igsh=MWNvdjQ2d2xrdWQ3cQ==,Julio Argentino Roca 791,+54 2281 52-8193,Azul,Provincia de Buenos Aires,-36.7846023,-59.8601471,4.6,44,https://lh3.googleusercontent.com/p/AF1QipOvTbCNJe6Rfy__DlcwJu-6G7EaykhvJ1Y2OP0N=w408-h408-k-no,10.0,20,2025-06-15T22:57:24.930Z,venta
Casa Sampietro,Tienda de electrónica,https://www.sampietroweb.com.ar/,Av. 25 de Mayo 636,+54 2281 58-6552,Azul,Provincia de Buenos Aires,-36.7796526,-59.8606805,4.0,20,https://lh3.googleusercontent.com/gps-cs-s/AC9h4np2oJx6AfI-EihVA5BCyoodowSAisNN2HtqvUdqO3eeFDroj9UW7zYpnagrVLystbbKnS6LTWRgVZF8SSnc4XDweQ9yPb5KWcLc7LBzWW3o17HNFdOZrBXh_E4KC4ajIkvmcnBB=w408-h306-k-no,2.0,34,2025-06-15T22:57:22.830Z,venta
Juan Picone S.R.L,Concesionario de automóviles,http://www.piconeautomotores.com/,Av. Mitre 649,+54 2281 43-1688,Azul,Provincia de Buenos Aires,-36.7787435,-59.8578108,4.6,53,https://lh3.googleusercontent.com/gps-cs-s/AC9h4noHwy8oPrti0QLyNBVQaga9F2BxS9LueX6LsBTwGwhG-n83SGLjoEOoPcYxOZpELg6PCYBh-vgo_JcWakn92CdKcNW_mcRqFIL5v6knVyr6Qhs7FHsCnwRhtNwrQjb7dF7_tGxu=w408-h306-k-no,26.0,60,2025-06-15T22:57:24.930Z,venta
Parabrisas Fernandez - Venta Y Colocacion,Comercio,,Hipólito Yrigoyen 275,+54 2281 57-8634,Azul,Provincia de Buenos Aires,-36.7754088,-59.865626,4.4,16,https://lh3.googleusercontent.com/p/AF1QipNrVNDX9XLyYjvNCMhgVZKDtGVL1C6F2gRxWedL=w408-h543-k-no,2.0,20,2025-06-15T22:57:22.829Z,venta
Inmobiliaria Chantiri,Agencia inmobiliaria,,Belgrano 662,+54 2281 50-1859,Azul,Provincia de Buenos Aires,-36.7795764,-59.8581804,4.8,15,https://streetviewpixels-pa.googleapis.com/v1/thumbnail?panoid=MkWvt3_KMGy5DibBjj-oCA&cb_client=search.gws-prod.gps&w=408&h=240&yaw=54.803066&pitch=0&thumbfov=100,1.0,11,2025-06-15T22:57:22.829Z,venta
YPF,Gasolinera,http://www.ypf.com/,"6545+42, RN3 Km 299",+54 2281 43-2720,Azul,Provincia de Buenos Aires,-36.7947354,-59.8426686,4.3,43,https://lh3.googleusercontent.com/gps-cs-s/AC9h4np7u7hLzzaFSdN1hi-qR8MQHZAi1lztklFIVhs9gzUKNla5XUvL0l0LVuPAe_wNZ4OnoNYnIfBeVEwbTPOwep794BY8yLIvtsDDqrlxDHwxMWByc7B_1XqaeUgulU-Rlh24Yyg=w426-h240-k-no,1192.0,4461,2025-06-15T22:57:24.930Z,venta
Maderas Don Facundo,Establecimiento de venta de madera,,,,Azul,Provincia de Buenos Aires,-36.8045872,-59.8555544,4.9,14,https://lh3.googleusercontent.com/gps-cs-s/AC9h4npVBb86eQXihLmH269XWDOUhqKP_DW1RMnOSSUlC3P-liyvi7k2GDPx0szkPbiowADGDyZWTc7Zah7pE93YUZlIBBxYz5UYOyMquDB_sJSbdzLPgQ0V-WkIjcAujgq3pavtCJLWiA=w519-h240-k-no,3.0,7,2025-06-15T22:57:22.829Z,venta
VIDRIERIA JOSE DE JOSE LUIS BILT - COLOCACION Y VENTA,Comercio,,Belgrano 631,+54 2281 66-4461,Azul,Provincia de Buenos Aires,-36.779271,-59.8588691,4.6,13,https://lh3.googleusercontent.com/p/AF1QipMkp3B9OXMvOCj6tK8hbUqgzInYRtz3f4xSS_O0=w426-h240-k-no,5.0,38,2025-06-15T22:57:22.829Z,venta
YPF,Gasolinera,,Av. Mitre 751,+54 2281 57-7672,Azul,Provincia de Buenos Aires,-36.7801688,-59.8559771,4.5,12,https://lh3.googleusercontent.com/gps-cs-s/AC9h4nrAe7IxykPFkrM_6Dkpd2owlBgo5fJpSxmmwpK3qCXyHuAzB7VQyJoNp6d4GYrOWAR58jfW5DxBWl8eOJ0MzPGpawN9WMBMpNNZntOcpKxQg7VNnR1Ctlp_hWPQ4jCFmUsgFYSz=w408-h306-k-no,34.0,672,2025-06-15T22:57:22.829Z,venta
Taller GEA venta y colocación de escapes y service del automotor,Taller de reparación de automóviles,,Arenales 1413,+54 2281 47-5949,Azul,Provincia de Buenos Aires,-36.7919911,-59.8713286,4.9,11,https://lh3.googleusercontent.com/p/AF1QipMb9sxMWsfIOTnleHfuPG72M0LIOMJlU1uIiC7-=w408-h306-k-no,9.0,28,2025-06-15T22:57:22.829Z,venta
Maderera Verónica,Establecimiento de venta de madera,,Av. Piazza 1575,+54 2281 52-7878,Azul,Provincia de Buenos Aires,-36.7906923,-59.8423949,5.0,10,https://lh3.googleusercontent.com/gps-cs-s/AC9h4nqE6CDYXiHPaFrUxxZcGa5XtUUpMkv-zqf6YOL_Lr-FbwOBnxXzA2yfyEiJmbGjCg6zLyLiRQj6UEKTatXCIlkC_9t2163z3WtPJklGUXfzU5m7_Fgvk-_w6a07kb-6NtB6-3MyKw=w408-h306-k-no,6.0,11,2025-06-15T22:57:22.829Z,venta
Casa Ponthot,Establecimiento de venta de madera,,Av. Juan Domingo Perón 936 936,+54 2281 57-4317,Azul,Provincia de Buenos Aires,-36.7868392,-59.8585217,4.3,9,https://lh3.googleusercontent.com/gps-cs-s/AC9h4nrjBRRB5fUp9WfZZUm5Mn_dhB4p59x3W5t2uRAu1-8mQm1quP-CrHuCrvW0rVrAaKu6xS8IJPoybc3mj6d7Qi-SU2GhCTKukw_5kgPT1xdscaUEGJ1Wd0ZoPm5HrvmPOPwxpVGo7g=w426-h240-k-no,2.0,70,2025-06-15T22:57:22.829Z,venta
Walder Maderas,Establecimiento de venta de madera,,Av. Piazza 1349,+54 2281 69-0909,Azul,Provincia de Buenos Aires,-36.7880266,-59.8459006,4.7,7,https://lh3.googleusercontent.com/gps-cs-s/AC9h4nq7lVgLBTW6CVFEwI6gm9IYqbZt9nBhaMn6TulLtJLX4DhhjOMTvGrJelfdHLmcTpNf8BVrdIY0i4A4Wq6wiuO7afCRUiz2C2PFQo-XMeV0bfqayjroLpKJjZThvRslVaI7QEwq=w408-h306-k-no,7.0,104,2025-06-15T22:57:22.829Z,venta
Inmobiliaria Matta - Ventas Y Administraciones,Agencia inmobiliaria,,San Martín 727,+54 2281 42-4957,Azul,Provincia de Buenos Aires,-36.7817534,-59.8588645,5.0,6,https://streetviewpixels-pa.googleapis.com/v1/thumbnail?panoid=YoHh-9K9Ha6avpIRtxFQlg&cb_client=search.gws-prod.gps&w=408&h=240&yaw=201.09924&pitch=0&thumbfov=100,1.0,2,2025-06-15T22:57:22.829Z,venta
Negocio de venta de patinetas eléctricas,Tienda de electrónica,,Formosa 695,,Azul,Provincia de Buenos Aires,-36.793132,-59.8733185,,5,https://streetviewpixels-pa.googleapis.com/v1/thumbnail?panoid=BTXyRVmzWJSVHc7lcyNrOg&cb_client=search.gws-prod.gps&w=408&h=240&yaw=249.2586&pitch=0&thumbfov=100,1.0,0,2025-06-15T22:57:22.829Z,venta
Carniceria Edith Venta Al Publico,Carnicería,,"FTV, Arenales 1021",+54 2281 42-5954,Azul,Provincia de Buenos Aires,-36.7865474,-59.8651652,4.7,4,https://lh3.googleusercontent.com/gps-cs-s/AC9h4nrt4W3gN__1n8F44OZOaErLab54869jubJR3Noem_IbFp7hi2FrDHEIrGmGElyEibKh5o8ezgXcDEsVytw6UCDV1HZjXreOQ4Tgi9qxF9z4kUlWS7o6-z5UUmRnWW684oBrmQk9=w408-h544-k-no,2.0,53,2025-06-15T22:57:22.829Z,venta
Cabañas “La cascada”,Cabañas de madera,,C. 62 1375,+54 2281 62-0745,Azul,Provincia de Buenos Aires,-36.8036853,-59.8565431,4.5,3,https://lh3.googleusercontent.com/p/AF1QipMYF2fe-ilm4uTb1_Mp5c0l7Nsb6yzkRrSthsjU=w408-h306-k-no,61.0,11,2025-06-15T22:57:22.829Z,venta
Cabañas Saraman,Cabañas de madera,,"B7300DJE, Libertad 1478",+54 9 2281 52-3557,FAD,Provincia de Buenos Aires,-36.8002959,-59.8639764,4.8,2,https://lh3.googleusercontent.com/gps-cs-s/AC9h4nqj-m1DXXxmLpLWNiZUFzLF4r5lWMCdHLGVfdSF3KMgtTaQCeglRM1kAzXGQHKD9tlJQhv-LDk1hqiCeuZ2_6nKDURO6RbGfzS-qqD6Hd13vSFPGU2EIfAd_SpKzP9HtbSGPIjvug=w426-h240-k-no,62.0,62,2025-06-15T22:57:22.829Z,venta
Essen - Post Venta,,,Av. 25 de Mayo 657,+54 2281 42-2220,Azul,Provincia de Buenos Aires,-36.7804025,-59.8608523,4.0,1,https://streetviewpixels-pa.googleapis.com/v1/thumbnail?panoid=aM3-s9eeUMimC97eayPr0Q&cb_client=search.gws-prod.gps&w=408&h=240&yaw=144.36221&pitch=0&thumbfov=100,1.0,1,2025-06-15T22:57:22.829Z,venta
Maylukol S.a.,,https://www.instagram.com/maylukol_sa/,P. Bogliano 731,,Azul,Provincia de Buenos Aires,-36.7777051,-59.8538423,,15,https://streetviewpixels-pa.googleapis.com/v1/thumbnail?panoid=RGuMoHZ1h51rAfwWgm2ITA&cb_client=search.gws-prod.gps&w=408&h=240&yaw=260.7394&pitch=0&thumbfov=100,1.0,0,2025-06-15T22:57:22.428Z,maquinaria
Maquiazul,,,Alfredo Prat,+54 2281 30-3833,Azul,Provincia de Buenos Aires,-36.7932749,-59.8372469,,13,https://lh3.googleusercontent.com/p/AF1QipN8ZXFgUt-6mIKEepZYGrzeHdH8XgxqtZZlyGo=w408-h544-k-no,9.0,0,2025-06-15T22:57:22.428Z,maquinaria
Felor SRL,Tienda de materiales para la construcción,http://www.felorsrl.com.ar/,RN3 600 km 298,+54 2281 55-4802,Azul,Provincia de Buenos Aires,-36.7890831,-59.8372846,5.0,14,https://streetviewpixels-pa.googleapis.com/v1/thumbnail?panoid=wXFNilakiG1i0bZmxPWo0A&cb_client=search.gws-prod.gps&w=408&h=240&yaw=317.04324&pitch=0&thumbfov=100,1.0,1,2025-06-15T22:57:22.428Z,maquinaria
Taller agrícola Leiva Hnos,Taller de maquinaria,,Misia Barranco 450,,Azul,Provincia de Buenos Aires,-36.7890081,-59.8426545,,11,https://streetviewpixels-pa.googleapis.com/v1/thumbnail?panoid=cZZSt02UJ5Wo3OAe_jaXng&cb_client=search.gws-prod.gps&w=408&h=240&yaw=43.219624&pitch=0&thumbfov=100,1.0,0,2025-06-15T22:57:22.428Z,maquinaria
El chaja de azul,,,6558+XF,,Azul,Provincia de Buenos Aires,-36.7947416,-59.8480218,,10,https://streetviewpixels-pa.googleapis.com/v1/thumbnail?panoid=PE3kKpqB8hRc7Q9MyVBS3g&cb_client=search.gws-prod.gps&w=408&h=240&yaw=22.94253&pitch=0&thumbfov=100,1.0,0,2025-06-15T22:57:22.428Z,maquinaria
Inmobiliaria Garcia,Agencia inmobiliaria,https://www.casasdehoy.com.ar/venta-y-alquiler-en-tandil.php?id_i=262&tipo=Casas&opcion=Venta,Moreno 739,+54 2281 53-4787,Azul,Provincia de Buenos Aires,-36.7805997,-59.8630914,,51,https://streetviewpixels-pa.googleapis.com/v1/thumbnail?panoid=NcIC1z_qJ9rMg5sEI2qrzw&cb_client=search.gws-prod.gps&w=408&h=240&yaw=138.07777&pitch=0&thumbfov=100,1.0,0,2025-06-15T22:57:24.930Z,venta
AGRICOLA AZUL SA,Proveedor de máquinas de metal,,"RN3 km 300,5",+54 2281 58-4563,Azul,Provincia de Buenos Aires,-36.802081,-59.852856,4.8,7,https://lh3.googleusercontent.com/gps-cs-s/AC9h4npHTBqHf3a6Bh_E2XG2sit8nO_yjZPB1Mwxapu9KCP0OtG9xRpWy-4tETa7_5kb7ciKHFIgE1o3wMj7WR8MCFepJajRBCcm6IjxOMW0Z4a0rFetArMDZxrS0hadcEwmVKdKZNih=w408-h906-k-no,29.0,17,2025-06-15T22:57:22.428Z,maquinaria
Agricola Mutti,Fábrica de maquinaria agrícola,,,,Azul,Provincia de Buenos Aires,-36.8012152,-59.8518811,,6,https://streetviewpixels-pa.googleapis.com/v1/thumbnail?panoid=f3I-qdR84_7D2kFGjGTiEg&cb_client=search.gws-prod.gps&w=408&h=240&yaw=315.3486&pitch=0&thumbfov=100,2.0,0,2025-06-15T22:57:22.428Z,maquinaria
La Casa de la Fumigadora,Fabricante de repuestos para maquinaria,,RN3,+54 9 2281 66-2994,Azul,Provincia de Buenos Aires,-36.7940008,-59.8433832,5.0,5,https://lh3.googleusercontent.com/gps-cs-s/AC9h4nrTWhtokEhYkpXpjIqdT19HlQNEwE_LY9FY0tqLEuiuc_EqRuBQOlH0PDHaJvzU_iSjMMMQ1G9d2EpyipGJe5WoQlWL4TWRWHN-11ZAT8_BSNpPlRn2gNvOKVzWsWycAqmRyCzcGA=w520-h240-k-no,5.0,1,2025-06-15T22:57:22.428Z,maquinaria
COUSSIRAT Y PROVENZANO,Taller de maquinaria,https://www.facebook.com/Coussirat-Y-Provenzano-182764402399267/,"Ruta 3 y, Gral. Paz Oeste S/N",+54 2281 42-7320,Azul,Provincia de Buenos Aires,-36.8002284,-59.851417,4.6,4,https://lh3.googleusercontent.com/p/AF1QipMMzDqJDEofKkR_kWm8WxaPifzOTJvdhEQBQe5a=w426-h240-k-no,11.0,13,2025-06-15T22:57:22.428Z,maquinaria
Hierros y Herramientas Checa,Ferretería,https://hyhcheca.wixsite.com/checa,Av. Piazza 1386,+54 2281 43-3289,Azul,Provincia de Buenos Aires,-36.7883399,-59.8450137,4.6,9,https://lh3.googleusercontent.com/gps-cs-s/AC9h4npOmXXbqYNSmsHwL8QMXRCjAzm-dUCr69tCvwd62g1ECkAF01OM3lEDxc8ESZyKcGt3rJQh6KBGQ7VV5JCR27Vrv7ad8Ezu6eq1g6H4c5FX1ovwJAM_qujR_Ot3bkdvxyotCxU=w408-h305-k-no,7.0,92,2025-06-15T22:57:22.428Z,maquinaria
Cayrú Maquinarias - Case IH,Fábrica de maquinaria agrícola,,"Ruta 3, Km 298,5",+54 2281 42-8368,Azul,Provincia de Buenos Aires,-36.790245,-59.8374481,5.0,2,https://lh3.googleusercontent.com/gps-cs-s/AC9h4nqkFBorRMYompVEYe3BcM-TF2qgX2Hzq2goncu-c2GLjwiqPKHCfjzY9VKkDFxlNeMDZ8BWs1l-IScvZS5Ic9QRwqJaKC_y9EmEPvWF45XJWH3Ub3GrLpNVfTgw1Cvg6qoqmPQz=w408-h306-k-no,10.0,3,2025-06-15T22:57:22.428Z,maquinaria
Bringeri Hogar - Azul,Tienda de electrodomésticos,https://www.bringerihogar.com.ar/,Av. 25 de Mayo 699,+54 2281 42-7994,Azul,Provincia de Buenos Aires,-36.7808025,-59.8615094,4.6,42,https://streetviewpixels-pa.googleapis.com/v1/thumbnail?panoid=EgaCnR6cCDaLZKlObrpKFQ&cb_client=search.gws-prod.gps&w=408&h=240&yaw=128.6164&pitch=0&thumbfov=100,1.0,100,2025-06-15T22:57:24.930Z,venta
Campo Activo SA,Oficinas de empresa,https://campoactivo.wixsite.com/azul,RN3 km 299.2,+54 2281 30-0457,Azul,Provincia de Buenos Aires,-36.794733,-59.8436897,4.5,8,https://lh3.googleusercontent.com/p/AF1QipOTdiBT_3J2CD8GYASy5DM1Pgsf9FLIOc9DHUOB=w408-h306-k-no,11.0,20,2025-06-15T22:57:22.428Z,maquinaria
Lartirigoyen,Servicio agrícola,http://www.lartirigoyen.com.ar/,RN3 KM 300.2,+54 9 2281 65-5799,Azul,Provincia de Buenos Aires,-36.8022436,-59.8534656,4.6,12,https://lh3.googleusercontent.com/p/AF1QipMC2hC8ZqgpkNmiRAydhtlGv-EgzK2apiUfbyv8=w886-h240-k-no,6.0,13,2025-06-15T22:57:22.428Z,maquinaria
Cornec Srl Maquinarias Agricolas,Servicio agrícola,https://www.agroads.com.ar/e/cornec-maquinarias-agricolas/,"Ruta 3 KM 300,5",+54 2281 55-4192,Azul,Provincia de Buenos Aires,-36.801805,-59.8525576,5.0,3,https://lh3.googleusercontent.com/p/AF1QipN6AdHPeWkkjoNKvNzK_SzCqy2J8oT-TFbhV_zA=w408-h261-k-no,3.0,1,2025-06-15T22:57:22.428Z,maquinaria
Composse Blanqueria,Tienda de artículos para el hogar,https://instagram.com/composseblanqueria?igshid=YmMyMTA2M2Y=,Av. 25 de Mayo Nte. 291,+54 2281 41-6115,Azul,Provincia de Buenos Aires,-36.7672888,-59.8458866,4.9,6,https://lh3.googleusercontent.com/p/AF1QipMtGmJcZuaKxj-o9snimQ0UjoBP0gqFIcwEQ15R=w408-h406-k-no,9.0,54,2025-06-15T22:57:47.289Z,blanqueria
Osvaldo Spitale Maquinarias S. A.,Proveedor de equipos agrícolas,https://www.osmaquinarias.com/,Ruta Nacional Nº 3 Km. 301.2,+54 9 2281 47-3233,Azul,Provincia de Buenos Aires,-36.8073217,-59.8596428,4.4,1,https://lh3.googleusercontent.com/gps-cs-s/AC9h4npeT8I9GphxBi491hQgZyemlyzUmWW0AsQfmuccM_OcaVeBZGsHT_KYJ2O78sjwSAHyLP99dXOO1J9oe7EMElLbAWI8plNtzwMre3OZHnfpFH5yBWA7Ur7tZlNkmptNqaVjzuO7=w463-h240-k-no,28.0,31,2025-06-15T22:57:22.428Z,maquinaria
Rca Design,Tienda de materiales para la construcción,,San Martín 962,+54 2281 54-5189,Azul,Provincia de Buenos Aires,-36.7844304,-59.8548862,4.7,46,https://lh3.googleusercontent.com/gps-cs-s/AC9h4nqic9Z39GrTxuyMlirPFulgQ9MQIcbRFjHGfMEBxEMwRimXvT6zOuhhV96paclrA7hhGBzoAzqD8TjMxnUadHgSc9uahXyvB2aUVSlCA-fglN70Xb_J6bzjK6fDvQnoYFrAqNMr=w408-h544-k-no,38.0,127,2025-06-15T22:57:50.286Z,muebles
Aberturas - San Antonio,Comercio,,Lavalle 591,+54 2281 42-4264,Azul,Provincia de Buenos Aires,-36.7837061,-59.8542604,4.4,45,https://lh3.googleusercontent.com/gps-cs-s/AC9h4noW9D0tJbrE9x-j3qNRPRQ_6GclXWNyxE_ZJ85pF32S5GaPbVlauYSl2E51t6Zo5BfoS8fzl0aFRt2OUm9DgZSvqLe9-9iCIP-WpB6ONYw2LF6MZbtJmCEiZm_Bx8EODxID9d6A=w408-h306-k-no,4.0,53,2025-06-15T22:57:50.286Z,muebles
Peralta Raimundo A - Equip Empresarios,Proveedor de equipos de oficina,,San Martín 638,+54 2281 42-5101,Azul,Provincia de Buenos Aires,-36.780371,-59.8603248,4.0,44,https://streetviewpixels-pa.googleapis.com/v1/thumbnail?panoid=nQ1JMSsQYpN7HcQi6p-Jtw&cb_client=search.gws-prod.gps&w=408&h=240&yaw=44.10541&pitch=0&thumbfov=100,1.0,2,2025-06-15T22:57:50.286Z,muebles
Fabrica De Sillones Azul,,,Av. Urioste,,Azul,Provincia de Buenos Aires,-36.8048544,-59.8702274,,42,https://streetviewpixels-pa.googleapis.com/v1/thumbnail?panoid=EvI-n7KoeBqtsTjElITx0Q&cb_client=search.gws-prod.gps&w=408&h=240&yaw=221.75897&pitch=0&thumbfov=100,1.0,0,2025-06-15T22:57:50.286Z,muebles
Tapicería Néstor,Tapicería,,C. 61 618,+54 2281 50-6179,Azul,Provincia de Buenos Aires,-36.7929855,-59.8431594,4.9,41,https://lh3.googleusercontent.com/gps-cs-s/AC9h4nrT3QW6ZegHUOTRsDakwuZZer6FGaAwYTVPKK_GZdtuupeLnB3nYqqZornfFCXIywcJr1GLPW4yvEXx6j66dTiZXi4baIK4ANpGZngZwIP-9HQcto2bMdTL5YWR4agjZclBiRcD=w408-h544-k-no,13.0,8,2025-06-15T22:57:50.286Z,muebles
Alimentos para perros,Tienda de alimentación,,Guaminí 789,,Azul,Provincia de Buenos Aires,-36.7879301,-59.8644563,4.8,1,https://streetviewpixels-pa.googleapis.com/v1/thumbnail?panoid=lYeBUjtaTxMQJGGoB_p1Yw&cb_client=search.gws-prod.gps&w=408&h=240&yaw=257.47995&pitch=0&thumbfov=100,1.0,50,2025-06-15T22:57:50.262Z,venta online
Soria Colchones y Sommier,Tienda especializada en camas,,Juana Azurduy 795 Entré Rauch y España,+54 2281 65-0375,Azul,Provincia de Buenos Aires,-36.8017341,-59.8807738,5.0,40,,,7,2025-06-15T22:57:49.357Z,muebles
Naldo - Azul,Tienda de artículos para el hogar,http://www.naldo.com.ar/,San Martín 577,+54 2281 43-4676,Azul,Provincia de Buenos Aires,-36.7798321,-59.8613858,4.3,39,https://lh3.googleusercontent.com/p/AF1QipPQocqbSUcI8GHAtOMgWOn-XwF0kYU1WDh05W3u=w426-h240-k-no,3.0,349,2025-06-15T22:57:49.357Z,muebles
Metalurgicafh,Carpintería,http://metalurgicafh.es.tl/,Falucho 819,+54 2281 54-4818,Azul,Provincia de Buenos Aires,-36.790352,-59.8661254,,47,https://lh3.googleusercontent.com/gps-cs-s/AC9h4noLRT417UYsuAdg8Tia1kXhtNSUSrUmksbXhCUw3WMuMiueTnHrknjUVZD2BBZ-xzutSZXx5nKa-obt1msWVj5Tk-LlbZpJ0Ec2zu9bWsyjRg4LPBSXsxkGnQCh5ZUFZUaPPOifyw=w408-h306-k-no,30.0,0,2025-06-15T22:57:50.286Z,muebles
Muebles Pinolandia,Tienda de muebles,,Av. 25 de Mayo 0132,+54 2281 46-9559,Azul,Provincia de Buenos Aires,-36.7693855,-59.8482045,3.8,20,https://lh3.googleusercontent.com/gps-cs-s/AC9h4nrenXz0jBJ9PKkOcoDMMATHwFRMlkWGCI11XXgjeYQCPXthDS_45ZXJ8jBFYQulshCXcZIsY3bRnDReN32e5vsOhWqSMJRgSdqjek3vjsgRiYmaIHSWipkR73xScrxoot_tpkUDsw=w408-h370-k-no,17.0,18,2025-06-15T22:57:48.199Z,muebles
muebles azul,Fábrica de muebles,,Olavarría 1419,+54 2281 32-4993,Azul,Provincia de Buenos Aires,-36.7939106,-59.851476,,19,https://lh3.googleusercontent.com/p/AF1QipPmXoPvzNB6O0brKiRhZRNRSxlwYKcDiraGdeUM=w408-h544-k-no,4.0,0,2025-06-15T22:57:48.199Z,muebles
La Estación sillones,Tienda de muebles,https://sites.google.com/view/laestacionsillones/inicio,Belgrano 646,+54 9 2281 55-2603,Azul,Provincia de Buenos Aires,-36.7792427,-59.8585151,,17,https://lh3.googleusercontent.com/p/AF1QipOD8NFXb5Nx65hz9NhsxaYIzRF1hnHB3dDhLGaQ=w408-h408-k-no,34.0,0,2025-06-15T22:57:48.198Z,muebles
190 grados hierro&madera,Fábrica de muebles,,Lavalle 1372,+54 2281 41-0748,Azul,Provincia de Buenos Aires,-36.7942457,-59.8673921,5.0,16,https://lh3.googleusercontent.com/p/AF1QipMDmEiulgGHMmN5PwqvbzRrvsXBYzFR1SM99I00=w408-h544-k-no,14.0,2,2025-06-15T22:57:48.198Z,muebles
Mimo Revestimientos Baños y Cocinas,Tienda de materiales para la construcción,https://m.facebook.com/mimobanosycocinas/?ref=bookmarks,Av. Juan Domingo Perón,+54 2281 65-1284,Azul,Provincia de Buenos Aires,-36.7884281,-59.8569147,4.5,15,https://lh3.googleusercontent.com/gps-cs-s/AC9h4nruVw0TMGUfgKSnZs2lheFv3oNCEC1fSAGZByoaU1HkrV5Nhi-1f9hF9wUp2THsvemjeoA1l9UgCqXV4ct6KWLUUKvZL9dhLxIOEppm0dCzXGsdXE5IfI9mAEBb8Rav4yET85mEww=w419-h240-k-no,41.0,159,2025-06-15T22:57:48.198Z,muebles
Burello Amoblamientos,Tienda de muebles,,San Martín 723,,Azul,Provincia de Buenos Aires,-36.781722,-59.858945,,14,https://lh3.googleusercontent.com/gps-cs-s/AC9h4nq8gPY9Phgy6bRlVyHZ8rrX0MZ74PzJRR5v9C1m6I60I0uIqkMcdCErpH5HWvZEMEZPnyzfAEjpfasMFAJJBLiK0tW2sgWcbtXJA1Nkv4cu_H3uIi70YwdtOCZocu8nJGv5PaBPeQ=w408-h541-k-no,2.0,0,2025-06-15T22:57:48.198Z,muebles
FABRICA DE SILLONES RINCON MONALISA,Tienda de muebles,,Olavarría 449,+54 2281 42-5112,Azul,Provincia de Buenos Aires,-36.7815707,-59.8676387,4.2,11,https://lh3.googleusercontent.com/p/AF1QipMOCgvOdrOLdM49ZJBhwV7rOMgl38mGPEQD6niT=w408-h306-k-no,9.0,5,2025-06-15T22:57:48.198Z,muebles
The lazy company,Tienda de muebles,,Av. Urioste 1320,,Azul,Provincia de Buenos Aires,-36.8053953,-59.8690944,2.3,9,https://lh3.googleusercontent.com/gps-cs-s/AC9h4noYdfuJMg1uEdp7tZHlFBjpSy9sFbsyRecb0tMNW_As-3_GHOb8eEkm-WqwmGIbqwQZqWnkBSYrTQu7HHPG-J96Z0NtLCnhyM61hhMcsWYTzWZvaKWKtWijhapd3LwGw7GmYqB2=w426-h240-k-no,9.0,3,2025-06-15T22:57:48.198Z,muebles
Tatas Home Azul,Colchonería,http://www.tatashome.com.ar/,Av. Pellegrini 1247,+54 2281 42-2242,Azul,Provincia de Buenos Aires,-36.7854861,-59.8734937,4.7,5,https://lh3.googleusercontent.com/p/AF1QipPTGlp2S5H006T4JpbX-65PL7YULFRYrP-d9bn0=w408-h306-k-no,12.0,151,2025-06-15T22:57:47.289Z,blanqueria
El Desván,Tienda de muebles,https://goo.gl/mLhmxN,Burgos 899,+54 2281 43-3936,Azul,Provincia de Buenos Aires,-36.781551,-59.867263,4.1,18,https://lh3.googleusercontent.com/p/AF1QipPewN-V5sWlAMLMfxlyU23G-nF4GuvNEGa64Xuz=w408-h334-k-no,2.0,9,2025-06-15T22:57:48.199Z,muebles
Perseo Muebles,Tienda de muebles,,San Martín 649,,Azul,Provincia de Buenos Aires,-36.7806976,-59.8602395,5.0,7,https://streetviewpixels-pa.googleapis.com/v1/thumbnail?panoid=rRzKBmKFImQ6rBNQbDvJRw&cb_client=search.gws-prod.gps&w=408&h=240&yaw=217.33466&pitch=0&thumbfov=100,1.0,1,2025-06-15T22:57:48.198Z,muebles
Casa Silvia (Art. para el hogar),Tienda de artículos para el hogar,,San Martín 474,+54 810-222-2424,Azul,Provincia de Buenos Aires,-36.7783044,-59.8629711,4.5,6,https://lh3.googleusercontent.com/p/AF1QipM3Vjtylq_JidNpBNZroQrFuSqWWci07affhZV4=w408-h306-k-no,8.0,300,2025-06-15T22:57:48.198Z,muebles
Jocabu,Fábrica de muebles,,San Martín 771,+54 2281 57-9806,Azul,Provincia de Buenos Aires,-36.7823328,-59.8581275,5.0,5,https://streetviewpixels-pa.googleapis.com/v1/thumbnail?panoid=8104W3q8Pj-BaVuDHYAHBA&cb_client=search.gws-prod.gps&w=408&h=240&yaw=228.34627&pitch=0&thumbfov=100,2.0,3,2025-06-15T22:57:48.198Z,muebles
El Galponcito,Tienda de muebles,,Av. Mitre 621,+54 2281 42-5653,Azul,Provincia de Buenos Aires,-36.7785086,-59.8581621,4.5,4,https://lh3.googleusercontent.com/gps-cs-s/AC9h4np61RJ9R4g0BUWcX8KSd4D_osu7I7VL9bg1yn9fm-EclFUzghwXTFaz6G4FFr01Cdo0I04zuW3vc43EYLOAxq4yOMXOGy_IgLnYKA-gjTxzXpCpo4Psr8EWUmMoJaHGx26ljnC4=w408-h306-k-no,2.0,15,2025-06-15T22:57:48.198Z,muebles
Muebles El Angel,Tienda de muebles,,Av. Piazza 1414,,Azul,Provincia de Buenos Aires,-36.7881247,-59.8453449,4.3,3,https://lh3.googleusercontent.com/gps-cs-s/AC9h4nppy4Vqo9-poiYYRVix2_DrK3Ssh6uFcIeFvB51tA3k9Yls35ikwUO0HJpfxCusTCx_4JLs1xa0BSUbm2wSWnwGWEFLDzpOnysNLMOZKWmWMlext2XQUmohs-SIVMGwGxwydI4j=w426-h240-k-no,6.0,23,2025-06-15T22:57:48.198Z,muebles
Casa Silvia (Muebles y Colchones),Tienda de muebles,,Av. Juan Domingo Perón 955,+54 2284 68-1734,Azul,Provincia de Buenos Aires,-36.7871031,-59.8582464,4.5,2,https://lh3.googleusercontent.com/p/AF1QipN7NX78rm2iGpHopHh8QoMr-bvdIZCWP5hx8xHy=w408-h272-k-no,22.0,167,2025-06-15T22:57:48.198Z,muebles
Blanqueria azul,Tienda de artículos para el hogar,,,+54 2281 37-9070,Azul,Provincia de Buenos Aires,-36.7780254,-59.8624128,,4,https://lh3.googleusercontent.com/gps-cs-s/AC9h4nrDDk1Q1fgKAxVSLSIlQBmS2IqNjN_NKNtSB5B-24SCi9eBzrGBJQ3qNpU1RpGnp5RJ-jli_9PheH5eTpTD2eXyqSyG-_zhtWJCbC1yB37tPPOsJUlGiGVbD8Ae7V6yZs9lO-7wjg=w408-h307-k-no,5.0,0,2025-06-15T22:57:47.289Z,blanqueria
Nuevas Hogar Azul,Tienda de electrodomésticos,https://www.nuevashogar.com.ar/,San Martín 599,+54 2281 59-8131,Azul,Provincia de Buenos Aires,-36.7800302,-59.8610905,4.5,37,https://lh3.googleusercontent.com/p/AF1QipOPJbmwbl5D3IYxmVJkZ68nNWcDpNZX-rWUhFgc=w408-h306-k-no,2.0,19,2025-06-15T22:57:49.356Z,muebles
Liliana Tapiceria Cortinas - Blanqueria,Tienda de muebles,,San Martín 923,+54 2281 43-2097,Azul,Provincia de Buenos Aires,-36.7842194,-59.8556466,4.6,3,https://lh3.googleusercontent.com/gps-cs-s/AC9h4noWJrithi6ZiwePi1RXk-WDSKRsgrhJm2FFMi4G_fCgMPWyUDxVKR8FTC3sDTx7Ocg4l-r1dwcYiVf_18Hfkg_zGwCy7Sg5BEvCDRxAVOVcqALkDZLFJncblVQhkA0x-zsa_97JAw=w426-h240-k-no,5.0,11,2025-06-15T22:57:47.289Z,blanqueria
Sofía Blanqueria Showroom,Tienda de artículos para el hogar,,Julio Argentino Roca 1428,+54 2281 63-2950,Azul,Provincia de Buenos Aires,-36.7928995,-59.8489887,,2,https://lh3.googleusercontent.com/gps-cs-s/AC9h4nqn5_K_yndkfHUlxCzImwxEVlKQotsBZZpZr1IeCrzBv3oFncrLPBiLjfYPqx1tsnhPPfxwJKUb76gD6XG2qXRDTxODv6xms0K9dmTIQJY_d404bmkKAOqcOl-efX7VkzzKJiX_=w408-h408-k-no,7.0,0,2025-06-15T22:57:47.289Z,blanqueria
Carpintería Estilo,Carpintero,http://www.facebook.com.ar/nuevoestilocapandeguy,San Martín 1173,+54 9 2281 32-1407,Azul,Provincia de Buenos Aires,-36.7878401,-59.8509927,4.8,43,https://lh3.googleusercontent.com/p/AF1QipNLyfd7-vgXSncyxNjdhRDnDB3mnP4LQO9AgV9h=w408-h306-k-no,91.0,6,2025-06-15T22:57:50.286Z,muebles
Móvil Shop Celulares,Tienda de móviles,,Moreno 585,+54 2281 40-0244,Azul,Provincia de Buenos Aires,-36.77858,-59.8605996,3.0,6,https://lh3.googleusercontent.com/p/AF1QipPDwRr68YFFyl--BhDcfXTlAVU2JR4dlyBsS7mj=w408-h408-k-no,87.0,1,2025-06-15T22:57:46.983Z,telefonia
Modo Selfie Celulares,Tienda de móviles,,Av. Mitre 915,+54 2281 57-3737,Azul,Provincia de Buenos Aires,-36.7822272,-59.8534026,4.0,5,https://lh3.googleusercontent.com/p/AF1QipPv4Qtg4qruyfQko_hnQwtH_Pv3NI4hehD3fbsu=w408-h370-k-no,68.0,20,2025-06-15T22:57:46.983Z,telefonia
Telefónica de Argentina,Proveedor de servicios de telecomunicaciones,,Hipólito Yrigoyen 501,+54 800-333-0112,Azul,Provincia de Buenos Aires,-36.7780023,-59.8618301,1.9,4,https://streetviewpixels-pa.googleapis.com/v1/thumbnail?panoid=4giUy09fLe2De2PdftGwnA&cb_client=search.gws-prod.gps&w=408&h=240&yaw=25.431732&pitch=0&thumbfov=100,1.0,14,2025-06-15T22:57:46.983Z,telefonia
Claro,Proveedor de servicios de telecomunicaciones,,San Martín 537,,Azul,Provincia de Buenos Aires,-36.7792884,-59.8621313,4.9,3,https://lh3.googleusercontent.com/p/AF1QipMQLfxgrKP2B7kc-cHSWaBVDSI0232WSVglkHbh=w408-h306-k-no,8.0,53,2025-06-15T22:57:46.983Z,telefonia
Claro,Tienda de móviles,,San Martín 717,+54 249 433-6474,Azul,Provincia de Buenos Aires,-36.7816668,-59.8590537,4.4,2,https://streetviewpixels-pa.googleapis.com/v1/thumbnail?panoid=YdiL4C36oosz9pCh8bbbPw&cb_client=search.gws-prod.gps&w=408&h=240&yaw=202.17119&pitch=0&thumbfov=100,1.0,7,2025-06-15T22:57:46.983Z,telefonia
Zefint Internet,Proveedor de servicios de Internet,http://www.zefint.com/,Belgrano 218,+54 2281 47-2597,Azul,Provincia de Buenos Aires,-36.7738225,-59.8656326,3.3,8,https://lh3.googleusercontent.com/p/AF1QipPpFuS7fc64wNradWDshN4HNNmLLWcgeS3DSiQ=w408-h408-k-no,2.0,3,2025-06-15T22:57:46.983Z,telefonia
Personal,Tienda de móviles,http://www.cablevisionfibertel.com.ar/,Hipólito Yrigoyen 724,+54 800-199-0344,Azul,Provincia de Buenos Aires,-36.7809794,-59.858012,3.7,1,https://streetviewpixels-pa.googleapis.com/v1/thumbnail?panoid=4oEWPV1J7VyptMHFPi6KUQ&cb_client=search.gws-prod.gps&w=408&h=240&yaw=14.718291&pitch=0&thumbfov=100,1.0,265,2025-06-15T22:57:46.983Z,telefonia
Locutorio Mix - Fotocopias - Kiosko Regaleria - Fax - Libreria,Librería,,Hipólito Yrigoyen 163,+54 2281 56-0422,Azul,Provincia de Buenos Aires,-36.7740017,-59.8673416,4.7,10,https://lh3.googleusercontent.com/gps-cs-s/AC9h4nppUjcKo7Jq7IPY_pQEKPdpHz1grcQ_n92ZMA7n8JV-ctKgUxrx_KA-I0_SEekRDiz8OSotjUQGNJqiRfYys-qg6UM5uW4HSvd9LmVKfpT42CD3GnwbEsBfUqiyYJcPpiCZWx2epA=w408-h306-k-no,27.0,24,2025-06-15T22:58:02.824Z,regaleria
Regaleria dc,Comercio,,0445,+54 2281 32-9996,Azul,Provincia de Buenos Aires,-36.7680925,-59.8690452,,9,https://lh3.googleusercontent.com/gps-cs-s/AC9h4nrvqYlUOHWdMrhwmG8cjZkegS0WUXqit5KvfZno13pVyQOPtqakqSuuvo3ygDjJdFank4d0W-WMCOTlwhVv7C5Rdg830eimHBR5fcK01LybibfnZMC1cOiZcGSFxfbw0T5nNTWh=w408-h544-k-no,26.0,0,2025-06-15T22:58:02.824Z,regaleria
"La Regaleria , Azul",Centro comercial,https://www.facebook.com/LaRegaleriaazul/?fref=ts,Colón Nte. 364,+54 2281 35-3235,Azul,Provincia de Buenos Aires,-36.7639066,-59.8480825,4.3,7,https://lh3.googleusercontent.com/gps-cs-s/AC9h4npqAMdP4PE_QfQnSGx4tFm0IA1OgZBIHREQu-6Y0gaqQY2tTUiCmOtL7gluX6eu_2HWSQtNg_OsI7qgHlSc9X1fP5SvGYdNLAQgMcr63hUiMCBnqMPezliTSbr1aUbaLCrJZj8f=w408-h544-k-no,15.0,53,2025-06-15T22:58:02.824Z,regaleria
Vineria Baco,Tienda de vinos,,San Martín 826,+54 2281 43-4297,Azul,Provincia de Buenos Aires,-36.7828946,-59.8571172,4.7,6,https://lh3.googleusercontent.com/gps-cs-s/AC9h4npM80-klEr8caR8bBATKJzngtUk6aPywvVLezWfFzbjOsXC6X2AndM0q84eP20XDIdrnA12h_cRIjq7HI9zXDNGiNyJVewRt6Y3dXlgpsZi93rD90Z2jlLXlfQbSKwJVpJhgPlv=w408-h306-k-no,10.0,61,2025-06-15T22:58:02.824Z,regaleria
El Regalo Empresarial,Tienda de regalos,https://www.instagram.com/elregaloempresarial/,San Martín 890,+54 2281 50-6730,Azul,Provincia de Buenos Aires,-36.7837268,-59.8560259,5.0,5,https://lh3.googleusercontent.com/p/AF1QipOeXTs3FOSi0jtwTaqHj8j68-nvLGMZw06vOBnj=w408-h396-k-no,8.0,1,2025-06-15T22:58:02.824Z,regaleria
Rizzi Regalos,Tienda de regalos,,Hipólito Yrigoyen 492,+54 2281 43-4697,Azul,Provincia de Buenos Aires,-36.7778728,-59.8619184,4.7,4,https://streetviewpixels-pa.googleapis.com/v1/thumbnail?panoid=LoAm8gIVZnN4W2hEq6m1tQ&cb_client=search.gws-prod.gps&w=408&h=240&yaw=43.3532&pitch=0&thumbfov=100,1.0,11,2025-06-15T22:58:02.824Z,regaleria
Super Shop Bazar - Regaleria - Jugueteria,Comercio,,Hipólito Yrigoyen 515,+54 2281 43-3324,Azul,Provincia de Buenos Aires,-36.7785591,-59.8615346,4.7,3,https://streetviewpixels-pa.googleapis.com/v1/thumbnail?panoid=dvWl0PpLbud3N9qAU15RKw&cb_client=search.gws-prod.gps&w=408&h=240&yaw=211.19144&pitch=0&thumbfov=100,1.0,3,2025-06-15T22:58:02.824Z,regaleria
Promo Fiesta Azul,Comercio,http://www.promofiesta.com.ar/,Necochea 709,+54 9 2281 31-5660,Azul,Provincia de Buenos Aires,-36.7818243,-59.8611392,4.9,7,https://lh3.googleusercontent.com/p/AF1QipN3VsafY628698-yz6LBRjLgCxgO4v1Z37C2REg=w444-h240-k-no,4.0,15,2025-06-15T22:57:47.289Z,blanqueria
HH Regaleria,Tienda de regalos,,Hipólito Yrigoyen 483,,Azul,Provincia de Buenos Aires,-36.7779605,-59.8621705,4.2,2,https://lh3.googleusercontent.com/gps-cs-s/AC9h4nrczZtoTYiuGfnUsmtgbIbAE_hiIFO9GBO_NtOOjUAYtf4S0A1Rtjubpfnhuw01tXfzcUk5SrcZVOJq2L474ITBTm5Kj4nsBM1wYCPUxtnTRcC4KrTobZo7X-spd5t08KdaFpcuUw=w408-h306-k-no,19.0,5,2025-06-15T22:58:02.824Z,regaleria
Bazar Y Regaleria Cabildo,,,San Martín 662,+54 2281 42-5243,Azul,Provincia de Buenos Aires,-36.7808268,-59.8597385,4.5,1,https://lh3.googleusercontent.com/gps-cs-s/AC9h4nqwGNxZZw5Z-Nktm5mwgm6mQZx8S8rtY5ZI6XKaYb4q5PKwuVJHIZCtYMSYMbdL4GnRdaZdMD-GDAP9J6FaLNcbAyZi1nkMXhw2rig4gfoqSupoQ_-AGNnkxxsHo1-jKUi_MHqw=w408-h306-k-no,3.0,11,2025-06-15T22:58:02.824Z,regaleria
Vricom Srl,,http://www.vricom.com.ar/telefonia.php,Hipólito Yrigoyen 641,,Azul,Provincia de Buenos Aires,-36.779943,-59.859628,,7,https://streetviewpixels-pa.googleapis.com/v1/thumbnail?panoid=O7HSxPB7HvIK5uNjN_JW0Q&cb_client=search.gws-prod.gps&w=408&h=240&yaw=221.17717&pitch=0&thumbfov=100,1.0,0,2025-06-15T22:57:46.983Z,telefonia
Hiper Blanco,Tienda de ropa de hogar,http://www.hiperblanco.com/,Av. 25 de Mayo 1012,+54 9 2281 59-1392,Azul,Provincia de Buenos Aires,-36.7848103,-59.8669476,5.0,1,https://lh3.googleusercontent.com/gps-cs-s/AC9h4nqdvmjCZcVCOIxdUyO8e3bVEaQvLnjzCLLhQGMcAUKKwlQU_ayQASDz-b9AqBkx_ojpHxq1_30Q3KCyRj-4zoMmRcUwYpv45FCqfy9-lNeuDk2T9B9mPspdqojaZCJgYCa-MyU=w408-h408-k-no,105.0,8,2025-06-15T22:57:47.289Z,blanqueria
Venta,Agencia de marketing,,Moreno 671,+54 2281 55-3623,Azul,Provincia de Buenos Aires,-36.7797498,-59.8620502,,9,https://streetviewpixels-pa.googleapis.com/v1/thumbnail?panoid=ztyhfO9gSKt8GjiXL6fNWA&cb_client=search.gws-prod.gps&w=408&h=240&yaw=137.74701&pitch=0&thumbfov=100,1.0,0,2025-06-15T22:58:05.337Z,venta
YPF,Gasolinera,,Hipólito Yrigoyen 399,+54 2281 42-3556,Azul,Provincia de Buenos Aires,-36.7769003,-59.8636174,4.4,7,https://lh3.googleusercontent.com/p/AF1QipNCoHzFMio9S_S-1a_bt-cQQ2S-GBiPoEW48eE6=w408-h272-k-no,29.0,474,2025-06-15T22:58:05.337Z,venta
Castellar Propiedades,Agencia inmobiliaria,,Belgrano 295,,Azul,Provincia de Buenos Aires,-36.7748066,-59.8646798,5.0,5,https://streetviewpixels-pa.googleapis.com/v1/thumbnail?panoid=QbZPhtkeFaaTZYoJObzyFg&cb_client=search.gws-prod.gps&w=408&h=240&yaw=256.8646&pitch=0&thumbfov=100,1.0,1,2025-06-15T22:58:05.337Z,venta
Neumaticos Valicente,Tienda de neumáticos,,Av. Mitre 275,,Azul,Provincia de Buenos Aires,-36.7741297,-59.8640381,5.0,16,https://streetviewpixels-pa.googleapis.com/v1/thumbnail?panoid=LQ3sY--zub58xzORwvhgxA&cb_client=search.gws-prod.gps&w=408&h=240&yaw=215.90097&pitch=0&thumbfov=100,1.0,2,2025-06-15T22:58:05.309Z,repuestos
Refrigeracion Cabral,Proveedor de repuestos de electrodomésticos,,Amado Diab 281,+54 2281 65-2844,Azul,Provincia de Buenos Aires,-36.7704944,-59.8597422,5.0,11,https://lh3.googleusercontent.com/p/AF1QipMWczqt-aehG97jmfAc5hFk-XluiUfOBHlesjlq=w408-h306-k-no,142.0,12,2025-06-15T22:58:05.309Z,repuestos
Desarmadero ventas de autopartes,Taller de reparación de automóviles,,,,Azul,Provincia de Buenos Aires,-36.7749333,-59.8539979,2.3,8,https://streetviewpixels-pa.googleapis.com/v1/thumbnail?panoid=dY8h4GdDJ6AVt-eTXp92Yg&cb_client=search.gws-prod.gps&w=408&h=240&yaw=29.527918&pitch=0&thumbfov=100,1.0,3,2025-06-15T22:58:05.309Z,repuestos
Autopartes Narvona,Tienda de repuestos para automóviles,,Alfredo Prat 552,+54 223 557-3255,Azul,Provincia de Buenos Aires,-36.7766072,-59.858105,4.6,3,https://streetviewpixels-pa.googleapis.com/v1/thumbnail?panoid=j7Aaz6HW0t6AzZ_rep0HtA&cb_client=search.gws-prod.gps&w=408&h=240&yaw=49.75593&pitch=0&thumbfov=100,1.0,5,2025-06-15T22:58:05.309Z,repuestos
Tap-car,Tienda de repuestos para automóviles,https://www.facebook.com/Tap-Car-104595401939804,Necochea 286,+54 2281 43-0690,Azul,Provincia de Buenos Aires,-36.7757116,-59.8540634,4.7,2,https://lh3.googleusercontent.com/p/AF1QipMknPAW7XxdHYeD3-27LXuGJpp9TBicqc0RyXkJ=w408-h408-k-no,5.0,7,2025-06-15T22:58:05.309Z,repuestos
Repuestos Agrocentro,Tienda de repuestos para automóviles,,Rivadavia 260,+54 2281 31-3459,Azul,Provincia de Buenos Aires,-36.7714256,-59.8587793,4.9,1,https://streetviewpixels-pa.googleapis.com/v1/thumbnail?panoid=3o0bPby6usx1pZm4wauFLg&cb_client=search.gws-prod.gps&w=408&h=240&yaw=321.94196&pitch=0&thumbfov=100,2.0,7,2025-06-15T22:58:05.308Z,repuestos
Desde la Raiz,Tienda de muebles,http://www.desdelaraiz.com.ar/,Burgos 445,+54 2281 47-0383,Azul,Provincia de Buenos Aires,-36.7754065,-59.8599711,4.5,8,https://lh3.googleusercontent.com/p/AF1QipMfIUzF5rNP7hYlKdt2PfknfUTroHaJcG_80aId=w408-h408-k-no,92.0,69,2025-06-15T22:57:48.198Z,muebles
redes,Tienda de móviles,,,+54 2281 59-9780,,,-36.772316,-59.8510875,,9,https://lh3.googleusercontent.com/p/AF1QipPITmMESufbiUr60cT17OyuHV7dyqap-0kDvZzn=w408-h408-k-no,3.0,0,2025-06-15T22:58:07.386Z,telefonia
Todo Lindo Deco,Tienda de regalos,,Bolivia 197,,Azul,Provincia de Buenos Aires,-36.7661498,-59.8706984,,40,https://streetviewpixels-pa.googleapis.com/v1/thumbnail?panoid=Bq8srbRexam2fXtIpcck3g&cb_client=search.gws-prod.gps&w=408&h=240&yaw=121.13609&pitch=0&thumbfov=100,1.0,0,2025-06-15T22:58:10.220Z,tienda
Luz de Luna Tienda,Tienda de ropa,,Burgos Nte. 600,+54 2281 42-2231,Azul,Provincia de Buenos Aires,-36.7616497,-59.8437792,4.0,39,https://lh3.googleusercontent.com/gps-cs-s/AC9h4nq9UVvstIV5kijGhHX66Bc5eVqwliuAD-Z1JK49E_oXOpYtD_paEncLixnm-XjxX-VjOO56qFyPwcdfrnwCVygxEkjcGGdzOYMFH1MAh71i-DKXeQ6mCx6EblzPvxyz-Izo4SQRsQ=w408-h401-k-no,2.0,2,2025-06-15T22:58:10.219Z,tienda
CB indumentaria,Tienda de ropa,,C. Quiroga,,Azul,Provincia de Buenos Aires,-36.7680474,-59.874218,5.0,38,,,6,2025-06-15T22:58:10.219Z,tienda
Carina Pedrozo,Tienda de ropa,,Sarmiento 602,,Azul,Provincia de Buenos Aires,-36.7735158,-59.8525459,,60,https://streetviewpixels-pa.googleapis.com/v1/thumbnail?panoid=f99wiLHuI_Ly64UyUDIHvg&cb_client=search.gws-prod.gps&w=408&h=240&yaw=60.450577&pitch=0&thumbfov=100,1.0,0,2025-06-15T22:58:11.505Z,tienda
"Fruteria y Verduleria ``El Chapu""",Frutería,,Maipú Nte. 86,,Azul,Provincia de Buenos Aires,-36.765591,-59.8549762,4.7,59,https://lh3.googleusercontent.com/gps-cs-s/AC9h4npGSjIQHIXcBiUAAmyi07UauIg5IBtKdCcR9eQefDZ-wnNzLOqzy_GVBs3rSKYAXPNVij2ja65mBm-rBGhl_kCRzRjNOrGcQa0CWxe1emyq513Tk-Oj15TSnneKF_tYzT496XJyJQ=w533-h240-k-no,2.0,43,2025-06-15T22:58:11.504Z,tienda
Autoservicio De Frutas Y Verduras,Tienda de alimentación,,,,Azul,Provincia de Buenos Aires,-36.7714222,-59.8601664,,58,https://streetviewpixels-pa.googleapis.com/v1/thumbnail?panoid=o6r6Wy7J5mx14C-CKgaJTA&cb_client=search.gws-prod.gps&w=408&h=240&yaw=1.8574951&pitch=0&thumbfov=100,1.0,0,2025-06-15T22:58:11.504Z,tienda
EL GARAGE,Tienda de ropa,,Alfredo Prat 514,,Azul,Provincia de Buenos Aires,-36.7760197,-59.8591768,,57,https://streetviewpixels-pa.googleapis.com/v1/thumbnail?panoid=sGAY1ks-g8huI9pzWBC1nA&cb_client=search.gws-prod.gps&w=408&h=240&yaw=11.134237&pitch=0&thumbfov=100,1.0,0,2025-06-15T22:58:11.504Z,tienda
Emma ropa interior❣️,Tienda de ropa interior,https://www.facebook.com/danii.diegoo,Rivadavia norte 523 Entre 3 Y 4,+54 2281 35-4073,Azul,Provincia de Buenos Aires,-36.7676347,-59.869218,,55,https://lh3.googleusercontent.com/p/AF1QipMMfzC3xSQS1dsI-O0H2z_ubl6AP3JL8NisJ36m=w408-h906-k-no,2.0,0,2025-06-15T22:58:11.504Z,tienda
S&S Showrrom,Tienda de ropa de mujer,,Maipú 106,,Azul,Provincia de Buenos Aires,-36.7683723,-59.8581079,4.3,54,https://lh3.googleusercontent.com/gps-cs-s/AC9h4nrypLPEkOJHMAdkFaBIKcv0B9RP2jPTGaOErrojl8wm84MjF1pR90YqpXZMSJQjO9ZDAVzBFPcVsBwf1atFvZOvK9KJSj68nuNmbOHrZ6UChvJrvpQR3nM-PhA_0dj1bJiQJSuPt-qaj_8=w408-h675-k-no,11.0,3,2025-06-15T22:58:11.504Z,tienda
Panaderia Caprichos Angelicales,Panadería,,Amado Diab 257,,Azul,Provincia de Buenos Aires,-36.7703147,-59.8600144,5.0,53,https://streetviewpixels-pa.googleapis.com/v1/thumbnail?panoid=uLmPSLqiW36yClezDgfwUw&cb_client=search.gws-prod.gps&w=408&h=240&yaw=224.00159&pitch=0&thumbfov=100,1.0,1,2025-06-15T22:58:11.504Z,tienda
Tapiceria Storari,Tapicería,,Burgos 424,+54 2281 50-2772,Azul,Provincia de Buenos Aires,-36.7748822,-59.8598121,5.0,29,https://lh3.googleusercontent.com/p/AF1QipPNrtF3XByUFJHRh5lH6juj3DUhwuHFeZXBnpKS=w408-h544-k-no,31.0,3,2025-06-15T22:58:12.689Z,muebles
La Huerta Del Barrio,Frutería,,Amado Diab 700-652,+54 9 2281 46-6649,Azul,Provincia de Buenos Aires,-36.7758474,-59.8528095,4.5,51,https://lh3.googleusercontent.com/gps-cs-s/AC9h4noe1pEx7zvtqoI81lfzZgmcHBp1OfYQaR5Un38yXOIp6SBlLqoM6O8dtUZxnkLKW6HykH6a1kjFi0uYOW3Lu-NN4ocr1Batiw4_vGEDPp5Gd-unSd0UY5seVpYAH0S8yRTxeoO8Gg=w408-h306-k-no,11.0,6,2025-06-15T22:58:11.504Z,tienda
Jazmín,Bazar,,Av. Mitre 342,,Azul,Provincia de Buenos Aires,-36.7745498,-59.862609,4.2,52,https://lh3.googleusercontent.com/p/AF1QipMM7Skq-D-Ejyr30hqGvcQIMG7qOyJeO88ZpnOB=w408-h311-k-no,2.0,5,2025-06-15T22:58:11.504Z,tienda
Seres de Luz Bebés,Tienda de regalos,,Las Flores 0017,+54 2281 30-1556,Azul,Provincia de Buenos Aires,-36.7662374,-59.8578226,,73,https://lh3.googleusercontent.com/p/AF1QipNmu_ifxmoZLQb1QK4H4DR_o1_9xeSa7Bbg88UY=w408-h544-k-no,12.0,0,2025-06-15T22:58:12.882Z,tienda
"Artesanías, tejidos y otras yerbas",Tienda de artesanías,,Catamarca 226,,Azul,Provincia de Buenos Aires,-36.7639419,-59.8533794,5.0,72,https://lh3.googleusercontent.com/gps-cs-s/AC9h4noVv1uZbdPiPr_jD4rZvknvBPwgMW8jkj4bOpB_7KslwK6Mfn-GFE0ek2dmWqUu5NcHVrDPHnmVN9QkO1UfVQL3vEsQu8e0gXcjCIwd1d9jGeRHIpo6RVxQm-ZfLJUi8R9s8k987Q=w426-h240-k-no,40.0,3,2025-06-15T22:58:12.882Z,tienda
Te llevo conmigo,Tienda de ropa de mujer,https://sites.google.com/view/tellevoconmigoazul/,C. Colombia 219,+54 9 2281 59-3546,Azul,Provincia de Buenos Aires,-36.7667514,-59.8698625,5.0,71,https://lh3.googleusercontent.com/p/AF1QipOIUHB9WJLAKmwstXjFIILgHRkjR1nlc5b5-7XC=w408-h408-k-no,868.0,6,2025-06-15T22:58:12.882Z,tienda
Lima limon,Tienda de ropa,http://minilimall.empretienda.com.ar/,Argentina 316,+54 2281 45-9632,Azul,Provincia de Buenos Aires,-36.766668,-59.8677154,5.0,37,https://lh3.googleusercontent.com/p/AF1QipO3ppgSrjvkoE-SnHds-gVnC1b8Tae8LtCpbxDK=w408-h544-k-no,16.0,3,2025-06-15T22:58:10.219Z,tienda
Carnicería Don Juan,Carnicería,,Alvear 263,+54 2281 42-7260,Azul,Provincia de Buenos Aires,-36.7708964,-59.8592608,4.9,70,https://lh3.googleusercontent.com/gps-cs-s/AC9h4nocMqm4cimmgGGTi2Eifp4Ua0juldwDj7xGpsuvVoLXqcyvqWD4hY4ctx6Z3LrUiWthfgChaSaYD-CqNguismlzgaDq5KENj-r8qlGRgI-43jKW7jEx8tETbcZMa64J0WyDRTEg=w408-h545-k-no,4.0,46,2025-06-15T22:58:12.882Z,tienda
DESPENSA FRAN,Tienda de alimentación,,,,Azul,Provincia de Buenos Aires,-36.771146,-59.8453021,,69,https://streetviewpixels-pa.googleapis.com/v1/thumbnail?panoid=CodZMhTCRfYvMbZmNFoQmw&cb_client=search.gws-prod.gps&w=408&h=240&yaw=10.21218&pitch=0&thumbfov=100,1.0,0,2025-06-15T22:58:12.881Z,tienda
"Distribuidora ""El Milagro""",Panadería,,Lavalle Nte. 0187,+54 2281 54-9787,Azul,Provincia de Buenos Aires,-36.773543,-59.8421025,4.9,68,https://lh3.googleusercontent.com/p/AF1QipOd8ukfqlmf_U9a8S6HFeMegnblx84kdm7847oV=w429-h240-k-no,23.0,46,2025-06-15T22:58:12.881Z,tienda
Drita,Tienda de ropa,,Av. 25 de Mayo Nte.,,Azul,Provincia de Buenos Aires,-36.7712387,-59.8499739,,66,https://streetviewpixels-pa.googleapis.com/v1/thumbnail?panoid=ZKyvS276Df5XwDEBNuaWVg&cb_client=search.gws-prod.gps&w=408&h=240&yaw=133.6758&pitch=0&thumbfov=100,1.0,0,2025-06-15T22:58:12.881Z,tienda
"Panadería ""Il Più Dolce""",Panadería,,Tapalqué & Burgos Norte,,Azul,Provincia de Buenos Aires,-36.7686459,-59.8521283,5.0,67,https://lh3.googleusercontent.com/gps-cs-s/AC9h4npAi-mGGq181ltiLPR5B-JPcdWbW7LGDWN2fgZSR17nE-MtrmU1I29QiaNOEk4fUzcN4vHQgIK7q47iTgC3kZ_vapzwthVsVoSVnsiWgcAXvoSjof4usSd2keBJxuXa92ehqRk=w408-h306-k-no,3.0,2,2025-06-15T22:58:12.881Z,tienda
Vibras indumentaria,Tienda de ropa,,Maipú 24,,Azul,Provincia de Buenos Aires,-36.7671274,-59.8567258,,63,https://streetviewpixels-pa.googleapis.com/v1/thumbnail?panoid=VnmkEEL7F8ab_O3yypEFmw&cb_client=search.gws-prod.gps&w=408&h=240&yaw=298.0069&pitch=0&thumbfov=100,1.0,0,2025-06-15T22:58:12.881Z,tienda
La Granja de Pepe,Tienda de aves de corral,https://instagram.com/la_granjadepepe?utm_medium=copy_link,Av. Güemes 140,+54 2281 66-0593,Azul,Provincia de Buenos Aires,-36.7732102,-59.8757719,4.5,61,https://lh3.googleusercontent.com/gps-cs-s/AC9h4nr88JM6-ioxRUr_gyFfF02ri733sXOgiSumm3TLrY8zs6mlP5Ceitw_gQLm2apMDqm8lkzJ8hdF0m8P0pSaoJv40b8ZDOs65nluW0zq4UIyTcoFFQ44bX-IcxucErZSPPov7fhx=w408-h408-k-no,4.0,19,2025-06-15T22:58:12.881Z,tienda
Autoservicio 25 de Mayo,Supermercado,,202,+54 431614,Azul,Provincia de Buenos Aires,-36.7740292,-59.853885,4.6,62,https://lh3.googleusercontent.com/p/AF1QipNzZHTqflgC-I66vi5ZtpalyCe6GMNAaRCLJ3bE=w408-h306-k-no,10.0,31,2025-06-15T22:58:12.881Z,tienda
La saladita La Terminal,Tienda de ropa,,"Avenida 25 de Mayo Norte, Catamarca &",,Azul,Provincia de Buenos Aires,-36.7685978,-59.847185,5.0,49,,,1,2025-06-15T22:58:11.504Z,tienda
Lo De Jose Minimercado,Tienda de alimentación,,,,Azul,Provincia de Buenos Aires,-36.773121,-59.8760697,,48,https://streetviewpixels-pa.googleapis.com/v1/thumbnail?panoid=XClFCNSP0y5jsYdKeC3YsQ&cb_client=search.gws-prod.gps&w=408&h=240&yaw=124.84597&pitch=0&thumbfov=100,1.0,0,2025-06-15T22:58:11.504Z,tienda
Mujer Bonita Azul,Tienda de accesorios de moda,http://instagram.com/mujerbonita_accss,P. Bogliano 518,+54 2281 41-1929,Azul,Provincia de Buenos Aires,-36.7748488,-59.8572431,5.0,47,https://lh3.googleusercontent.com/p/AF1QipPLlWydEXleSNL7regRskN1SkhYdlllKRz1BnF_=w408-h544-k-no,35.0,15,2025-06-15T22:58:11.504Z,tienda
TODO MODA MARY,Tienda de ropa,,Av. Mitre 245,,Azul,Provincia de Buenos Aires,-36.7736354,-59.8645087,5.0,46,https://streetviewpixels-pa.googleapis.com/v1/thumbnail?panoid=Ya7O6uMZ3DzB7sQS66C8Cg&cb_client=search.gws-prod.gps&w=408&h=240&yaw=221.87366&pitch=0&thumbfov=100,1.0,1,2025-06-15T22:58:11.504Z,tienda
Oro verde,Tienda de alimentación,,Laprida 445,,Azul,Provincia de Buenos Aires,-36.769976,-59.8670568,,44,https://streetviewpixels-pa.googleapis.com/v1/thumbnail?panoid=mqdQlKAqDSr9v5IwHfn1ew&cb_client=search.gws-prod.gps&w=408&h=240&yaw=134.13263&pitch=0&thumbfov=100,1.0,0,2025-06-15T22:58:11.503Z,tienda
Supermercado Asia,Supermercado,,P. Bogliano 539,+54 2281 43-0500,Azul,Provincia de Buenos Aires,-36.775225,-59.857155,4.0,43,https://lh3.googleusercontent.com/gps-cs-s/AC9h4noInTwxpnxUbn1puCSrnsrF2eSiq-YPsi2IgemIP-Aco9mp3M7IYGF9kYSkhBpPRLRjEtpfROQMOwIGAMpYaQSk3g0RpLYQd40eHFMOlfQ4VpT-1NSOdL4FEE_-BYMMAK1ohQROBA=w408-h544-k-no,6.0,202,2025-06-15T22:58:11.503Z,tienda
DESPENSA TWEETY,Tienda de alimentación,,Av. Mitre 113,,Azul,Provincia de Buenos Aires,-36.7721667,-59.8664061,,42,https://streetviewpixels-pa.googleapis.com/v1/thumbnail?panoid=Jen_YrMfDGme_ZXGvOKxTw&cb_client=search.gws-prod.gps&w=408&h=240&yaw=242.89674&pitch=0&thumbfov=100,1.0,0,2025-06-15T22:58:11.503Z,tienda
ELPRA,Tienda de repuestos para automóviles,http://elpra.com.ar/,Alfredo Prat 414,+54 2281 35-3991,Azul,Provincia de Buenos Aires,-36.7747679,-59.8607462,4.7,6,https://lh3.googleusercontent.com/p/AF1QipPSzDiBjOLxUFVHQnz3IdlLeLMYBrQ-6it0-CT9=w408-h306-k-no,17.0,30,2025-06-15T22:58:05.309Z,repuestos
Tapicería,Tienda de muebles,,Hipólito Yrigoyen 201,,Azul,Provincia de Buenos Aires,-36.7743347,-59.8668995,,18,https://streetviewpixels-pa.googleapis.com/v1/thumbnail?panoid=V_oOOe7ag9r1hwGK_EQ65w&cb_client=search.gws-prod.gps&w=408&h=240&yaw=233.52309&pitch=0&thumbfov=100,1.0,0,2025-06-15T22:58:11.398Z,muebles
Maz Estilo Industrial,Fábrica de muebles,,Belgrano N°120,+54 2281 50-0246,Azul,Provincia de Buenos Aires,-36.7728728,-59.8668997,,13,https://lh3.googleusercontent.com/p/AF1QipNdTsc8jF7boV41C6IVYjI1jB7QVxsghD-CRssR=w408-h543-k-no,11.0,0,2025-06-15T22:58:11.398Z,muebles
CODE WORLD,Tienda de ropa,https://codeworld.empretienda.com.ar/,Maipú 84,,Azul,Provincia de Buenos Aires,-36.7680111,-59.8577516,5.0,64,https://lh3.googleusercontent.com/gps-cs-s/AC9h4npyL8CM7zemKmn-VRrx-D1ycFclEyvwsLk-oosXOT3wmTux_dRlA2rebqtc3UJT-J7foCpZuAOQx8oPieIwu9ac7AwJCe-GCa93iwCZItjVm0LrRO2GnL7Bht6fh2WG-fF585HKoA=w408-h725-k-no,15.0,3,2025-06-15T22:58:12.881Z,tienda
MUEBLES EL COMIENZO,Tienda de muebles,,Av. Mitre 358,,Azul,Provincia de Buenos Aires,-36.7748978,-59.8623644,,8,https://streetviewpixels-pa.googleapis.com/v1/thumbnail?panoid=6uHwPKDzhlbwqr6GmDBURw&cb_client=search.gws-prod.gps&w=408&h=240&yaw=26.10372&pitch=0&thumbfov=100,1.0,0,2025-06-15T22:58:11.397Z,muebles
Blue Design - Fabrica de Sillones,Tienda de muebles,,Av. Mitre 243,+54 2281 43-1286,Azul,Provincia de Buenos Aires,-36.773635,-59.8645586,3.3,6,https://lh3.googleusercontent.com/p/AF1QipNbTrciIGZKfr1Q_YGlNeasR-2Pvip7k7TVs1te=w408-h408-k-no,8.0,3,2025-06-15T22:58:11.397Z,muebles
Casa Martinez,Frutería,,San Martín 200,+54 2281 42-5386,Azul,Provincia de Buenos Aires,-36.7748466,-59.8675687,4.8,35,https://lh3.googleusercontent.com/gps-cs-s/AC9h4nrWHiLZs83FA1hMFednDU32MiIuampDEnoLHJjxdCY80HpzaIrfeONd3mKp9CVZiRVCqB60WL2-JoNXJ9FqfNb5A_w9DLteCNfzfOQNN3fmY9Xemn9Pgpl42N_hT7NsG_zhs9n3=w426-h240-k-no,28.0,29,2025-06-15T22:58:10.219Z,tienda
Despensa Filipo's,Tienda general,,San Martín 149,,Azul,Provincia de Buenos Aires,-36.774484,-59.8684286,5.0,34,https://lh3.googleusercontent.com/p/AF1QipOHZTk8hsS_welcWqsHyFRNm91-K-i68ElwVDmn=w426-h240-k-no,7.0,1,2025-06-15T22:58:10.219Z,tienda
AUTOSERVICIO EL ENCUENTRO,Tienda de alimentación,,Colón Nte. 320,,Azul,Provincia de Buenos Aires,-36.7644665,-59.8487302,,33,https://streetviewpixels-pa.googleapis.com/v1/thumbnail?panoid=GZIFnwEkGUs_EnWSolRmCA&cb_client=search.gws-prod.gps&w=408&h=240&yaw=340.96942&pitch=0&thumbfov=100,1.0,0,2025-06-15T22:58:10.219Z,tienda
Despensa El Comienzo,Tienda de alimentación,,,,Azul,Provincia de Buenos Aires,-36.7740716,-59.855395,5.0,32,https://lh3.googleusercontent.com/gps-cs-s/AC9h4nrBRCg-0qewru2xhUSvQrqxwcbLPTxH9lOGLo5gDItAND0G3cLzGq_fhAByCr2Auc-hLKAEotPOFApf9Sn-n_GHABnZNcRJCR-98ZWzinrcV3yr0HLBWE5VBmamaPDrwBYagFAveQ=w426-h240-k-no,6.0,1,2025-06-15T22:58:10.219Z,tienda
Lácteos Luz Azul,Quesería,http://www.luz-azul.com.ar/,Maipú Nte. 499,+54 2281 43-2224,Azul,Provincia de Buenos Aires,-36.7604703,-59.848495,4.8,45,https://lh3.googleusercontent.com/gps-cs-s/AC9h4np0cVyc_1A9LguCKPDX_wZSQ4m35WM3sGGW4rQiguT2NbuqxciyrO65JsjxHJyR3TuyHxaufIebJjjGg5fzJeQw8_9GaRUhe20bQvBJYm-pUJvm7ib7D5ZrSJaN_rgY1KCSsg=w408-h544-k-no,7.0,26,2025-06-15T22:58:11.503Z,tienda
VAXELGOL ⚽️,Tienda de camisetas,,Av. 25 de Mayo 325,+54 2281 31-2979,Azul,Provincia de Buenos Aires,-36.7757608,-59.8554042,5.0,31,https://lh3.googleusercontent.com/gps-cs-s/AC9h4npv1Jdpb5hW6fyzuZCqJfKtzmNcwolDMj1FCUDJdmansvgJ_rTPrarQZcDkFpzo5n88j4gk4Xdv35dDnpS-zbbkN_ILyMju7rKl8TetkSwMSPl0aAAzdo1ygWT7KXm6XF4xl1Fd=w408-h883-k-no,3.0,2,2025-06-15T22:58:10.219Z,tienda
Despensa San Juan,Tienda general,,Maipú Nte. 150,,Azul,Provincia de Buenos Aires,-36.7648425,-59.8538503,5.0,30,https://lh3.googleusercontent.com/gps-cs-s/AC9h4nroLGKpfy-qiOK5YozyS9USGIPsg9Y8ZkqdjXnMvFWgwtgRphZgfFpnoSXAps-OaTxu-Fio_MLOSSbHaFjIc3GwSItbU3g1jzZh3mVlHRal4s6JKMeEnBPLzdXZ0kkRG5hwJGio8w=w408-h725-k-no,3.0,1,2025-06-15T22:58:10.219Z,tienda
Frase cuadro,Tienda de regalos,,Coronel Santiago Avendaño 948,,Azul,Provincia de Buenos Aires,-36.7733142,-59.8791358,5.0,29,,,1,2025-06-15T22:58:10.219Z,tienda
LA ECONOMIA,Tienda general,,,,Azul,Provincia de Buenos Aires,-36.7712874,-59.872611,5.0,28,https://streetviewpixels-pa.googleapis.com/v1/thumbnail?panoid=P94eFYLu207fTOCwIFkVtw&cb_client=search.gws-prod.gps&w=408&h=240&yaw=228.95523&pitch=0&thumbfov=100,1.0,7,2025-06-15T22:58:10.219Z,tienda
Don Nicola,Tienda de alimentación,,Azul,,Buenos Aires,Provincia de Buenos Aires,-36.7706177,-59.8497427,4.3,27,https://lh3.googleusercontent.com/gps-cs-s/AC9h4nopCXEWBL596TDH0yPLtToItHp8cBh3SzcFCvM7vKVkMel4pJl9FSxX-pdRg-HE6LAJerVPT9eNcnzd8AvtXLTQHCL2idEwH48O3cB37INKrhlVGhJp28xIwUwNh-iGgJrFTah8=w408-h725-k-no,4.0,46,2025-06-15T22:58:10.219Z,tienda
Minimercado TITAN,Tienda de alimentación,,,,Azul,Provincia de Buenos Aires,-36.7604215,-59.8481541,,26,https://streetviewpixels-pa.googleapis.com/v1/thumbnail?panoid=zaBYKfkBUG4WDlLRr6ouQA&cb_client=search.gws-prod.gps&w=408&h=240&yaw=115.97679&pitch=0&thumbfov=100,1.0,0,2025-06-15T22:58:10.219Z,tienda
El Ombú,Tienda de alimentación,,Laprida 209,+54 2281 58-3401,Azul,Provincia de Buenos Aires,-36.767089,-59.8627622,5.0,24,https://streetviewpixels-pa.googleapis.com/v1/thumbnail?panoid=xOSYwhC-5wFLm1r3ZjiBjA&cb_client=search.gws-prod.gps&w=408&h=240&yaw=299.252&pitch=0&thumbfov=100,1.0,1,2025-06-15T22:58:10.219Z,tienda
La Escoba Loca,Tienda de artículos para el hogar,,Colón Nte. 117,+54 2281 50-2996,Azul,Provincia de Buenos Aires,-36.7672813,-59.851848,4.8,25,https://lh3.googleusercontent.com/gps-cs-s/AC9h4npo2UT-7dK-Ks0QK7dDyQltMezP5klbpu3-DR6snWsL1gcHBK04etTAXV9HnnMPy4ANCyTGqS3rzvKY0UvBv9dyLAyu7qm4HVAEWOrCLe1nU8hr_-4nw0kPBsy-6CKEVjWX_MW_=w408-h544-k-no,44.0,73,2025-06-15T22:58:10.219Z,tienda
Artículos magali,Tienda general,,Monseñor Caneva Nte. 160,+54 2281 31-0611,Azul,Provincia de Buenos Aires,-36.7743527,-59.8418982,4.3,23,,,12,2025-06-15T22:58:10.219Z,tienda
Autoservicio Azul,Supermercado,,Av. Mitre 350,+54 2281 41-9153,Azul,Provincia de Buenos Aires,-36.7748411,-59.8626342,4.3,22,https://lh3.googleusercontent.com/p/AF1QipOoQZ1_3wHyY3eqS4mJ71Bhvi5fq5hj41UGNx2F=w426-h240-k-no,116.0,48,2025-06-15T22:58:10.219Z,tienda
Despensa y Anexos BIYO,Tienda de alimentación,,Aldaz 451-499,+54 2281 49-3233,Azul,Provincia de Buenos Aires,-36.7645249,-59.8461452,4.5,21,https://streetviewpixels-pa.googleapis.com/v1/thumbnail?panoid=NxYDTV1c0W15YmWcWI15WA&cb_client=search.gws-prod.gps&w=408&h=240&yaw=253.79605&pitch=0&thumbfov=100,2.0,36,2025-06-15T22:58:10.218Z,tienda
Cabaña Don Graziano,Cabañas de madera,,Alvear 3076,+54 9 2281 65-5391,Azul,Provincia de Buenos Aires,-36.8077794,-59.9034545,4.8,6,https://lh3.googleusercontent.com/p/AF1QipOzzwgLhPwwVlRxOkgROuBxVikXKXnmKU9bZ6I=w408-h306-k-no,74.0,31,2025-06-15T22:58:15.465Z,venta
CABAÑAS LAS 5 ESTACIONES,Cabañas de madera,,RP51 entre calle 142 y 145,+54 2281 65-1125,Azul,Provincia de Buenos Aires,-36.8065263,-59.905954,5.0,2,https://lh3.googleusercontent.com/p/AF1QipOn4rTLUctOqss-BRSQ89EFXnWCF04Wp7v2GsHU=w408-h306-k-no,10.0,11,2025-06-15T22:58:15.465Z,venta
Cabañas Le Befane.,Cabañas de madera,,Obligado 352,+54 2281 54-6646,Azul,Provincia de Buenos Aires,-36.7983135,-59.8904797,5.0,4,https://lh3.googleusercontent.com/p/AF1QipPMB7aFhHAi8AOTNGm5b5eMj1dh6mn4pL0XXEqG=w408-h357-k-no,18.0,6,2025-06-15T22:58:15.465Z,venta
Casa Chenna,Joyería,,Moreno 613,+54 2281 55-6492,Azul,Provincia de Buenos Aires,-36.7789825,-59.8610698,5.0,6,https://lh3.googleusercontent.com/gps-cs-s/AC9h4nqHyBGwWuRN9T3u0j34w2rpAzG0ef50omBRe_TzyKkJTGXnXAtkRif66YJI7WlVbnIwImZ-EQ1NUvso56gF_nEh4WQ_6iYuONOlmgldS6_E-6Y8fuBUGB1A5iou7c5kkxesCgw=w408-h725-k-no,32.0,32,2025-06-15T22:58:15.475Z,venta online
Valenziana Muebles,Tienda de muebles,http://www.desdelaraiz.com.ar/,,+54 2281 47-0383,Azul,Provincia de Buenos Aires,-36.7753427,-59.8602846,,2,https://lh3.googleusercontent.com/gps-cs-s/AC9h4noOXe-rtL831RWhuoC_bz6u_-aSAeLiPfxc0yum1PjzSsp1Y9zAJnZ8tmHLrJBU2xJWTIot3UP-IoWiHxIOuCOsxoTWbZOBV_NFhdFh3iaW3cSaNGFiBMbne9oVXROWVnK7qbdlWg=w408-h306-k-no,8.0,0,2025-06-15T22:58:11.397Z,muebles
Dios las Cría,Tienda de artículos para el hogar,http://www.tiendadioslascria.com.ar/,Tienda Online,,Azul,Provincia de Buenos Aires,-36.7749333,-59.8539978,,41,https://streetviewpixels-pa.googleapis.com/v1/thumbnail?panoid=dY8h4GdDJ6AVt-eTXp92Yg&cb_client=search.gws-prod.gps&w=408&h=240&yaw=29.565126&pitch=0&thumbfov=100,1.0,0,2025-06-15T22:58:11.503Z,tienda
Haya Paz,Tienda de ropa de mujer,http://hayapaz.com.ar/,calle 1 N°418 PIDA2,+54 2281 55-1798,Azul,Provincia de Buenos Aires,-36.7599848,-59.8421155,4.7,74,https://lh3.googleusercontent.com/p/AF1QipOUSOVi5nHfZkH6tdXgfHnyzHPkniZDJQpXlQnH=w408-h408-k-no,18.0,9,2025-06-15T22:58:12.882Z,tienda
Pardo,Tienda de electrodomésticos,https://www.pardo.com.ar/,Av. Mitre 521,+54 2281 43-3019,Azul,Provincia de Buenos Aires,-36.7771664,-59.8599419,4.3,14,https://lh3.googleusercontent.com/p/AF1QipPQW7jFhEHhIf1ExcoF6yQySzbEc0VdCn-P8TLD=w408-h306-k-no,5.0,195,2025-06-15T22:58:11.398Z,muebles
Lamanna Propiedades,Agencia inmobiliaria,,Burgos Nte. 120,+54 2281 47-2952,Azul,Provincia de Buenos Aires,-36.7677194,-59.851108,5.0,7,https://streetviewpixels-pa.googleapis.com/v1/thumbnail?panoid=hQTx993mZvOzfLCqGAZ3Ww&cb_client=search.gws-prod.gps&w=408&h=240&yaw=289.7865&pitch=0&thumbfov=100,1.0,13,2025-06-15T22:58:21.566Z,venta
La Casa de la Goma SRL,Ferretería,,Moreno 802,,Azul,Provincia de Buenos Aires,-36.7813929,-59.8644188,4.3,16,https://lh3.googleusercontent.com/gps-cs-s/AC9h4no34VOxPST9M-gkqoiV0U0nQkBXJ92yx4qSdNXwg_xwcZbulIWyoKTDAFVLDHhdNCjdR-PSHTDpoSbNPCalTnYlqfY6kq9VTLRoKTGhBGNV_OYBURQnn5gj9uwl_Pl-uA68NS7fKY5mflBe=w408-h544-k-no,7.0,68,2025-06-15T22:58:26.902Z,maquinaria
Rotondo y Peyré,Tienda de materiales para la construcción,,Ruta 3 y Pringles Km 298,+54 2281 40-7962,Azul,Provincia de Buenos Aires,-36.7860398,-59.8340942,4.6,13,https://lh3.googleusercontent.com/gps-cs-s/AC9h4npEE__SO4a1Fyio_JUSuv0fQfHApkHiBb88NgWPMdtPnQwO2rFcigjBMQ_6E9X3mb4Q4jGW_LKzpHhgfvg8UV_c_0B9eK65AFKlWFdEw9vIGXGRskdW2jwIDquwhZcfMO5X3DxOZw=w493-h240-k-no,37.0,220,2025-06-15T22:58:26.901Z,maquinaria
Inmobiliaria Gonzalo Vila,Agencia inmobiliaria,https://inmobiliariavila.com.ar/,Salta 727,+54 2281 47-1714,Azul,Provincia de Buenos Aires,-36.7759162,-59.8515276,4.4,9,https://lh3.googleusercontent.com/gps-cs-s/AC9h4nrKHrY2jVbdV1eAt4r4O-SyMTwdDmMC_9TqSq2o8B4j-Nd4eT7u3casYk6eRp0MUAkulGAVBE1YC1iKXDnl2ldUtmbyIyvEZ1UHGeExwrAXyF_lI80zYw8BLrR9ui5C7S-RRlyDCQ=w426-h240-k-no,6.0,37,2025-06-15T22:58:21.566Z,venta
Cyber Cell,Tienda de móviles,,Av. Mitre Nte. 711,+54 2281 41-7433,Azul,Provincia de Buenos Aires,-36.7794959,-59.8567941,3.7,5,https://streetviewpixels-pa.googleapis.com/v1/thumbnail?panoid=hHyM0Dmd0JfRH41l7tHK0Q&cb_client=search.gws-prod.gps&w=408&h=240&yaw=80.96249&pitch=0&thumbfov=100,1.0,3,2025-06-15T22:58:32.345Z,telefonia
Inmobiliaria Gordon,Agencia inmobiliaria,https://www.facebook.com/inmobiliaria.gordon.azul,San Martín 359,+54 2281 42-4610,Azul,Provincia de Buenos Aires,-36.7771451,-59.8650354,4.1,17,https://streetviewpixels-pa.googleapis.com/v1/thumbnail?panoid=xk3eKKZZ5bNXB3v3hnG7pA&cb_client=search.gws-prod.gps&w=408&h=240&yaw=230.09537&pitch=0&thumbfov=100,1.0,33,2025-06-15T22:58:32.530Z,venta
Pañalera goby,Tienda de ropa,,San Martín 315,,Azul,Provincia de Buenos Aires,-36.7765796,-59.8658346,3.8,16,https://streetviewpixels-pa.googleapis.com/v1/thumbnail?panoid=PBMsYOBbvtTvijjkkjQA_Q&cb_client=search.gws-prod.gps&w=408&h=240&yaw=221.50412&pitch=0&thumbfov=100,1.0,5,2025-06-15T22:58:32.530Z,venta
La Anónima,Supermercado,,,02281 42-9878,,,-36.783858,-59.853236,4.1,21,,,1602,2025-06-15T22:58:40.032Z,muebles
Sofia Lapenta,Tienda de ropa de mujer,https://sofialapenta.com.ar/,Burgos 686,+54 249 457-4708,Azul,Provincia de Buenos Aires,-36.7785068,-59.8639903,4.9,8,https://lh3.googleusercontent.com/p/AF1QipMfusui7j7weQu83PQ9042IoAWt6PE1ki9AgXnf=w521-h240-k-no,58.0,36,2025-06-15T22:58:02.824Z,regaleria
Neumaticos Hansen,Tienda de repuestos para automóviles,https://neumaticoshansen.com.ar/,Av. Mitre 827,+54 2281 53-3962,Azul,Provincia de Buenos Aires,-36.7809824,-59.8548772,4.7,39,https://lh3.googleusercontent.com/p/AF1QipNX8cdou5MYB1army0bRR0ZpXOWFVNloD03waIB=w426-h240-k-no,15.0,141,2025-06-15T22:57:07.432Z,repuestos
Benelli Store Azul,Tienda de motocicletas,http://www.benelliazul.com.ar/,Av. Mitre 971,+54 2281 43-2927,Azul,Provincia de Buenos Aires,-36.782935,-59.8524817,4.8,46,https://lh3.googleusercontent.com/p/AF1QipMqLKXxpI8G0h9ABinrTP5E-BkX3t1pw9P9Kuvq=w426-h240-k-no,31.0,45,2025-06-15T22:57:24.930Z,venta
